{
"type": "FeatureCollection",
"name": "CMRPC_Tigerlines_Regions_FromCytsds_250820",
"crs": { "type": "name", "properties": { "name": "urn:ogc:def:crs:OGC:1.3:CRS84" } },
"features": [
{ "type": "Feature", "properties": { "TOWN": "WEST BROOKFIELD", "TOWN_ID": 323, "COUNTY": "WORCESTER", "region": "WEST" }, "geometry": { "type": "MultiPolygon", "coordinates": [ [ [ [ -72.069017425074264, 42.169618913809423 ], [ -72.072449964493885, 42.169278784258353 ], [ -72.07569272154457, 42.168807786129179 ], [ -72.089415732571027, 42.167138511251018 ], [ -72.086752292752166, 42.154435829228269 ], [ -72.108681071335482, 42.151588753983532 ], [ -72.111519306529914, 42.164455414400528 ], [ -72.135011123362503, 42.161783591129876 ], [ -72.141889096040629, 42.161000248763088 ], [ -72.199348647024664, 42.153706645081265 ], [ -72.200626230559848, 42.161287045059133 ], [ -72.263410690064546, 42.183639078362546 ], [ -72.263924458492767, 42.183830401945301 ], [ -72.263790388013064, 42.184609555272139 ], [ -72.263781666037985, 42.185654646350734 ], [ -72.263734992401069, 42.185870410270894 ], [ -72.263649311895392, 42.186154500163653 ], [ -72.263653028579128, 42.186463204398791 ], [ -72.26360689378545, 42.186824370670784 ], [ -72.263590328812526, 42.187047316830707 ], [ -72.263675310711946, 42.187429038204527 ], [ -72.263777833640944, 42.187990531954 ], [ -72.263749878518524, 42.18832321618369 ], [ -72.263614778148252, 42.188585396471815 ], [ -72.26349020860809, 42.188847506471689 ], [ -72.263397545778091, 42.18912525002407 ], [ -72.26331453785744, 42.189299929580287 ], [ -72.263212701917681, 42.189680733642525 ], [ -72.263172565709596, 42.189886819939744 ], [ -72.263132619888466, 42.190108751043091 ], [ -72.263184855708985, 42.190908181058354 ], [ -72.263251245299699, 42.191515382884702 ], [ -72.263247909123464, 42.19173112802347 ], [ -72.263264435321787, 42.191927293488469 ], [ -72.26324728693028, 42.192212637251934 ], [ -72.263276056929143, 42.192601215190777 ], [ -72.263368166566437, 42.192870525851099 ], [ -72.263508354374892, 42.19302004045916 ], [ -72.263968222349092, 42.193183091848091 ], [ -72.264268862390139, 42.193395010978449 ], [ -72.264398207630023, 42.193528660637192 ], [ -72.264453958335565, 42.193734198155965 ], [ -72.264467761360677, 42.19399538653159 ], [ -72.264697709185739, 42.195403164820668 ], [ -72.264712277814425, 42.195727732328649 ], [ -72.264715141544016, 42.195965224408319 ], [ -72.264708210826115, 42.196274089151508 ], [ -72.264690883704532, 42.196724917643188 ], [ -72.264622822104016, 42.197145562628229 ], [ -72.264490736040074, 42.197669093606294 ], [ -72.264388961464945, 42.198065563719375 ], [ -72.264296843291078, 42.198359149940181 ], [ -72.264207344073299, 42.198890229657664 ], [ -72.26410814209035, 42.199500514211586 ], [ -72.263963675109736, 42.19988160219048 ], [ -72.263786693678583, 42.200207355195005 ], [ -72.263683195444827, 42.200461401384352 ], [ -72.263536885612396, 42.20069988639483 ], [ -72.263411530037843, 42.200898706604981 ], [ -72.263265529969388, 42.201153035242342 ], [ -72.263162244530051, 42.201415002512881 ], [ -72.263015931621808, 42.201653576847427 ], [ -72.26290284587013, 42.201986826292284 ], [ -72.26283254483198, 42.202343560157473 ], [ -72.262792329857149, 42.202533800272079 ], [ -72.262614738614687, 42.202820030170699 ], [ -72.262489731189277, 42.203058462088272 ], [ -72.262195143577813, 42.203353391990859 ], [ -72.262059475877408, 42.203591714167231 ], [ -72.261578461260001, 42.204315454216733 ], [ -72.261205186081, 42.204643586342094 ], [ -72.261018897517246, 42.205003339354462 ], [ -72.260811821202026, 42.2052153034249 ], [ -72.260622608451456, 42.20542246686594 ], [ -72.260159430105489, 42.205868776437427 ], [ -72.258710295553925, 42.206946357887922 ], [ -72.257541103231631, 42.207770606343509 ], [ -72.255707782660423, 42.209675039138006 ], [ -72.24961937366551, 42.216002251426687 ], [ -72.221229977687301, 42.245249968343686 ], [ -72.218068652928878, 42.248605163688701 ], [ -72.214821467650225, 42.24904129540699 ], [ -72.214585316059299, 42.247571802578825 ], [ -72.210460307410997, 42.247205044585655 ], [ -72.211076830675708, 42.251252266578248 ], [ -72.211212988337223, 42.252132844747877 ], [ -72.211457483432312, 42.25241898460817 ], [ -72.211101763802731, 42.25567722568757 ], [ -72.216090865464565, 42.256196763184462 ], [ -72.217818377398544, 42.270179940338366 ], [ -72.212779114551012, 42.269804835559356 ], [ -72.212043206465552, 42.282651628577035 ], [ -72.207109735646583, 42.285246048157603 ], [ -72.203956879660552, 42.288879127239611 ], [ -72.203281829292735, 42.291181872357427 ], [ -72.210798596211532, 42.294479126390982 ], [ -72.213973667409888, 42.294256953445782 ], [ -72.216537608064584, 42.294073618897386 ], [ -72.216745505015226, 42.294056206126562 ], [ -72.216623183467732, 42.294241625259978 ], [ -72.216555441632394, 42.294545816334953 ], [ -72.216549203616836, 42.294776877738521 ], [ -72.216542547631931, 42.295046025333484 ], [ -72.216499386969474, 42.295325664275246 ], [ -72.216512021123862, 42.295424080625743 ], [ -72.216529218460337, 42.295507793272364 ], [ -72.216668386889694, 42.29587848771061 ], [ -72.21676658448996, 42.296100704545914 ], [ -72.216778561950861, 42.296194623346658 ], [ -72.216735252866997, 42.296300411219661 ], [ -72.216702740003001, 42.296502916240883 ], [ -72.216616543662553, 42.29681613551309 ], [ -72.216513211674126, 42.297094078960164 ], [ -72.216461647146502, 42.297252767037769 ], [ -72.216323424252593, 42.298520290453439 ], [ -72.216236497541004, 42.298855121531794 ], [ -72.216249509120331, 42.298943992089981 ], [ -72.216305032011306, 42.299135054071918 ], [ -72.216262588854633, 42.299306919817958 ], [ -72.216095005886899, 42.299426806872845 ], [ -72.215920928144371, 42.299519364407253 ], [ -72.215847906952561, 42.299593375630472 ], [ -72.21580536931107, 42.299778476481059 ], [ -72.215736170764913, 42.299943936364777 ], [ -72.215560103750349, 42.300096737157922 ], [ -72.215232889227565, 42.300257321223782 ], [ -72.214914792415499, 42.300430722182014 ], [ -72.214657214845985, 42.300582858351973 ], [ -72.213994646075435, 42.300839247840322 ], [ -72.213624152717486, 42.300948327815789 ], [ -72.213401015900999, 42.301068375849312 ], [ -72.213180637888556, 42.30120731303402 ], [ -72.212995636337538, 42.301353772987575 ], [ -72.212775126723969, 42.301513507579934 ], [ -72.21265226137551, 42.301652919064736 ], [ -72.212421528845923, 42.301982156550395 ], [ -72.212313387141833, 42.3022338362426 ], [ -72.212228092479108, 42.30256514249696 ], [ -72.212297259362359, 42.302816262978148 ], [ -72.212508103363419, 42.303079649504632 ], [ -72.212720579503753, 42.303250832795889 ], [ -72.212935980196661, 42.303530846177189 ], [ -72.213067673242648, 42.303808857828145 ], [ -72.213062142009207, 42.304006962437342 ], [ -72.212991643877032, 42.30416576615012 ], [ -72.212986405299233, 42.304476048713951 ], [ -72.212928555166016, 42.304885692859308 ], [ -72.212861693700518, 42.305249116442958 ], [ -72.212787409706664, 42.305599711441694 ], [ -72.212775060037231, 42.305784803631681 ], [ -72.212763862976971, 42.305953772951483 ], [ -72.212730429040221, 42.306226867055457 ], [ -72.212610479028214, 42.3066368960842 ], [ -72.212632048953665, 42.306979963851525 ], [ -72.21270569459071, 42.307197384196712 ], [ -72.212796945481998, 42.307394798223541 ], [ -72.21285212209709, 42.307566146689226 ], [ -72.212853923662422, 42.307736925975448 ], [ -72.212722500781851, 42.308205456838671 ], [ -72.212668211547054, 42.308382346067305 ], [ -72.212506211693267, 42.308742397814584 ], [ -72.21245217741982, 42.308931259568979 ], [ -72.212367276639526, 42.309136608427373 ], [ -72.212234434607851, 42.309576607262073 ], [ -72.212246008757816, 42.309807557190723 ], [ -72.212210676657733, 42.309955428397728 ], [ -72.212143878356386, 42.310217474901663 ], [ -72.211986002779767, 42.310416433254773 ], [ -72.211722356434706, 42.310701936934329 ], [ -72.211555078600654, 42.310841621940902 ], [ -72.21137867630236, 42.311022147590691 ], [ -72.210796222282696, 42.311380927590861 ], [ -72.211209480521632, 42.311325971903649 ], [ -72.261544271622427, 42.303332186585109 ], [ -72.261916528667939, 42.305259923206698 ], [ -72.274658687623017, 42.301968478077164 ], [ -72.277322303450546, 42.315334805327232 ], [ -72.280005446527312, 42.329101371754412 ], [ -72.277080325441602, 42.329409737779784 ], [ -72.278491247043902, 42.336465183582447 ], [ -72.281371810524348, 42.336129087340325 ], [ -72.28389109960456, 42.350203995912914 ], [ -72.284216069910926, 42.352009617081841 ], [ -72.28855950001946, 42.352077776602123 ], [ -72.288467098529168, 42.352318704994261 ], [ -72.288459284651211, 42.352490359085316 ], [ -72.28838217433065, 42.352701922211956 ], [ -72.288058092639048, 42.352867911492687 ], [ -72.287641584220978, 42.352902816570101 ], [ -72.287263968559571, 42.352834547597347 ], [ -72.286808918621276, 42.352737456928423 ], [ -72.286438700172454, 42.352697764727388 ], [ -72.286168629959505, 42.352863919417842 ], [ -72.286091529973788, 42.353086734825325 ], [ -72.286076078188586, 42.353367109160814 ], [ -72.286230320857555, 42.353549989394764 ], [ -72.286523194491195, 42.353675201290891 ], [ -72.286777736326201, 42.353743774691864 ], [ -72.287039936930029, 42.353852269188714 ], [ -72.287186327689255, 42.353989105659949 ], [ -72.28729423447659, 42.354252249819851 ], [ -72.287294208927975, 42.354503798553743 ], [ -72.287209317543187, 42.354744134135949 ], [ -72.287370951671676, 42.354983952287789 ], [ -72.287424869092973, 42.355161305631526 ], [ -72.287394125240183, 42.35537318063087 ], [ -72.287170434777323, 42.355521373713032 ], [ -72.286930970816798, 42.355601880447054 ], [ -72.286599425004724, 42.355676714380934 ], [ -72.286213705591379, 42.355768303517628 ], [ -72.285943569642569, 42.355940039879229 ], [ -72.285681536295399, 42.356060582254251 ], [ -72.285233888605461, 42.356277915215337 ], [ -72.284539767073014, 42.356393031729475 ], [ -72.284123073335678, 42.356610869372098 ], [ -72.283999618314397, 42.356777099203867 ], [ -72.283983939918571, 42.357040008368045 ], [ -72.284153566166182, 42.357268972593928 ], [ -72.2843461870293, 42.357394333416835 ], [ -72.284631625139042, 42.357525722989088 ], [ -72.284862990226983, 42.357593918612821 ], [ -72.285186849927285, 42.357622588605743 ], [ -72.285518777147928, 42.35768505446692 ], [ -72.285958239555413, 42.357804764817097 ], [ -72.28598113849155, 42.358016182596508 ], [ -72.285773022120864, 42.358119430595536 ], [ -72.285541539315446, 42.358188625820219 ], [ -72.285317869448363, 42.358320069085188 ], [ -72.285186857681126, 42.358571881743366 ], [ -72.285093657286183, 42.358857828162954 ], [ -72.284923750121536, 42.359115577997862 ], [ -72.284831290356237, 42.359275474900585 ], [ -72.284731163575202, 42.359453430352026 ], [ -72.284676985278921, 42.359773412094199 ], [ -72.28483858396298, 42.3599905458493 ], [ -72.285070125693395, 42.360150482038001 ], [ -72.285324550583326, 42.36034456352283 ], [ -72.285501743452855, 42.360556097929091 ], [ -72.285370720172011, 42.360836630784995 ], [ -72.285053900398736, 42.360848337316781 ], [ -72.284637697527415, 42.360951382849585 ], [ -72.284429018696542, 42.361186438262962 ], [ -72.284359739287765, 42.361414690558249 ], [ -72.284460069912797, 42.361683560605854 ], [ -72.284560044092871, 42.361923622902346 ], [ -72.284821925963413, 42.362483452622364 ], [ -72.284937549079146, 42.36305499379214 ], [ -72.285037378410919, 42.363752596645185 ], [ -72.285152469499963, 42.364603688816906 ], [ -72.285228249944993, 42.366111738492684 ], [ -72.285196959188653, 42.366779355123988 ], [ -72.285156432083454, 42.367915738194647 ], [ -72.285107868672085, 42.369050375177096 ], [ -72.285050157167376, 42.370132856088603 ], [ -72.285048566871737, 42.370611203506492 ], [ -72.285078563718884, 42.370856334176139 ], [ -72.28512292275866, 42.371329236098411 ], [ -72.285129007623325, 42.371790064925726 ], [ -72.28505004294199, 42.372148478385441 ], [ -72.285024999786003, 42.372547037849699 ], [ -72.285038376925812, 42.373076960816583 ], [ -72.284859599336045, 42.373327477458531 ], [ -72.284634705932262, 42.373354940765999 ], [ -72.284332784329379, 42.373319816963331 ], [ -72.284108805349447, 42.373176213571227 ], [ -72.284070987263206, 42.372965978219028 ], [ -72.284242492441777, 42.372755486275238 ], [ -72.284057212254197, 42.372550217581122 ], [ -72.283617194600751, 42.372383867224336 ], [ -72.28350014670653, 42.372560225585453 ], [ -72.283213761184712, 42.372553713025439 ], [ -72.283005732408114, 42.372462307068496 ], [ -72.282634623364814, 42.372399019849055 ], [ -72.282372715503243, 42.372251079567555 ], [ -72.282188543322462, 42.372046430576894 ], [ -72.282034784760029, 42.371915220108697 ], [ -72.281733311620172, 42.37195499251137 ], [ -72.281531528888053, 42.37207394456032 ], [ -72.281236514202845, 42.372312280759061 ], [ -72.281026766213543, 42.372494307883464 ], [ -72.280879265647243, 42.372653494258131 ], [ -72.280746319541805, 42.372949159057178 ], [ -72.28053603420696, 42.373353566058348 ], [ -72.280287639561806, 42.373769395012665 ], [ -72.280000943813391, 42.374151631353776 ], [ -72.27960699158173, 42.374471752119035 ], [ -72.279537441734504, 42.374631398649186 ], [ -72.279760944613855, 42.374717124018368 ], [ -72.279976628518313, 42.374779223766609 ], [ -72.280331227702291, 42.374910785233737 ], [ -72.280486835186309, 42.375093123097194 ], [ -72.280798941242082, 42.375598600939135 ], [ -72.280878394034872, 42.375896965181823 ], [ -72.280931166594186, 42.376138970898282 ], [ -72.28073297563148, 42.376382860226109 ], [ -72.280612585685461, 42.376574993516236 ], [ -72.280481475770173, 42.376803752056389 ], [ -72.280697244180942, 42.376872062057608 ], [ -72.281205706041291, 42.376689178007425 ], [ -72.281460067612983, 42.376745970586335 ], [ -72.281429085773595, 42.37691156833209 ], [ -72.281321275000963, 42.377060311901992 ], [ -72.281074706919924, 42.37736917270653 ], [ -72.281012925062413, 42.377666154833783 ], [ -72.281190126390896, 42.377826467512428 ], [ -72.281428967032994, 42.377855185824956 ], [ -72.281814246420183, 42.37788353871143 ], [ -72.281914256767294, 42.378066342475229 ], [ -72.281845166435019, 42.378243363172622 ], [ -72.281652222378383, 42.378489559093786 ], [ -72.281490256605323, 42.378678014322958 ], [ -72.281205269261619, 42.378786906996545 ], [ -72.280434470270364, 42.378918182421401 ], [ -72.280211105905678, 42.379061496571872 ], [ -72.280026123151643, 42.379284407632809 ], [ -72.279964375896995, 42.379604436747123 ], [ -72.279709471591602, 42.380302195148019 ], [ -72.27955542976666, 42.380691002986609 ], [ -72.279215982138012, 42.381200267674878 ], [ -72.279015540652821, 42.381726596272259 ], [ -72.278791718611615, 42.382040879539744 ], [ -72.278606700786526, 42.382212740705114 ], [ -72.278298515934551, 42.382332946784899 ], [ -72.277997829794941, 42.382401423505542 ], [ -72.27775122542684, 42.382493121958483 ], [ -72.277504522488925, 42.382596614605831 ], [ -72.27719629882489, 42.382733743787419 ], [ -72.277026256605581, 42.38285985544578 ], [ -72.276748851374705, 42.382945547606354 ], [ -72.276494463998972, 42.383105899497181 ], [ -72.276209278670308, 42.383260336499717 ], [ -72.276032170582127, 42.383414583991161 ], [ -72.275677423706327, 42.383620626443289 ], [ -72.275376258300952, 42.383769587152464 ], [ -72.275045109421029, 42.383889939143643 ], [ -72.274790809364148, 42.383998608812959 ], [ -72.2744439481651, 42.384204594275353 ], [ -72.274282100720384, 42.38433622852353 ], [ -72.274019638555458, 42.384542274839951 ], [ -72.274027227327295, 42.384725706847888 ], [ -72.2740579488555, 42.384913934912774 ], [ -72.274073319077786, 42.385217145721342 ], [ -72.274065603374751, 42.385440024185272 ], [ -72.273995943715946, 42.385692039242727 ], [ -72.27395702502848, 42.385994985006398 ], [ -72.273887646796936, 42.38616092851548 ], [ -72.273764540866381, 42.38633281524104 ], [ -72.273679557532489, 42.386613022735936 ], [ -72.27344060228387, 42.386904978997812 ], [ -72.273247588306774, 42.387110556451454 ], [ -72.273131714156392, 42.387437156912796 ], [ -72.273093142055629, 42.387659612297384 ], [ -72.272977572549806, 42.38791193503905 ], [ -72.272830859686493, 42.388140158506964 ], [ -72.272668973132667, 42.388329320248872 ], [ -72.272522362086988, 42.388506405081408 ], [ -72.272337184658056, 42.388678076661705 ], [ -72.272506744151599, 42.388838453667468 ], [ -72.272706936832321, 42.388981158716149 ], [ -72.27286100694046, 42.389136057312484 ], [ -72.2728611629217, 42.389347538698651 ], [ -72.272760787994827, 42.389501895519317 ], [ -72.272598840763067, 42.389656575678288 ], [ -72.272398446824909, 42.389736157904423 ], [ -72.272005206606551, 42.389896891207165 ], [ -72.271103291999452, 42.390194458955499 ], [ -72.270378285200934, 42.390428894029746 ], [ -72.270039507092932, 42.390395149495838 ], [ -72.269784692030228, 42.390354630134105 ], [ -72.26960009937325, 42.390246117447546 ], [ -72.269276456714493, 42.390028786704896 ], [ -72.268875549539175, 42.390069189342938 ], [ -72.268759793249785, 42.390257947079085 ], [ -72.268474619030414, 42.390297574987265 ], [ -72.268212494952621, 42.390195159800285 ], [ -72.26792732473946, 42.38999512442097 ], [ -72.26778096952367, 42.389794612268254 ], [ -72.267727199995832, 42.389537302978653 ], [ -72.267680928759859, 42.389257345895537 ], [ -72.267573672251061, 42.389045948949203 ], [ -72.267350130043042, 42.38887971268278 ], [ -72.267111274470324, 42.388662440594729 ], [ -72.266764578253714, 42.388365399214528 ], [ -72.266656633128534, 42.388217027547974 ], [ -72.266402531216272, 42.387873722432694 ], [ -72.266310042666163, 42.387707871530523 ], [ -72.266025102307765, 42.387324887315373 ], [ -72.265786132969538, 42.387147496877411 ], [ -72.2655010794048, 42.387135889198944 ], [ -72.265215974535948, 42.387210350603311 ], [ -72.264907728618596, 42.387158922028178 ], [ -72.264707420873663, 42.387044924104664 ], [ -72.264206732777723, 42.386696050385872 ], [ -72.264118494737019, 42.386620020238581 ], [ -72.260397241576939, 42.390806975046765 ], [ -72.25816107894201, 42.393504103903588 ], [ -72.249569331342343, 42.390192801054994 ], [ -72.244323420473322, 42.388279857396029 ], [ -72.243178039406089, 42.388248368569684 ], [ -72.242963369156087, 42.388169897940465 ], [ -72.24262507657393, 42.388113021995082 ], [ -72.242263752912763, 42.38810121889766 ], [ -72.241971004462542, 42.38818926647518 ], [ -72.241601258818704, 42.388287803031083 ], [ -72.241416139287907, 42.388388569920728 ], [ -72.241269390479502, 42.388530233247948 ], [ -72.240944992820346, 42.388778196257974 ], [ -72.241020830198735, 42.389083271444669 ], [ -72.240811927453365, 42.389320856829151 ], [ -72.240565136528417, 42.389507098209926 ], [ -72.240341502243353, 42.389607030843273 ], [ -72.239501071425593, 42.389919079630261 ], [ -72.238976620054743, 42.390114304280573 ], [ -72.238320605876297, 42.390452799048873 ], [ -72.237980767238497, 42.390690769121008 ], [ -72.237864273466244, 42.390969980477692 ], [ -72.237817085024801, 42.391203822086283 ], [ -72.237877637148074, 42.391501074429456 ], [ -72.237954062694698, 42.391701442193295 ], [ -72.237999560160219, 42.391884632408178 ], [ -72.23814454032518, 42.392308015825868 ], [ -72.238813067261987, 42.392882710717792 ], [ -72.239081656071008, 42.393146575508403 ], [ -72.239273635304173, 42.393381672033847 ], [ -72.239288245571728, 42.393644376943804 ], [ -72.239148571249316, 42.393893938282567 ], [ -72.238847036866332, 42.394189013912552 ], [ -72.23873075805119, 42.394445266771072 ], [ -72.238714332458727, 42.394650731542349 ], [ -72.238690603340629, 42.39484444920852 ], [ -72.238612848081445, 42.39506102127001 ], [ -72.23850412198135, 42.395277792045675 ], [ -72.238364644114085, 42.395419944805688 ], [ -72.238148577870831, 42.395556376638865 ], [ -72.237809055396497, 42.395709355049831 ], [ -72.237577407485674, 42.395759726650894 ], [ -72.237353631581669, 42.395839397231441 ], [ -72.236998146201501, 42.395998687601477 ], [ -72.236774595650161, 42.396066561623421 ], [ -72.236680957129494, 42.396317535520573 ], [ -72.23665710494565, 42.396511703585524 ], [ -72.236686986011591, 42.396803660685777 ], [ -72.23663211784077, 42.397015043019287 ], [ -72.23651551252091, 42.397254909948742 ], [ -72.236345586083985, 42.397380329327063 ], [ -72.236059603904266, 42.397574013605606 ], [ -72.235866209195507, 42.397676534616409 ], [ -72.235511112759369, 42.397807818323187 ], [ -72.235294829085376, 42.397864119062348 ], [ -72.235000998884871, 42.398104126363933 ], [ -72.234707842381567, 42.398172350826542 ], [ -72.234460818829476, 42.398280343561368 ], [ -72.234128339143467, 42.398445600051559 ], [ -72.233741948368603, 42.398633706901443 ], [ -72.233309733846923, 42.398787982995884 ], [ -72.232900970139255, 42.398838303220494 ], [ -72.232291381628045, 42.398906375710176 ], [ -72.232013489595005, 42.398940194592591 ], [ -72.231682428918475, 42.398819588922983 ], [ -72.231350949770388, 42.39883069919135 ], [ -72.231049900815904, 42.398910308245028 ], [ -72.230755902974551, 42.399064056626912 ], [ -72.230462016360519, 42.399332682084946 ], [ -72.230206556234293, 42.39958413724726 ], [ -72.230066820982046, 42.399801096345406 ], [ -72.229903940426013, 42.400075551298585 ], [ -72.229633215767961, 42.400246795008954 ], [ -72.228526836365944, 42.399717675072104 ], [ -72.219029778662161, 42.395492514820482 ], [ -72.205150781065299, 42.41767838633816 ], [ -72.123668582813082, 42.363930545123686 ], [ -72.123396777465572, 42.363758981148017 ], [ -72.112468513502506, 42.356423087397502 ], [ -72.041169400287103, 42.308697707378755 ], [ -71.989407411759458, 42.310187830978897 ], [ -71.96729584851812, 42.310698498653956 ], [ -71.960535300349392, 42.281426450443895 ], [ -71.885660965607755, 42.284583423250574 ], [ -71.884044191999322, 42.281252774460725 ], [ -71.856633164522336, 42.226675663386345 ], [ -71.866011209435854, 42.225984055029627 ], [ -71.876172277946509, 42.215022933557265 ], [ -71.895136887281808, 42.192425890451062 ], [ -71.916967882201362, 42.190862817216491 ], [ -71.93935781065521, 42.18923852472178 ], [ -72.019887695547098, 42.183762791267313 ], [ -72.018601658425354, 42.17569924074229 ], [ -72.029440684044204, 42.174424257537282 ], [ -72.069017425074264, 42.169618913809423 ] ] ] ] } },
{ "type": "Feature", "properties": { "TOWN": "OAKHAM", "TOWN_ID": 222, "COUNTY": "WORCESTER", "region": "NORTH" }, "geometry": { "type": "MultiPolygon", "coordinates": [ [ [ [ -71.960535300349392, 42.281426450443895 ], [ -71.96729584851812, 42.310698498653956 ], [ -71.989407411759458, 42.310187830978897 ], [ -72.041169400287103, 42.308697707378755 ], [ -72.112468513502506, 42.356423087397502 ], [ -72.123396777465572, 42.363758981148017 ], [ -72.123668582813082, 42.363930545123686 ], [ -72.205150781065299, 42.41767838633816 ], [ -72.100933289828703, 42.483686838723308 ], [ -72.099688566758886, 42.484523013575391 ], [ -72.007386541168444, 42.421029759617525 ], [ -71.965443258658993, 42.446607141615168 ], [ -71.920256625004242, 42.474536642895977 ], [ -71.933192701683637, 42.482922928121233 ], [ -71.919837059140335, 42.491447501220534 ], [ -71.909651037558973, 42.4844917578043 ], [ -71.864533728122183, 42.516932734454684 ], [ -71.861041886241622, 42.51637449540447 ], [ -71.856839265710022, 42.519082747707877 ], [ -71.849400301124291, 42.5179022611227 ], [ -71.847372477967596, 42.514705121988627 ], [ -71.846989086067239, 42.514646680137872 ], [ -71.846636361735435, 42.514699505694601 ], [ -71.844955775586072, 42.514438253164116 ], [ -71.844125216595003, 42.514541203464233 ], [ -71.84385298612456, 42.514582797133059 ], [ -71.842005682492214, 42.514677327341182 ], [ -71.842328139856249, 42.512630102304328 ], [ -71.822291481059338, 42.504305273886715 ], [ -71.830021851786412, 42.492186063929502 ], [ -71.835602515287761, 42.483594466778257 ], [ -71.82780174267333, 42.472061479097036 ], [ -71.827839925642664, 42.471803896201543 ], [ -71.827775771789618, 42.471673721153493 ], [ -71.827831626394115, 42.471564090648009 ], [ -71.827745934295308, 42.471314062270366 ], [ -71.827766321230911, 42.471188868163921 ], [ -71.827884974768835, 42.470995694872109 ], [ -71.827940083638907, 42.470766151802984 ], [ -71.828072365702951, 42.470458066330302 ], [ -71.82819731006883, 42.470118852585998 ], [ -71.828146652385769, 42.469847928591292 ], [ -71.828208459345433, 42.469550576652296 ], [ -71.828228098025761, 42.469258476293234 ], [ -71.828162997216666, 42.468945911346466 ], [ -71.827992932971057, 42.468722140831019 ], [ -71.827871561566411, 42.468414867365219 ], [ -71.827673452774164, 42.468222595259256 ], [ -71.827616111866078, 42.468045497062299 ], [ -71.827692701642249, 42.46787846094783 ], [ -71.827832465001791, 42.467653808385172 ], [ -71.827880112113718, 42.467346053725571 ], [ -71.827900050140698, 42.467111389041001 ], [ -71.827870892098872, 42.466928989184254 ], [ -71.827792543371203, 42.466757172321238 ], [ -71.827629471786693, 42.466543914315302 ], [ -71.827502095740456, 42.466413918748117 ], [ -71.827410442073969, 42.466372497207317 ], [ -71.82736746501044, 42.466268279114708 ], [ -71.827367032917138, 42.466185006209891 ], [ -71.827344820309293, 42.465981610363364 ], [ -71.827220682168132, 42.465795699062468 ], [ -71.827209771780943, 42.465731721497242 ], [ -71.827228543111289, 42.465670270374581 ], [ -71.827349600631422, 42.46554370982826 ], [ -71.827313351725323, 42.465330000827024 ], [ -71.827319565592958, 42.465168386299872 ], [ -71.827219955645219, 42.464975743331664 ], [ -71.827084653287301, 42.464699837432626 ], [ -71.827090948435014, 42.464506893569897 ], [ -71.827082761237364, 42.464334876882916 ], [ -71.827144689398963, 42.464037524749642 ], [ -71.827276813063605, 42.463724308593363 ], [ -71.827269327665718, 42.463640785595409 ], [ -71.827191499119962, 42.463568175534107 ], [ -71.826888315698241, 42.463485582068614 ], [ -71.826493605491692, 42.463408468780976 ], [ -71.826134156019435, 42.463378247965451 ], [ -71.825851973273203, 42.463312157125451 ], [ -71.825569757166662, 42.463145236397757 ], [ -71.8253999995773, 42.46299969364852 ], [ -71.825330968009538, 42.4629112128708 ], [ -71.825316457338957, 42.462738043519934 ], [ -71.825368525576735, 42.462342861635868 ], [ -71.825276569648921, 42.462264978626315 ], [ -71.825072119758289, 42.462229005158491 ], [ -71.82488867937883, 42.462140936943968 ], [ -71.824719623825217, 42.46213097060609 ], [ -71.824422978991876, 42.461970209493579 ], [ -71.824232568456921, 42.461897734392352 ], [ -71.824063165010486, 42.461819888333181 ], [ -71.823907171457833, 42.461606784991389 ], [ -71.823920738946342, 42.461502316464539 ], [ -71.824004757273585, 42.461408272876412 ], [ -71.823961818335505, 42.461262371169902 ], [ -71.823911706715464, 42.461116579638968 ], [ -71.823841544030699, 42.460954968335926 ], [ -71.823790111890901, 42.46072968371702 ], [ -71.823693842084523, 42.460475570845595 ], [ -71.823677919942696, 42.460314473173739 ], [ -71.823689829210551, 42.460237743675549 ], [ -71.823683448977249, 42.46009680935979 ], [ -71.823702511284509, 42.459987461260717 ], [ -71.823740156851542, 42.459845809932169 ], [ -71.823784943243382, 42.459722505663663 ], [ -71.823856373687633, 42.459490670962907 ], [ -71.823977727137461, 42.459086271239215 ], [ -71.823975570810816, 42.458886288505589 ], [ -71.823960943569674, 42.458841533486932 ], [ -71.82389436552134, 42.458720759656813 ], [ -71.823736031280518, 42.458506472370686 ], [ -71.823645685147625, 42.45834037755224 ], [ -71.823566344432635, 42.458199826401454 ], [ -71.823522248923496, 42.45803473677055 ], [ -71.823507731094296, 42.457855667591055 ], [ -71.823492757710241, 42.457670961335864 ], [ -71.823347050595288, 42.457375265051581 ], [ -71.823226444260683, 42.457223160268761 ], [ -71.823047270765599, 42.457105546656635 ], [ -71.822906379808146, 42.456962524457786 ], [ -71.822587633302177, 42.456623626000741 ], [ -71.822445631671286, 42.456499799942954 ], [ -71.822097640279381, 42.456177546809904 ], [ -71.821991818864575, 42.456056625877707 ], [ -71.821832748732675, 42.455920495158921 ], [ -71.821762505592957, 42.455837965339157 ], [ -71.821640241094542, 42.455657367456908 ], [ -71.821565528733601, 42.455448022722301 ], [ -71.821558428786517, 42.455315129490288 ], [ -71.821571364797947, 42.45520553134245 ], [ -71.821618964446216, 42.455133337765801 ], [ -71.821662703807931, 42.455106403980061 ], [ -71.821787203603421, 42.455080910059252 ], [ -71.821866341513498, 42.455047160427263 ], [ -71.821919965871032, 42.455009291328551 ], [ -71.822009102842387, 42.454904535991538 ], [ -71.822066720692078, 42.454775932521962 ], [ -71.822083474602636, 42.454701648156487 ], [ -71.822068171229816, 42.454633775983538 ], [ -71.822013659680067, 42.45449771945411 ], [ -71.821936686916544, 42.454395970800256 ], [ -71.821854859482571, 42.454303638010643 ], [ -71.821689088589778, 42.454126086642752 ], [ -71.821509963129785, 42.453992472759559 ], [ -71.821163468933975, 42.453741941863996 ], [ -71.820900691522752, 42.453539995286185 ], [ -71.820738722061648, 42.453341426985631 ], [ -71.820683723406589, 42.453241740899159 ], [ -71.820589545272199, 42.453075904443644 ], [ -71.820469873397244, 42.452925108429547 ], [ -71.820397101555528, 42.452596869479827 ], [ -71.820240276024563, 42.452412688551235 ], [ -71.820148836133953, 42.452232592916239 ], [ -71.820084241639989, 42.452008516726757 ], [ -71.820160434953507, 42.451763253107067 ], [ -71.820258123802333, 42.45158571952809 ], [ -71.820489521306783, 42.451381796227537 ], [ -71.820727645230122, 42.45116218912105 ], [ -71.820895450788456, 42.450932244363671 ], [ -71.820992844580744, 42.450697364108365 ], [ -71.821027089992327, 42.450499210524121 ], [ -71.820899850205123, 42.450410889097185 ], [ -71.820674596706766, 42.450411516510044 ], [ -71.820294341304972, 42.450386466996527 ], [ -71.819857285607569, 42.450283431055311 ], [ -71.819490816072459, 42.450195862262206 ], [ -71.819321265732867, 42.450081638819988 ], [ -71.819104941579354, 42.449876618038779 ], [ -71.818952620681458, 42.449587334913609 ], [ -71.81895864321281, 42.449383948502167 ], [ -71.818985711876991, 42.449159707679215 ], [ -71.819013175846422, 42.449013698729921 ], [ -71.819097184431556, 42.448919568402729 ], [ -71.819209632962455, 42.448872533050618 ], [ -71.819329166419024, 42.448856357018158 ], [ -71.819420436152967, 42.448803978593162 ], [ -71.819419644611344, 42.448647604826562 ], [ -71.81923449627827, 42.448236607219911 ], [ -71.819112559266472, 42.448041677741365 ], [ -71.818803451845469, 42.447924599154696 ], [ -71.81864043225282, 42.447706015894127 ], [ -71.818484359073366, 42.447466617065459 ], [ -71.818476098917188, 42.447226899369916 ], [ -71.818411716048104, 42.447018486012894 ], [ -71.818150224661323, 42.446821060386192 ], [ -71.817888656450123, 42.44660805978701 ], [ -71.817660254398049, 42.446463477278193 ], [ -71.817267555759983, 42.4463762438141 ], [ -71.816936826662527, 42.446308284207888 ], [ -71.816774576893025, 42.446240940660267 ], [ -71.816612509948726, 42.446209967090333 ], [ -71.8164053060909, 42.44619523205894 ], [ -71.816140665302839, 42.446143653449781 ], [ -71.815893815760489, 42.44607654087271 ], [ -71.815632831435479, 42.445978137282701 ], [ -71.815322254644101, 42.445806947425808 ], [ -71.815012772932036, 42.445854788237632 ], [ -71.814773435465511, 42.445855442673114 ], [ -71.814477489321348, 42.445814478909433 ], [ -71.814141443535007, 42.445824938887853 ], [ -71.813871800580429, 42.44581784180815 ], [ -71.813737904453077, 42.445707023926516 ], [ -71.813582891299703, 42.445676206931793 ], [ -71.813428084880613, 42.445686981413004 ], [ -71.813258945924815, 42.445650980889674 ], [ -71.813148868718841, 42.445563234340838 ], [ -71.813102587721602, 42.445349007053714 ], [ -71.813242620351545, 42.445202693258764 ], [ -71.813361993721941, 42.445155374651357 ], [ -71.813565967117398, 42.445107915622117 ], [ -71.813621856593898, 42.445029530380424 ], [ -71.813663586329227, 42.444914722934634 ], [ -71.813846028072959, 42.444815196688175 ], [ -71.813986931441491, 42.444820034135262 ], [ -71.814127825420641, 42.444822980878449 ], [ -71.814205063162021, 42.444808996107547 ], [ -71.814275892801064, 42.444777473599224 ], [ -71.814401525575761, 42.444693766103491 ], [ -71.814562876661483, 42.4445577455161 ], [ -71.814667603032362, 42.444401173330569 ], [ -71.814596809086439, 42.444317822119245 ], [ -71.814377614409082, 42.444115140779473 ], [ -71.814233608202926, 42.443999489599577 ], [ -71.831746739022762, 42.431826107626499 ], [ -71.817769169169964, 42.403954149406687 ], [ -71.786554739859938, 42.398978899763847 ], [ -71.777737742924117, 42.400409444365124 ], [ -71.76330692125255, 42.400367651747402 ], [ -71.741918007222324, 42.392772895254417 ], [ -71.74192105306895, 42.386850609446356 ], [ -71.72598181790903, 42.390289115631326 ], [ -71.701034273606865, 42.395805191573096 ], [ -71.678767776291906, 42.389162988214196 ], [ -71.670553440148268, 42.386665673021227 ], [ -71.677795507498288, 42.365154855826461 ], [ -71.676370570897987, 42.364871571155412 ], [ -71.687880493225052, 42.325501455075177 ], [ -71.68953895212762, 42.325973633601343 ], [ -71.691141740332966, 42.326884680317953 ], [ -71.690966628015943, 42.328959680562868 ], [ -71.69759743165271, 42.327551410407565 ], [ -71.6976446239387, 42.329179136646474 ], [ -71.695466711321643, 42.330270765777819 ], [ -71.698675045732728, 42.332406775298374 ], [ -71.730214685292765, 42.321137746319337 ], [ -71.731825865390903, 42.317926689097995 ], [ -71.741795490487576, 42.315718264333618 ], [ -71.741420462126442, 42.317318237213378 ], [ -71.756531863360138, 42.312129362163724 ], [ -71.764443070515043, 42.312862547605789 ], [ -71.767193189212122, 42.313240252283315 ], [ -71.767240417938552, 42.311443071274859 ], [ -71.768268236033279, 42.311259898633324 ], [ -71.779721007730302, 42.32896219171284 ], [ -71.785895960276605, 42.341186950016933 ], [ -71.802043574471014, 42.331345408915915 ], [ -71.875388639308184, 42.286544536242708 ], [ -71.884044191999322, 42.281252774460725 ], [ -71.885660965607755, 42.284583423250574 ], [ -71.960535300349392, 42.281426450443895 ] ] ] ] } },
{ "type": "Feature", "properties": { "TOWN": "BERLIN", "TOWN_ID": 28, "COUNTY": "WORCESTER", "region": "NORTHEAST" }, "geometry": { "type": "MultiPolygon", "coordinates": [ [ [ [ -71.637277230388108, 42.183239578791877 ], [ -71.649218961721274, 42.181701145732291 ], [ -71.641291180491123, 42.174876135190779 ], [ -71.640854654929456, 42.174680315137373 ], [ -71.64132176999378, 42.174589978867054 ], [ -71.646271763286563, 42.172870834254653 ], [ -71.64216897333425, 42.165662707668091 ], [ -71.67901056953481, 42.165788863447304 ], [ -71.691419314775686, 42.163108643443813 ], [ -71.695205260470033, 42.175788924238105 ], [ -71.71862541599323, 42.172953322740135 ], [ -71.723536353804164, 42.191484247032818 ], [ -71.733429796770807, 42.237974955535456 ], [ -71.731238048371722, 42.241286206444386 ], [ -71.746079832027732, 42.243838767772445 ], [ -71.751279731142219, 42.254494376727258 ], [ -71.758543039150311, 42.296221279989339 ], [ -71.768268236033279, 42.311259898633324 ], [ -71.767240417938552, 42.311443071274859 ], [ -71.767193189212122, 42.313240252283315 ], [ -71.764443070515043, 42.312862547605789 ], [ -71.756531863360138, 42.312129362163724 ], [ -71.741420462126442, 42.317318237213378 ], [ -71.741795490487576, 42.315718264333618 ], [ -71.731825865390903, 42.317926689097995 ], [ -71.730214685292765, 42.321137746319337 ], [ -71.698675045732728, 42.332406775298374 ], [ -71.695466711321643, 42.330270765777819 ], [ -71.6976446239387, 42.329179136646474 ], [ -71.69759743165271, 42.327551410407565 ], [ -71.690966628015943, 42.328959680562868 ], [ -71.691141740332966, 42.326884680317953 ], [ -71.68953895212762, 42.325973633601343 ], [ -71.687880493225052, 42.325501455075177 ], [ -71.676370570897987, 42.364871571155412 ], [ -71.677795507498288, 42.365154855826461 ], [ -71.670553440148268, 42.386665673021227 ], [ -71.678767776291906, 42.389162988214196 ], [ -71.676517512296712, 42.396118367509914 ], [ -71.668070101746409, 42.394565530522726 ], [ -71.660635344968412, 42.418232166619624 ], [ -71.630420288137827, 42.409536864278373 ], [ -71.604251973188326, 42.397703031053396 ], [ -71.580135102968654, 42.386952358995032 ], [ -71.607760812269404, 42.370022700467366 ], [ -71.603066152666315, 42.367267115020049 ], [ -71.610008227386658, 42.357403366111591 ], [ -71.624703983532029, 42.350465132064777 ], [ -71.62582628833249, 42.349723519081934 ], [ -71.620659383356099, 42.3452484486534 ], [ -71.619131620178052, 42.343348467150037 ], [ -71.617550669991758, 42.341968161744411 ], [ -71.616033942334042, 42.341490392188291 ], [ -71.611525469149001, 42.338995850264453 ], [ -71.610005898334492, 42.338420773263557 ], [ -71.606275212368686, 42.337370681362437 ], [ -71.604663908781077, 42.336745652706576 ], [ -71.604100174779276, 42.336767861286845 ], [ -71.603591890268092, 42.331676409015977 ], [ -71.605267073296744, 42.330159889863211 ], [ -71.603725343472007, 42.328559865868016 ], [ -71.601886459727083, 42.32697097790917 ], [ -71.597364186483532, 42.321015730342502 ], [ -71.59225297834287, 42.3177158069455 ], [ -71.585208443506829, 42.310949648549482 ], [ -71.580033514010154, 42.305891770911899 ], [ -71.542739173534073, 42.269742492870179 ], [ -71.54293841735425, 42.267180810127435 ], [ -71.549919685010849, 42.266050188096671 ], [ -71.550116508026647, 42.26602327357535 ], [ -71.550174955549267, 42.266054308236193 ], [ -71.550301395694333, 42.26607775062628 ], [ -71.550554425463687, 42.266159746433033 ], [ -71.550677513596924, 42.266235136912734 ], [ -71.550756679982769, 42.266255538649297 ], [ -71.550870134457739, 42.266258009275163 ], [ -71.551344890854921, 42.266229708785026 ], [ -71.551489498355281, 42.266234775722047 ], [ -71.551730417373292, 42.266326677611779 ], [ -71.55176389757446, 42.266358803060783 ], [ -71.55181927494074, 42.266487970431854 ], [ -71.551898419458951, 42.266628920900018 ], [ -71.551919064221011, 42.266824545680464 ], [ -71.552013250949869, 42.266979353802022 ], [ -71.55223394835086, 42.267239168792116 ], [ -71.552412409217183, 42.267430670245815 ], [ -71.552511130769474, 42.267496886853934 ], [ -71.552772412058346, 42.26757950418871 ], [ -71.552947599643772, 42.267622097530946 ], [ -71.553097318799757, 42.267647956898898 ], [ -71.553196097137345, 42.267636117323363 ], [ -71.553304335917105, 42.267631295572336 ], [ -71.553428572835472, 42.267624215540245 ], [ -71.553463833985134, 42.267610334588831 ], [ -71.553498617637715, 42.267605186709453 ], [ -71.553529170629233, 42.267613995362467 ], [ -71.553587859996071, 42.267640616720719 ], [ -71.553817103093181, 42.26767607117069 ], [ -71.553979586392344, 42.267744597383548 ], [ -71.554207472807562, 42.267752052520997 ], [ -71.554342747860659, 42.26775387920879 ], [ -71.554422413079962, 42.2677869723356 ], [ -71.554457389415049, 42.267865011320396 ], [ -71.554498860501837, 42.267883897839745 ], [ -71.554588042733883, 42.26784838386618 ], [ -71.554648485154843, 42.267798658843624 ], [ -71.55468662029719, 42.267744262879908 ], [ -71.554823453599226, 42.267585655708785 ], [ -71.554861602796521, 42.267547825104366 ], [ -71.554938071413829, 42.26752888235562 ], [ -71.555100487634874, 42.267519261418173 ], [ -71.555285163688851, 42.267460113315963 ], [ -71.555339355833283, 42.267471881078663 ], [ -71.555364835163701, 42.267500228088458 ], [ -71.55539996683639, 42.267616169132062 ], [ -71.555422344387011, 42.26770132623281 ], [ -71.555441202023673, 42.267780993228342 ], [ -71.55546379376004, 42.267833739599617 ], [ -71.555524424972688, 42.267861979560507 ], [ -71.555600801693558, 42.267876257296805 ], [ -71.555674129306851, 42.267869109442678 ], [ -71.555721853985489, 42.26783127391198 ], [ -71.555766291289004, 42.267776874531599 ], [ -71.555814042870537, 42.26776973900445 ], [ -71.555865098443292, 42.267798073468789 ], [ -71.555970237983274, 42.267852400086369 ], [ -71.556065781013075, 42.267883143567097 ], [ -71.556132724070849, 42.267920923250713 ], [ -71.556215520983926, 42.267930335847659 ], [ -71.556305371070778, 42.267965403330585 ], [ -71.556374879131354, 42.268024878720823 ], [ -71.556451394209745, 42.268057971985478 ], [ -71.556521493486287, 42.268100521452581 ], [ -71.556585160103907, 42.268133620950508 ], [ -71.556658370955645, 42.268131244088558 ], [ -71.556817588095271, 42.268067154465029 ], [ -71.556903622101174, 42.268036501843618 ], [ -71.556948205220962, 42.268010461223291 ], [ -71.556957613099797, 42.267958419514919 ], [ -71.556938421072203, 42.267913504317939 ], [ -71.55694809045734, 42.267882709438837 ], [ -71.556992558631578, 42.267863781187003 ], [ -71.557076062530001, 42.267850595411296 ], [ -71.557177240255101, 42.267811652343006 ], [ -71.557242689917928, 42.267805767821919 ], [ -71.55729201158853, 42.267792508892263 ], [ -71.557297882581082, 42.267716791162016 ], [ -71.557273911035978, 42.267614259528443 ], [ -71.55728540783565, 42.267593907128813 ], [ -71.557321761800793, 42.267583085449886 ], [ -71.557411850845227, 42.267614190652608 ], [ -71.557495923853864, 42.267694364869648 ], [ -71.557603932414949, 42.267703223664014 ], [ -71.557729843996555, 42.267672010234804 ], [ -71.557807734928232, 42.267618493535089 ], [ -71.557843561002841, 42.267560586531523 ], [ -71.557807608985996, 42.26748038835435 ], [ -71.557789637074535, 42.267444745719068 ], [ -71.557813604567173, 42.267409081975302 ], [ -71.55787953580726, 42.267400135845186 ], [ -71.558053596346596, 42.267400047987948 ], [ -71.558215519307097, 42.267382140179819 ], [ -71.558281458656836, 42.267382106734999 ], [ -71.558335527429023, 42.267390992202969 ], [ -71.55835034347696, 42.26742159470507 ], [ -71.558365532460058, 42.267462280319094 ], [ -71.558425585852603, 42.267520138748566 ], [ -71.55850354181662, 42.267537924902307 ], [ -71.558527583007134, 42.267582477252425 ], [ -71.558557775428582, 42.267725068578322 ], [ -71.558533861609007, 42.267818531380961 ], [ -71.558581907337654, 42.267867662984024 ], [ -71.558689912179389, 42.267872019284418 ], [ -71.558761904343001, 42.267862979521652 ], [ -71.558809884127797, 42.267840807707259 ], [ -71.558851736865847, 42.267747155596773 ], [ -71.558923683419891, 42.26768922974135 ], [ -71.559043663124214, 42.267666840804914 ], [ -71.559211688745393, 42.267693493054864 ], [ -71.559331730970086, 42.267737995698326 ], [ -71.559397666556634, 42.267733550169602 ], [ -71.55955953974032, 42.267662162974631 ], [ -71.559619489664186, 42.26760865434818 ], [ -71.559781404309078, 42.267581831417253 ], [ -71.560009413312144, 42.267590625420269 ], [ -71.560195521003607, 42.267639594096011 ], [ -71.560407475588477, 42.267718258610152 ], [ -71.560585070111387, 42.267863742746748 ], [ -71.56219493405456, 42.267651132811821 ], [ -71.586760052727257, 42.259545412624938 ], [ -71.599318658924361, 42.225959233358353 ], [ -71.621110762875688, 42.230868254650922 ], [ -71.644428259281639, 42.226626960111368 ], [ -71.637277230388108, 42.183239578791877 ] ] ] ] } },
{ "type": "Feature", "properties": { "TOWN": "UPTON", "TOWN_ID": 303, "COUNTY": "WORCESTER", "region": "SOUTHEAST" }, "geometry": { "type": "MultiPolygon", "coordinates": [ [ [ [ -71.560880250555357, 42.157988899886021 ], [ -71.56080132371612, 42.157828506572109 ], [ -71.560792429049044, 42.15776440919646 ], [ -71.560817667031699, 42.157710647233337 ], [ -71.560918727105516, 42.157608588233515 ], [ -71.561074442080567, 42.157467336442238 ], [ -71.561074218748416, 42.157235506592123 ], [ -71.561001653967381, 42.157021631547693 ], [ -71.560953369803315, 42.156765068779869 ], [ -71.560994991696546, 42.156511068936958 ], [ -71.561026120511343, 42.156292636944585 ], [ -71.560960311250497, 42.155804523577487 ], [ -71.560878734692679, 42.155528261675983 ], [ -71.560993873661602, 42.155348948397133 ], [ -71.561213923818357, 42.155302014580748 ], [ -71.561517855450873, 42.155286276008077 ], [ -71.561811571148084, 42.15546545945741 ], [ -71.562084036304128, 42.155441993725326 ], [ -71.562251532922147, 42.155231229871625 ], [ -71.562156841235804, 42.154911581001805 ], [ -71.562345305368211, 42.154615095979636 ], [ -71.562512829738864, 42.154435572488339 ], [ -71.562607016567981, 42.154365386703219 ], [ -71.562931787673676, 42.154139050198076 ], [ -71.563266852994474, 42.153803409292976 ], [ -71.563219723220271, 42.153376507822422 ], [ -71.539302662213643, 42.138359329273428 ], [ -71.538152572122158, 42.138042900045569 ], [ -71.528749699780704, 42.131344272044025 ], [ -71.519238497724501, 42.124192208630255 ], [ -71.510810481699721, 42.123945565480433 ], [ -71.509843940212804, 42.123923596986877 ], [ -71.509830015019901, 42.123812589462581 ], [ -71.509791186447643, 42.123764336025594 ], [ -71.509703497972254, 42.123708884314929 ], [ -71.509670830350672, 42.123614804303337 ], [ -71.509651717777686, 42.123585815835632 ], [ -71.509614344435562, 42.123561870698133 ], [ -71.509525329334409, 42.123527936476314 ], [ -71.509418406617272, 42.123433862700814 ], [ -71.509363253508084, 42.12339524385618 ], [ -71.50933737010493, 42.123375979297968 ], [ -71.50930338725567, 42.123379223267705 ], [ -71.509259487307688, 42.123380757453525 ], [ -71.509201187875135, 42.123327733762459 ], [ -71.509113747964093, 42.123310815031388 ], [ -71.50903912949569, 42.123308390255822 ], [ -71.50903270531785, 42.123207105412689 ], [ -71.5089873423249, 42.12312509044073 ], [ -71.508838208161464, 42.122987534330619 ], [ -71.508779768657448, 42.122792080696804 ], [ -71.50855286029541, 42.122553244940079 ], [ -71.508335758629542, 42.122384272394619 ], [ -71.508053834882503, 42.122198648333971 ], [ -71.50797582516357, 42.12214553540786 ], [ -71.507914380601889, 42.122068382852262 ], [ -71.507876024287768, 42.121908219630249 ], [ -71.507859330350115, 42.121868156817513 ], [ -71.507791238690501, 42.121822245577341 ], [ -71.507561080707347, 42.121653362497803 ], [ -71.507399008655213, 42.12147718187844 ], [ -71.507295358585864, 42.121390398429547 ], [ -71.507178652436906, 42.121342329260479 ], [ -71.507126766589536, 42.121293895689867 ], [ -71.507097615991185, 42.121243299884149 ], [ -71.50709106873434, 42.121093668018034 ], [ -71.507123572052294, 42.120850040792732 ], [ -71.507178568709293, 42.120608752910073 ], [ -71.507259932457515, 42.120406176797779 ], [ -71.507272502614995, 42.120348105674069 ], [ -71.507262823377687, 42.120307141990097 ], [ -71.507197995657492, 42.120232330072142 ], [ -71.507155777512381, 42.120116462304573 ], [ -71.507031321060651, 42.119950542278914 ], [ -71.506838778510314, 42.119756986687165 ], [ -71.50677008443536, 42.119703962379411 ], [ -71.506698857623263, 42.119713600093448 ], [ -71.506650241670187, 42.119694336297776 ], [ -71.506640443782757, 42.119670208451595 ], [ -71.506659909943593, 42.119636445473382 ], [ -71.506685788185351, 42.119629151358474 ], [ -71.506679375050496, 42.119592959091861 ], [ -71.506604877166339, 42.119544796735262 ], [ -71.506588667002163, 42.119491679130967 ], [ -71.506556134899256, 42.119472414332897 ], [ -71.50650110864575, 42.119440996604396 ], [ -71.506494573961035, 42.119397601815145 ], [ -71.506520570307202, 42.119363838474257 ], [ -71.506512827116438, 42.11932809643308 ], [ -71.506462150446879, 42.119257604764144 ], [ -71.506352087980858, 42.119091142949188 ], [ -71.506270933338499, 42.118977797959566 ], [ -71.506154351650494, 42.1189126217457 ], [ -71.506011640182777, 42.118748592269561 ], [ -71.505946819186406, 42.118712403138993 ], [ -71.50588200188345, 42.118714837481221 ], [ -71.505742818554367, 42.118770214222167 ], [ -71.505632530834134, 42.11875824575722 ], [ -71.505577381733886, 42.118693155811833 ], [ -71.505496340386671, 42.118471142251238 ], [ -71.505415311907242, 42.11839155845184 ], [ -71.505288932769531, 42.118275694106565 ], [ -71.50506859895772, 42.118225106862987 ], [ -71.504822265211629, 42.118162366099682 ], [ -71.504663486379442, 42.118143016259829 ], [ -71.504520915371231, 42.118172012438528 ], [ -71.504336142126022, 42.118222707730233 ], [ -71.504071433512493, 42.118241714686313 ], [ -71.503937566517664, 42.118234787242613 ], [ -71.503801521225071, 42.118201030334454 ], [ -71.503662089121249, 42.118150347459625 ], [ -71.503584328793153, 42.11807796477224 ], [ -71.503535710789492, 42.117983883479084 ], [ -71.50344174529684, 42.117887372787663 ], [ -71.503247287166005, 42.117732974884028 ], [ -71.503072300984371, 42.117617109565714 ], [ -71.502936132781826, 42.117503763784505 ], [ -71.50279694290181, 42.117412115513176 ], [ -71.502644576656721, 42.117416891147471 ], [ -71.502472743368656, 42.117472354781214 ], [ -71.502210338566513, 42.117593002951779 ], [ -71.502148667017735, 42.117614791887924 ], [ -71.502090380535961, 42.117612362248011 ], [ -71.501996419280346, 42.11756167640258 ], [ -71.501892663320874, 42.117515762333873 ], [ -71.501782498514061, 42.117472369167515 ], [ -71.501620456890066, 42.117436269310133 ], [ -71.501594577695442, 42.11739530539878 ], [ -71.501639923214569, 42.117334893517466 ], [ -71.50170473792322, 42.117284204687657 ], [ -71.501756612608219, 42.117202185085652 ], [ -71.501746937616659, 42.117168513472713 ], [ -71.501711264045284, 42.117146726468036 ], [ -71.501633387408049, 42.117117737637336 ], [ -71.501588039327942, 42.117074343192272 ], [ -71.501351504898096, 42.116854759919079 ], [ -71.501338564350803, 42.116782374767034 ], [ -71.501413051130797, 42.116664792549457 ], [ -71.501499026468196, 42.116589434884617 ], [ -71.501478951195764, 42.116513268531335 ], [ -71.501331542076898, 42.116390377659684 ], [ -71.501319811632285, 42.116352204459801 ], [ -71.501338554058606, 42.116318262317947 ], [ -71.501402763559028, 42.116276486779 ], [ -71.501497688233627, 42.116262530474707 ], [ -71.501628644168164, 42.116102272285104 ], [ -71.501551489759748, 42.115891959900594 ], [ -71.501385337153408, 42.115691282146848 ], [ -71.501226320397578, 42.115510050864486 ], [ -71.501095359814386, 42.115405705953229 ], [ -71.501029817110179, 42.115231495703647 ], [ -71.50116077021012, 42.11497373387278 ], [ -71.501385315605376, 42.114750812775668 ], [ -71.501553753847503, 42.114583621657545 ], [ -71.501478899213168, 42.114381592044211 ], [ -71.501347937119078, 42.11412392368598 ], [ -71.501279614032285, 42.113955745699649 ], [ -71.501226285000698, 42.113775593278106 ], [ -71.50110475912912, 42.113643248418661 ], [ -71.501170051561616, 42.113458862997497 ], [ -71.501235586586816, 42.113329756906069 ], [ -71.501207532633828, 42.113280960167444 ], [ -71.501151425795456, 42.113232163772743 ], [ -71.500917449321705, 42.113197414252795 ], [ -71.500730387751503, 42.113051114755031 ], [ -71.500356146887157, 42.112849086587993 ], [ -71.500384198550933, 42.112695852712754 ], [ -71.50055263336364, 42.112465911011022 ], [ -71.500842589937676, 42.112410179021872 ], [ -71.500992282252454, 42.112291875988959 ], [ -71.501132662567258, 42.112124595697274 ], [ -71.501226247612237, 42.111943450987283 ], [ -71.501301093307077, 42.111901675333904 ], [ -71.501319711970638, 42.111797148417303 ], [ -71.501263605041245, 42.111685690090248 ], [ -71.501385242827993, 42.111574229301048 ], [ -71.50158184858158, 42.111518496740388 ], [ -71.501778216216493, 42.11160213273282 ], [ -71.501880995629335, 42.111664792826978 ], [ -71.501965273030677, 42.111657858780788 ], [ -71.502008800572455, 42.111603298785241 ], [ -71.502049545066143, 42.111490668459027 ], [ -71.502217962374985, 42.111030873617338 ], [ -71.50248916541625, 42.110877633634168 ], [ -71.502797973297646, 42.110773099093691 ], [ -71.502985019519485, 42.110640747483536 ], [ -71.50307859709541, 42.110459601212547 ], [ -71.503078588464504, 42.110285480101815 ], [ -71.502956940513499, 42.110069497787727 ], [ -71.50280723848293, 42.109776899200774 ], [ -71.502854025350928, 42.109651483904244 ], [ -71.502915804199958, 42.109509772448071 ], [ -71.502910117595164, 42.109428744157412 ], [ -71.502835150815429, 42.109379859053305 ], [ -71.502592120202621, 42.109365910496329 ], [ -71.502423692514313, 42.109379869489189 ], [ -71.502292624020015, 42.109338097835895 ], [ -71.502302050867698, 42.109226638489105 ], [ -71.502451731850243, 42.109080333650482 ], [ -71.502451725767074, 42.10892709984121 ], [ -71.502423672276464, 42.108864348469076 ], [ -71.502302034999232, 42.108801689266471 ], [ -71.502030711165375, 42.108704100780095 ], [ -71.50186227960117, 42.108537005363978 ], [ -71.501600387718298, 42.108411595908784 ], [ -71.501581764530002, 42.108286182162175 ], [ -71.501523362300318, 42.108147354330733 ], [ -71.501469314673145, 42.108077220531698 ], [ -71.501416356180641, 42.108043189372758 ], [ -71.501263527679129, 42.108000606572816 ], [ -71.500973587368762, 42.107798579136734 ], [ -71.500767682069764, 42.107805513638709 ], [ -71.500720890013341, 42.10773582957588 ], [ -71.500842521088998, 42.107617436855357 ], [ -71.500767678395533, 42.107526865742415 ], [ -71.500599375208324, 42.107457182673897 ], [ -71.500617993196386, 42.107303948688397 ], [ -71.500851943353169, 42.107032411197672 ], [ -71.501001622620564, 42.106892950609513 ], [ -71.501151302170513, 42.106802377004264 ], [ -71.501282243331914, 42.106823262633171 ], [ -71.501385132714901, 42.106767441564251 ], [ -71.501394558207934, 42.106544703137601 ], [ -71.501347761415417, 42.10625201092477 ], [ -71.501226125229408, 42.105945634879646 ], [ -71.500926642708734, 42.10572263002372 ], [ -71.500739600288341, 42.105353412014971 ], [ -71.500711547753582, 42.105102584050414 ], [ -71.500561868602688, 42.104893621758748 ], [ -71.500309303487796, 42.10472634450894 ], [ -71.500234464393856, 42.104517471398978 ], [ -71.500281251389609, 42.104197048451852 ], [ -71.500168934211018, 42.104057679918405 ], [ -71.49987901568457, 42.103855649266848 ], [ -71.499685214982975, 42.103485978737567 ], [ -71.499512332372433, 42.103049414414734 ], [ -71.499417186228385, 42.102966854873287 ], [ -71.499190140473146, 42.102915715404784 ], [ -71.498977844856725, 42.102848099824477 ], [ -71.498683219248207, 42.102738798227413 ], [ -71.498345313242154, 42.102636517709371 ], [ -71.49814462645233, 42.102538199945464 ], [ -71.497870071994996, 42.102447713208122 ], [ -71.497584998553918, 42.102404492227798 ], [ -71.497141428763342, 42.102384854935771 ], [ -71.496930223280856, 42.102357299689082 ], [ -71.49670318450282, 42.102251145918785 ], [ -71.496655674984737, 42.102196045122788 ], [ -71.49667139455353, 42.102137074822714 ], [ -71.496703192897556, 42.102085937748122 ], [ -71.496792899484632, 42.102054519265486 ], [ -71.496988268679345, 42.102034807701337 ], [ -71.497225952735306, 42.101983765820115 ], [ -71.497299823823084, 42.10189724714634 ], [ -71.497294508972587, 42.101787138243488 ], [ -71.497231162297865, 42.101724204542734 ], [ -71.497114982686455, 42.101700613323665 ], [ -71.496946093097833, 42.101669097782988 ], [ -71.496803557326984, 42.101669093839348 ], [ -71.496663443731038, 42.101586170586963 ], [ -71.496629232175209, 42.101551147237529 ], [ -71.496560564085755, 42.101543312411167 ], [ -71.496476056177727, 42.101582563634949 ], [ -71.496338837770097, 42.101621903134962 ], [ -71.496291328357955, 42.101578686368413 ], [ -71.496370519634084, 42.10149216846321 ], [ -71.496486703703582, 42.101421407206288 ], [ -71.496581734438237, 42.101283751631435 ], [ -71.496629247505496, 42.101256203353678 ], [ -71.496623930801263, 42.101205065182072 ], [ -71.49658173962186, 42.101185437001071 ], [ -71.496507874098995, 42.101165897862785 ], [ -71.496433891196688, 42.101083336472975 ], [ -71.496375869394143, 42.100949457468424 ], [ -71.496280731146399, 42.100855191174453 ], [ -71.496143517480064, 42.100839341002072 ], [ -71.496016821876424, 42.100819799735085 ], [ -71.495916482712573, 42.100776400875205 ], [ -71.495837301086851, 42.100717427218662 ], [ -71.495837304881505, 42.10065854647403 ], [ -71.495868982263332, 42.100607409615655 ], [ -71.495993627203035, 42.100546372583707 ], [ -71.496069551921934, 42.100485513798965 ], [ -71.496090715845853, 42.100359650182021 ], [ -71.495979860398251, 42.100304636918978 ], [ -71.495832008403085, 42.100304631577977 ], [ -71.495721153550107, 42.10024547660479 ], [ -71.495696502486368, 42.100079547199599 ], [ -71.495652501544512, 42.100021475056565 ], [ -71.495531008824258, 42.099962499552156 ], [ -71.495462340656147, 42.099982123743203 ], [ -71.495383153687087, 42.100017503018037 ], [ -71.495330445482878, 42.100005706704899 ], [ -71.495282938255883, 42.099958528114222 ], [ -71.495298659694484, 42.099883802430888 ], [ -71.495351494635869, 42.099813039667069 ], [ -71.49546235780781, 42.099738317817483 ], [ -71.495520513592083, 42.099640005476481 ], [ -71.495541682123488, 42.099459132555559 ], [ -71.495580981423842, 42.099318414488891 ], [ -71.495647236646576, 42.099215330710557 ], [ -71.495610253422583, 42.099077670754902 ], [ -71.495647250969284, 42.099002945835593 ], [ -71.495789909845982, 42.098877176877593 ], [ -71.49580575156773, 42.098798489720593 ], [ -71.495858465917493, 42.098700176993013 ], [ -71.495890146554999, 42.098582236558187 ], [ -71.495985294491078, 42.098456375584753 ], [ -71.496096155022016, 42.098373820344293 ], [ -71.496117194230408, 42.098299094714463 ], [ -71.496112003091099, 42.098181152941699 ], [ -71.496178013174372, 42.098100306673921 ], [ -71.496323204158017, 42.098035668681774 ], [ -71.49651179278348, 42.097989848487913 ], [ -71.496586028850899, 42.097789620126314 ], [ -71.496576732133207, 42.097568681908605 ], [ -71.496437724976573, 42.097320099922662 ], [ -71.496493339817349, 42.097195767792783 ], [ -71.49659525296515, 42.097092234374671 ], [ -71.496799194046233, 42.096988703798857 ], [ -71.497005306797647, 42.096963770650149 ], [ -71.497095852772219, 42.096919657448744 ], [ -71.497091624744542, 42.096852583671662 ], [ -71.497058870260517, 42.096726358280648 ], [ -71.497170090246698, 42.09661589213929 ], [ -71.497336915275085, 42.096553684246039 ], [ -71.4974574426613, 42.096443218042246 ], [ -71.497466759147699, 42.096229212719159 ], [ -71.497494569610737, 42.096049689973533 ], [ -71.497494577551478, 42.095842616875942 ], [ -71.497374060819268, 42.095718280238522 ], [ -71.497170128052787, 42.095745915064192 ], [ -71.497031113423645, 42.095697564425684 ], [ -71.497058921140933, 42.095600871015897 ], [ -71.497346270946565, 42.095386872581052 ], [ -71.497522283375147, 42.095228060511182 ], [ -71.497670734845016, 42.095034765423044 ], [ -71.497744963804777, 42.094834536224248 ], [ -71.497717171178806, 42.09453770082586 ], [ -71.497791283180547, 42.094199362794143 ], [ -71.497967416568443, 42.093895508773564 ], [ -71.498060137338058, 42.093715986987398 ], [ -71.498127597094879, 42.093415551976641 ], [ -71.498117933068372, 42.09319281310264 ], [ -71.498069471620042, 42.092811527522613 ], [ -71.498023061898834, 42.0925561064305 ], [ -71.498240793817274, 42.091413155944608 ], [ -71.498282217402391, 42.064879013788989 ], [ -71.498262678073374, 42.031334304484027 ], [ -71.49790159473126, 42.031514813638132 ], [ -71.497940408209274, 42.029953739722899 ], [ -71.498179389114455, 42.030003711897692 ], [ -71.498179408692948, 42.029292634611629 ], [ -71.497957094947722, 42.029245363712263 ], [ -71.49796821863238, 42.02879259005222 ], [ -71.498196087822066, 42.028759281857013 ], [ -71.497984907389281, 42.027998142776688 ], [ -71.497993247464748, 42.027737048397015 ], [ -71.498259992997987, 42.027814840976696 ], [ -71.498260058947196, 42.025303831478276 ], [ -71.498032203999287, 42.025276007665475 ], [ -71.498260085720219, 42.024284392013698 ], [ -71.498257236427335, 42.022434401174827 ], [ -71.498073946423247, 42.02241216013941 ], [ -71.498076727762211, 42.02226774780587 ], [ -71.498196143632796, 42.022284405812528 ], [ -71.498257240155212, 42.022292689774126 ], [ -71.498257266825206, 42.021278831963279 ], [ -71.498368355916696, 42.021039976948352 ], [ -71.498257273837751, 42.021012245229457 ], [ -71.498257251449488, 42.017273277604772 ], [ -71.527844204760129, 42.01508570794924 ], [ -71.528045973191666, 42.015080158640686 ], [ -71.563658851414829, 42.014277905669331 ], [ -71.591104251237368, 42.013646903162893 ], [ -71.605321372633355, 42.013313695408797 ], [ -71.68086733007766, 42.011530407743187 ], [ -71.771458247450028, 42.009480514726242 ], [ -71.799188400188399, 42.008053321625617 ], [ -71.799716066786544, 42.015714351497571 ], [ -71.800671360476287, 42.023514431094057 ], [ -71.804549133293989, 42.023556118332266 ], [ -71.830064711871273, 42.092777964889372 ], [ -71.811322243463337, 42.098874811827237 ], [ -71.809218689976021, 42.095363830591523 ], [ -71.797177686477752, 42.099171866756521 ], [ -71.817953626261456, 42.133265512601746 ], [ -71.829531319324389, 42.129390668867003 ], [ -71.831943400651653, 42.143775380110164 ], [ -71.829587845579766, 42.144866976679587 ], [ -71.824853556612524, 42.155332144002706 ], [ -71.830472665142523, 42.156084687025526 ], [ -71.834106104981089, 42.154990258672818 ], [ -71.834486369997279, 42.157256608203561 ], [ -71.82548632152799, 42.159920542390182 ], [ -71.825960727067113, 42.165820069262764 ], [ -71.831505122702154, 42.164253192849934 ], [ -71.796329995123017, 42.209236933370555 ], [ -71.797141141147804, 42.210039714036746 ], [ -71.733429796770807, 42.237974955535456 ], [ -71.723536353804164, 42.191484247032818 ], [ -71.71862541599323, 42.172953322740135 ], [ -71.695205260470033, 42.175788924238105 ], [ -71.691419314775686, 42.163108643443813 ], [ -71.67901056953481, 42.165788863447304 ], [ -71.64216897333425, 42.165662707668091 ], [ -71.646271763286563, 42.172870834254653 ], [ -71.64132176999378, 42.174589978867054 ], [ -71.640854654929456, 42.174680315137373 ], [ -71.641291180491123, 42.174876135190779 ], [ -71.649218961721274, 42.181701145732291 ], [ -71.637277230388108, 42.183239578791877 ], [ -71.644428259281639, 42.226626960111368 ], [ -71.621110762875688, 42.230868254650922 ], [ -71.599318658924361, 42.225959233358353 ], [ -71.602222012903511, 42.218101551204889 ], [ -71.58291140029236, 42.19555976428893 ], [ -71.571433102602654, 42.19466043996934 ], [ -71.571663816025591, 42.19429342146573 ], [ -71.571858137014246, 42.193972971093714 ], [ -71.571999471926276, 42.193692167129605 ], [ -71.572069843171789, 42.193398173164951 ], [ -71.572174888294441, 42.192721527469843 ], [ -71.556782493433644, 42.192450290461927 ], [ -71.55642077067094, 42.192077112751434 ], [ -71.556244268196011, 42.191821062769129 ], [ -71.556179985712703, 42.191552983422355 ], [ -71.556131716222595, 42.191320638298684 ], [ -71.556131494563232, 42.191070443547147 ], [ -71.556066082887313, 42.190893025412862 ], [ -71.556131082835051, 42.190605706092327 ], [ -71.556050784796952, 42.1904329768238 ], [ -71.55601055432291, 42.190254285877792 ], [ -71.555858166124764, 42.190016139508643 ], [ -71.555817941613114, 42.189843300466791 ], [ -71.555849808213623, 42.189599032016254 ], [ -71.555881543024228, 42.189342879576095 ], [ -71.555953470279462, 42.189086707472718 ], [ -71.555881211986488, 42.188967542302819 ], [ -71.555849151831922, 42.188854389524522 ], [ -71.555929058042366, 42.188723265989083 ], [ -71.556073237218484, 42.188717253421856 ], [ -71.556233475215834, 42.188663516579183 ], [ -71.556196337277129, 42.188558559168641 ], [ -71.556105065359347, 42.18843130071172 ], [ -71.556093106204727, 42.188323810061668 ], [ -71.556313210272151, 42.188204771572401 ], [ -71.556425275329858, 42.188163032215847 ], [ -71.556537398723563, 42.188186834985672 ], [ -71.556673511972818, 42.188097367293636 ], [ -71.556697364647249, 42.187966270945644 ], [ -71.556609190261497, 42.187918688413021 ], [ -71.556344948590947, 42.188091587507287 ], [ -71.556240857211009, 42.187978470261619 ], [ -71.556204443385923, 42.187870541476784 ], [ -71.556280652973442, 42.18766865544243 ], [ -71.556376583520489, 42.187454155353223 ], [ -71.556432380182358, 42.18730512721686 ], [ -71.556448247541041, 42.187043040317576 ], [ -71.556416123619812, 42.186858313362286 ], [ -71.556447865360056, 42.186614044676318 ], [ -71.556696047986861, 42.186494811492302 ], [ -71.556800123539503, 42.186321991139145 ], [ -71.556799893935093, 42.186065854153725 ], [ -71.556983997374118, 42.185904877911447 ], [ -71.557056077198354, 42.185827415662551 ], [ -71.557056028882172, 42.18577375743623 ], [ -71.556935745335153, 42.185690448988808 ], [ -71.556887819845102, 42.185839383471979 ], [ -71.556799680311855, 42.185827543212113 ], [ -71.556599496011614, 42.185875268596952 ], [ -71.556455318049927, 42.185875339817414 ], [ -71.556263144241228, 42.185946918775649 ], [ -71.55609477571339, 42.185833832947061 ], [ -71.555943676257158, 42.185672572046627 ], [ -71.555661969962458, 42.18552424892966 ], [ -71.555485608693502, 42.185405134037971 ], [ -71.555421429783024, 42.185244370444096 ], [ -71.555485353100977, 42.185113254871453 ], [ -71.555605329611794, 42.184988054055573 ], [ -71.555509029648917, 42.184779589868953 ], [ -71.555341042997114, 42.184821445453977 ], [ -71.5552689035203, 42.184970390986472 ], [ -71.555180744719252, 42.184934691375297 ], [ -71.555196678848517, 42.184743998811051 ], [ -71.555196569913022, 42.184618946312234 ], [ -71.555172412783548, 42.184541531616219 ], [ -71.555068249656856, 42.184476039492161 ], [ -71.555132074463117, 42.184231755631629 ], [ -71.555204113075831, 42.184106578304231 ], [ -71.555468356941603, 42.183951597797368 ], [ -71.555444079756541, 42.183737066530249 ], [ -71.555435907814996, 42.183528469471341 ], [ -71.555643876315898, 42.18325449526521 ], [ -71.555715839425844, 42.183045859207141 ], [ -71.555725324444566, 42.18281951750248 ], [ -71.555923757620917, 42.182718046153056 ], [ -71.555995872034401, 42.182682358737523 ], [ -71.555939794270216, 42.182646643994651 ], [ -71.555819554837385, 42.182605018521606 ], [ -71.555738361938637, 42.182503413481292 ], [ -71.555663249460181, 42.18243331615853 ], [ -71.555545445336534, 42.182407354549284 ], [ -71.555510807876317, 42.182387654643783 ], [ -71.555497357417451, 42.182371725740474 ], [ -71.555497331790832, 42.182342465784927 ], [ -71.555510362466535, 42.182293752870045 ], [ -71.555527736696092, 42.182228832324128 ], [ -71.555573812012327, 42.18217812268319 ], [ -71.555641235372079, 42.182176919513502 ], [ -71.555684855795491, 42.182225514854494 ], [ -71.555670956091404, 42.182249379747255 ], [ -71.555658751937685, 42.182274234150739 ], [ -71.55568091354175, 42.182285117078514 ], [ -71.555732977996342, 42.182300126850009 ], [ -71.555824575274187, 42.182257947838103 ], [ -71.555885696526857, 42.182248104655066 ], [ -71.555916180930907, 42.182225402030546 ], [ -71.555929358135998, 42.182205948964068 ], [ -71.555929326509343, 42.182170116771168 ], [ -71.555905700239776, 42.182145549944373 ], [ -71.555864879148444, 42.182114329239994 ], [ -71.555806986939004, 42.182079425591695 ], [ -71.555719699144404, 42.182066413688531 ], [ -71.555536281569061, 42.182034091828186 ], [ -71.555339909046197, 42.181998444806894 ], [ -71.555160841073615, 42.181956306898563 ], [ -71.555086652280039, 42.181972548166918 ], [ -71.555038711411783, 42.181966179062933 ], [ -71.554907728143547, 42.181956428659575 ], [ -71.554837747942912, 42.181940256703683 ], [ -71.554816043617265, 42.181897952687734 ], [ -71.554641449560705, 42.181849419646902 ], [ -71.554318304239175, 42.181771697000841 ], [ -71.554082611947592, 42.181758844251611 ], [ -71.553960498981979, 42.181788071855884 ], [ -71.553820840221022, 42.181824780132089 ], [ -71.55375454725079, 42.181588480775694 ], [ -71.553688704880287, 42.181454816137453 ], [ -71.553646538783198, 42.181405859229315 ], [ -71.553592283296112, 42.181375004136861 ], [ -71.553298758553268, 42.181249998628267 ], [ -71.55310089610208, 42.181165371776608 ], [ -71.552928730377516, 42.181121696657094 ], [ -71.552867098069626, 42.18109858727292 ], [ -71.552825160075926, 42.181031803880195 ], [ -71.552769176118304, 42.180814135520635 ], [ -71.552603054072463, 42.180612813385437 ], [ -71.552548927028241, 42.18044349053325 ], [ -71.552600404838458, 42.180046161408193 ], [ -71.552590548849793, 42.179984314849499 ], [ -71.552548513013932, 42.179944270507818 ], [ -71.55248859578316, 42.179944298019819 ], [ -71.552422674275434, 42.180002308023532 ], [ -71.552368820253392, 42.180015657237298 ], [ -71.552308884522816, 42.179993357050279 ], [ -71.552099014557086, 42.179873081793517 ], [ -71.552008997813985, 42.179775079327733 ], [ -71.551912889446726, 42.179480902648763 ], [ -71.551846785492998, 42.179315996377582 ], [ -71.55175517312621, 42.17918954472394 ], [ -71.551732858861726, 42.179137787160791 ], [ -71.551717200544104, 42.179084225969035 ], [ -71.551714746980238, 42.179044163411447 ], [ -71.551750529306389, 42.178839057258443 ], [ -71.551738348646126, 42.178745520854896 ], [ -71.55168733469435, 42.178678110914262 ], [ -71.551660423769917, 42.178629686546898 ], [ -71.551666428613629, 42.178571704050988 ], [ -71.551690354960257, 42.178522626496751 ], [ -71.551738104805125, 42.178446889068248 ], [ -71.551834014560143, 42.178353213687124 ], [ -71.551941914466326, 42.178268445820592 ], [ -71.552013710814776, 42.178143630603302 ], [ -71.552055536211469, 42.17807671874251 ], [ -71.552162259847066, 42.17803435567248 ], [ -71.552217302388925, 42.177996427616918 ], [ -71.552243520673343, 42.177938615914158 ], [ -71.552283015934535, 42.177688672551454 ], [ -71.552276455899403, 42.177659775684447 ], [ -71.552277771598753, 42.177640688567152 ], [ -71.552291319815353, 42.177630598930811 ], [ -71.552355213725235, 42.177611843305023 ], [ -71.552391251997562, 42.177573383676723 ], [ -71.552401632881171, 42.177538807117692 ], [ -71.552455825556009, 42.17749844850308 ], [ -71.55249196885751, 42.177440812246729 ], [ -71.552515671235, 42.177414872512124 ], [ -71.552525469959335, 42.177408205737414 ], [ -71.55254410990652, 42.177407927082541 ], [ -71.552562760831748, 42.177420882938328 ], [ -71.552636611818244, 42.177440745764997 ], [ -71.552671355350839, 42.177446761828278 ], [ -71.552695934286945, 42.177456113702412 ], [ -71.552703703246806, 42.177483029313329 ], [ -71.552714133451559, 42.177507963020709 ], [ -71.55273993256165, 42.177529018318914 ], [ -71.552778069330387, 42.17753989444487 ], [ -71.552807129211871, 42.177552125210731 ], [ -71.552828574744851, 42.177577774066627 ], [ -71.552844449281395, 42.177599644201834 ], [ -71.552870260415716, 42.177635014352084 ], [ -71.55293120282488, 42.177705660290755 ], [ -71.552957013373629, 42.177740220144656 ], [ -71.552980291729327, 42.17778630509968 ], [ -71.553006450925068, 42.177803488848845 ], [ -71.553029334196097, 42.177811310914677 ], [ -71.553052697942704, 42.177814721247074 ], [ -71.553119148462301, 42.177813610034164 ], [ -71.553161639010639, 42.177819802411996 ], [ -71.553196389905068, 42.177834281201854 ], [ -71.553382623369046, 42.177920353840562 ], [ -71.553526988105901, 42.178019500235088 ], [ -71.553560674553509, 42.178063239400394 ], [ -71.5535785123881, 42.178116169115569 ], [ -71.553575051435416, 42.178174420619413 ], [ -71.553599900818028, 42.178216813450426 ], [ -71.553621336382804, 42.178230037920116 ], [ -71.553660444039451, 42.178243254095982 ], [ -71.553781485703794, 42.178243197243518 ], [ -71.553945230242732, 42.178213950173962 ], [ -71.554076891935125, 42.178176885369837 ], [ -71.55410532301336, 42.178160846453963 ], [ -71.554130248719574, 42.178150481126089 ], [ -71.55416230878464, 42.178131829587237 ], [ -71.554197874565872, 42.178107954595667 ], [ -71.554236957377782, 42.178092090660499 ], [ -71.554290464453516, 42.178099987979628 ], [ -71.554324256535068, 42.17812509050917 ], [ -71.554365187851133, 42.178147578744323 ], [ -71.554404404208853, 42.17814629966729 ], [ -71.554457782340478, 42.178144923804297 ], [ -71.554692701000192, 42.178118342678424 ], [ -71.554824387138424, 42.178110266899132 ], [ -71.554899072028078, 42.178112931998946 ], [ -71.554963068499717, 42.178073197710894 ], [ -71.555012989558577, 42.177993676572235 ], [ -71.555030679176269, 42.177874557397885 ], [ -71.555066078865863, 42.177660087139408 ], [ -71.555080196866641, 42.1776097531571 ], [ -71.555115759738939, 42.177583266987661 ], [ -71.555158480105518, 42.1775753236886 ], [ -71.555243936896147, 42.177577893337158 ], [ -71.555329249621451, 42.17755408398402 ], [ -71.555368441207705, 42.177524895058056 ], [ -71.555389802857519, 42.177453400304344 ], [ -71.555382612941415, 42.1773978548161 ], [ -71.555364780725583, 42.177352848076097 ], [ -71.555382552749577, 42.177328981324301 ], [ -71.555421641714403, 42.177321039684841 ], [ -71.555548873672137, 42.177342675374526 ], [ -71.555581921841195, 42.177347520980064 ], [ -71.555621006051254, 42.17733417743014 ], [ -71.555636964035301, 42.177312202166505 ], [ -71.555649424818782, 42.177304993644803 ], [ -71.555670853621763, 42.177310385061844 ], [ -71.555706816000296, 42.177325762810426 ], [ -71.555734911591884, 42.177342044688828 ], [ -71.555741950518708, 42.177363198484272 ], [ -71.555745726042261, 42.177389665683847 ], [ -71.555777696935309, 42.177408196431493 ], [ -71.555813280416203, 42.177405568182074 ], [ -71.555847399432864, 42.177389345993866 ], [ -71.555838161122693, 42.177344785284291 ], [ -71.555852411065587, 42.177307595628037 ], [ -71.555902242088536, 42.177265166801973 ], [ -71.555944957453164, 42.177251911397263 ], [ -71.555984062684388, 42.177262515892153 ], [ -71.556097998585699, 42.177304774521417 ], [ -71.556153220130213, 42.177335627971772 ], [ -71.556179863840114, 42.177352450638544 ], [ -71.556187990201039, 42.177371263073276 ], [ -71.556196008460191, 42.177404660541612 ], [ -71.556226415956004, 42.177434445775809 ], [ -71.556261887744739, 42.177442351039488 ], [ -71.556283223751919, 42.177479433210635 ], [ -71.556336663709786, 42.177548280423522 ], [ -71.556415140245676, 42.17759586800976 ], [ -71.556443603590168, 42.177617011193043 ], [ -71.556468435818587, 42.177638246192608 ], [ -71.556461436645449, 42.177662017764177 ], [ -71.556425874290653, 42.177688504351138 ], [ -71.556407998026117, 42.177730917648127 ], [ -71.556376064429756, 42.177754701507432 ], [ -71.556372445060774, 42.177768027841047 ], [ -71.55638322946308, 42.177781257044842 ], [ -71.556404294084658, 42.177785208012359 ], [ -71.556454401441982, 42.177781221940634 ], [ -71.556511295345587, 42.177786505660862 ], [ -71.556547004708435, 42.177789098905059 ], [ -71.55656469554917, 42.177810247382709 ], [ -71.556560359613925, 42.177834377765606 ], [ -71.556554095938864, 42.177868502513611 ], [ -71.556564782980985, 42.177908200786121 ], [ -71.556596752042736, 42.177924120414033 ], [ -71.556643234704083, 42.177927338512639 ], [ -71.556696603823198, 42.177916148260842 ], [ -71.556732196980903, 42.177924053318762 ], [ -71.556781847528896, 42.177950497721113 ], [ -71.556871085685543, 42.177984845132137 ], [ -71.556903066746301, 42.178013999187407 ], [ -71.556970155068356, 42.178048987752611 ], [ -71.557049147338034, 42.178130426203545 ], [ -71.557074127120401, 42.178180650894745 ], [ -71.55710139667427, 42.178219710625832 ], [ -71.557127592387886, 42.178275966757163 ], [ -71.557188172964956, 42.178342109078237 ], [ -71.557284320884563, 42.178387076338801 ], [ -71.557394744804981, 42.178424203682965 ], [ -71.557473099726153, 42.1784690896801 ], [ -71.557487750392824, 42.178474124039703 ], [ -71.557522855217229, 42.178476987376449 ], [ -71.557550319348067, 42.178463288891429 ], [ -71.557576205912312, 42.178445179687806 ], [ -71.557661635137492, 42.178416056731379 ], [ -71.557695158113191, 42.178409827708421 ], [ -71.557729278254911, 42.178394775362122 ], [ -71.557759643947392, 42.178377384102212 ], [ -71.557795804361675, 42.178343244189669 ], [ -71.557828835395966, 42.178328552486661 ], [ -71.557885838857942, 42.178320600951636 ], [ -71.557912461638438, 42.178313565079613 ], [ -71.557946352517675, 42.178312647610255 ], [ -71.557966574155643, 42.178321010224039 ], [ -71.55801404875335, 42.178349615932675 ], [ -71.558063816426284, 42.178370837937301 ], [ -71.558092413841408, 42.178405215160275 ], [ -71.558117387374722, 42.178447606952581 ], [ -71.558137026085063, 42.178480188100274 ], [ -71.558149262738439, 42.178492606122497 ], [ -71.558174335402796, 42.178511049675983 ], [ -71.558193953824585, 42.178521483263197 ], [ -71.558249168675616, 42.178542792446748 ], [ -71.558264062746986, 42.17854917704431 ], [ -71.558291918528496, 42.178566628816434 ], [ -71.558302114820506, 42.178597864285329 ], [ -71.55833464971866, 42.178701653135498 ], [ -71.558352469747234, 42.178730723973999 ], [ -71.558395207570641, 42.178741325793233 ], [ -71.558630165935924, 42.178757051028988 ], [ -71.558697838611479, 42.178767639953911 ], [ -71.558758495759037, 42.178783544255566 ], [ -71.558801122416725, 42.178804679576338 ], [ -71.558815308897678, 42.178831051288363 ], [ -71.558833233175363, 42.178841755729117 ], [ -71.558854534200066, 42.178839043850978 ], [ -71.558875825520602, 42.17882588840893 ], [ -71.558947082698879, 42.17878605813199 ], [ -71.558998397425881, 42.178778108975941 ], [ -71.559045597276565, 42.178770792135886 ], [ -71.559270997917807, 42.17879120258965 ], [ -71.559335896110568, 42.178811785986973 ], [ -71.559370640860251, 42.17881761995924 ], [ -71.559399933460071, 42.178817874846445 ], [ -71.55943745071913, 42.178811463179258 ], [ -71.559470377555613, 42.178814867236028 ], [ -71.559655541666316, 42.178910113381882 ], [ -71.559755182493859, 42.178933919527253 ], [ -71.559815706446216, 42.17893649879111 ], [ -71.559901120243055, 42.1788914387365 ], [ -71.559961596629606, 42.178843780798815 ], [ -71.559981562131128, 42.178836837966671 ], [ -71.560011456119852, 42.178833040999315 ], [ -71.560050560616659, 42.178841123247174 ], [ -71.560079028206303, 42.178864876415616 ], [ -71.560106637075023, 42.178876565909711 ], [ -71.560128915454342, 42.178883396539128 ], [ -71.560152508219801, 42.178872220326369 ], [ -71.560178759986741, 42.178856901296321 ], [ -71.560242751334883, 42.178814463143475 ], [ -71.560264168367553, 42.178806529159587 ], [ -71.560278335419511, 42.178811833509776 ], [ -71.560331758122317, 42.178856820718586 ], [ -71.560395938534157, 42.178885866784 ], [ -71.560412160082791, 42.178887748865193 ], [ -71.560438671737742, 42.178891156031199 ], [ -71.560451276772909, 42.178908525303555 ], [ -71.560457824943185, 42.178920946084872 ], [ -71.560474303880355, 42.178938853491893 ], [ -71.560499000001101, 42.178942351634333 ], [ -71.560538343187361, 42.178946742329586 ], [ -71.560588225641737, 42.178960040473335 ], [ -71.560637981733251, 42.178967756756848 ], [ -71.560755406255495, 42.178981019011218 ], [ -71.560936965745555, 42.178975610643072 ], [ -71.561040311020747, 42.178949086518834 ], [ -71.561122125932414, 42.178938509245214 ], [ -71.561182634647849, 42.178925242386462 ], [ -71.56124311767303, 42.178885416442206 ], [ -71.561292858635412, 42.178877467101664 ], [ -71.561364165698294, 42.178890663398192 ], [ -71.561378332861011, 42.17889596761254 ], [ -71.56140690413261, 42.178901264095359 ], [ -71.561424689762049, 42.178893331843625 ], [ -71.561460255769205, 42.17887206549041 ], [ -71.561478234126056, 42.178813265759942 ], [ -71.561485111027977, 42.178790034134153 ], [ -71.56148072449497, 42.178760146286081 ], [ -71.561471746468982, 42.178738633763416 ], [ -71.561463611992522, 42.178713249465027 ], [ -71.56147726133085, 42.178683892110627 ], [ -71.561499159976208, 42.178673526806854 ], [ -71.561559696606025, 42.178689339662149 ], [ -71.561609568657289, 42.178691923709728 ], [ -71.561655904817215, 42.178668130634144 ], [ -71.561719915678509, 42.178646938898154 ], [ -71.561755502151954, 42.178646919696007 ], [ -71.56176748728258, 42.178648893902789 ], [ -71.561787452174087, 42.178641590632928 ], [ -71.56179785962722, 42.178639334243641 ], [ -71.561806926745405, 42.178627985472566 ], [ -71.561823018006265, 42.178620414196729 ], [ -71.561845176316581, 42.178628144865456 ], [ -71.561880057358124, 42.178649463291734 ], [ -71.56191408294643, 42.178662409311315 ], [ -71.561951240692338, 42.17866004839891 ], [ -71.56197615466003, 42.178638787651451 ], [ -71.562004586678796, 42.178625537728045 ], [ -71.562018738330238, 42.178614996461292 ], [ -71.562025982721465, 42.178596446201333 ], [ -71.562018663181021, 42.178538200278311 ], [ -71.561979450149948, 42.1784192008828 ], [ -71.561958071595612, 42.178342326204806 ], [ -71.561954341947072, 42.178241673849172 ], [ -71.561919517496705, 42.17815418281355 ], [ -71.561834459591026, 42.177817153681048 ], [ -71.561757236602404, 42.177445638458039 ], [ -71.561704156935008, 42.177131189647177 ], [ -71.561655729472349, 42.176870396626818 ], [ -71.56163130213443, 42.176769125173976 ], [ -71.561626914621769, 42.176738156952737 ], [ -71.56164698350382, 42.176713927863297 ], [ -71.561684480452854, 42.176688158851597 ], [ -71.561722911573952, 42.176627367353383 ], [ -71.561780494605273, 42.176595195286481 ], [ -71.561809273850841, 42.176566549955915 ], [ -71.561852843741988, 42.176562475023395 ], [ -71.561890960919285, 42.176552280931723 ], [ -71.561914909026626, 42.17653435184986 ], [ -71.561948547229164, 42.176523619978177 ], [ -71.561972481400346, 42.176491466029368 ], [ -71.561986832568962, 42.176437889943557 ], [ -71.56196763863997, 42.17636641590569 ], [ -71.56199638625813, 42.176305629556545 ], [ -71.561996347861779, 42.176266376158367 ], [ -71.561972219331921, 42.176223444550118 ], [ -71.561967418579812, 42.176141339080132 ], [ -71.561939339401221, 42.176019092486172 ], [ -71.561943167899969, 42.175973354776154 ], [ -71.561986353835522, 42.175948392858245 ], [ -71.562029553570611, 42.175937565749351 ], [ -71.562031091633258, 42.175901372540601 ], [ -71.5619622870597, 42.175844690433436 ], [ -71.561880555649694, 42.175812593681826 ], [ -71.561861414401747, 42.175794777938577 ], [ -71.561866103471203, 42.175762634412706 ], [ -71.561904544321877, 42.175712556501303 ], [ -71.561947618165448, 42.175573075495905 ], [ -71.56198118612312, 42.175491039265289 ], [ -71.561985861109676, 42.175444580844776 ], [ -71.561933043880558, 42.175398153563115 ], [ -71.561875406201452, 42.175373156192535 ], [ -71.561880098660708, 42.175344523862826 ], [ -71.561908877381995, 42.175315968531315 ], [ -71.561932932153837, 42.175283814518302 ], [ -71.561937731627594, 42.175240867231707 ], [ -71.561923282964756, 42.175194419164207 ], [ -71.561870348469313, 42.175151593147405 ], [ -71.56184149671914, 42.175105242888627 ], [ -71.561846271818879, 42.175037267056616 ], [ -71.561855753406959, 42.174955063812895 ], [ -71.561846121858721, 42.174883584566992 ], [ -71.561817128314502, 42.174815807046777 ], [ -71.561772799188859, 42.174784770367069 ], [ -71.561749894617265, 42.174755072569241 ], [ -71.561736663479479, 42.174715736250874 ], [ -71.561778498938736, 42.174547806219849 ], [ -71.561845661704339, 42.174412003475865 ], [ -71.561857090817838, 42.174341143051983 ], [ -71.56187436320306, 42.17430476126485 ], [ -71.561915002796141, 42.174276199510039 ], [ -71.561965577617698, 42.174258346025361 ], [ -71.562156861208379, 42.174185587386539 ], [ -71.562195945710272, 42.174175932846254 ], [ -71.562252349894024, 42.174178332997201 ], [ -71.562301867981148, 42.174193791338375 ], [ -71.562359348557905, 42.174183046352269 ], [ -71.562445745659744, 42.174161571889549 ], [ -71.562517818352802, 42.174097160493822 ], [ -71.562541677320155, 42.173990010785296 ], [ -71.56251845290646, 42.173881536349278 ], [ -71.562517564646939, 42.173839942598093 ], [ -71.562529744507785, 42.173794830502239 ], [ -71.562551130773301, 42.173757726113621 ], [ -71.5625798837617, 42.173704142051314 ], [ -71.562581286645241, 42.173653994118169 ], [ -71.562578100679644, 42.17361438230084 ], [ -71.562563525817524, 42.173440180635794 ], [ -71.562565177526878, 42.173396874907063 ], [ -71.562586914822148, 42.173347706186789 ], [ -71.562665834991435, 42.173232423525 ], [ -71.562689742803457, 42.173175240851059 ], [ -71.562670542037267, 42.173096654460643 ], [ -71.562610077872307, 42.173026553556568 ], [ -71.562574308725459, 42.172960940655116 ], [ -71.562559814264134, 42.172868036767113 ], [ -71.562577542416491, 42.172803745056932 ], [ -71.562569252300179, 42.172742978780498 ], [ -71.56257888892776, 42.172696517599391 ], [ -71.562626906507901, 42.172664350312488 ], [ -71.562645986963815, 42.172621395156668 ], [ -71.562674749950887, 42.172578524723342 ], [ -71.562722785033074, 42.172564183491232 ], [ -71.562774355754797, 42.172575859210014 ], [ -71.562833307414962, 42.172585550173181 ], [ -71.562947178502696, 42.172566401030032 ], [ -71.562977426816929, 42.172556931142815 ], [ -71.562999419615238, 42.172521897037136 ], [ -71.563030128746462, 42.172489018864539 ], [ -71.563082983581396, 42.172453247485869 ], [ -71.563159791728665, 42.172406749189392 ], [ -71.563198119176988, 42.17236738454379 ], [ -71.563217316685382, 42.172320918022592 ], [ -71.563246043576683, 42.172242395249924 ], [ -71.563229995831207, 42.172170469479255 ], [ -71.56321711357694, 42.172117268371508 ], [ -71.563245850976458, 42.172049369229896 ], [ -71.563265055542431, 42.172010105161704 ], [ -71.563269857461705, 42.171970759026479 ], [ -71.563212176040494, 42.171899306425516 ], [ -71.563168797664176, 42.171849363269352 ], [ -71.563019863938251, 42.171781562161996 ], [ -71.562827612695997, 42.171724498333177 ], [ -71.562741197832054, 42.171724545765969 ], [ -71.562669157139155, 42.171695955449486 ], [ -71.562596942491226, 42.171613706797118 ], [ -71.562419180586005, 42.171521072167266 ], [ -71.562368674621737, 42.171483556853588 ], [ -71.562327854553629, 42.17144963747387 ], [ -71.56230493508528, 42.171403824257645 ], [ -71.562265235267887, 42.171278162806274 ], [ -71.562024668781461, 42.170945989626873 ], [ -71.561942942470353, 42.170788840037865 ], [ -71.561880342279508, 42.170635191244386 ], [ -71.561812025947475, 42.170452645595283 ], [ -71.561793101005321, 42.170406740080573 ], [ -71.561760004835122, 42.170349408295799 ], [ -71.561710215921835, 42.170301178626566 ], [ -71.561563052504468, 42.17018160691385 ], [ -71.561460350636381, 42.170107836838618 ], [ -71.561423515940547, 42.170063741501409 ], [ -71.561403507569025, 42.170023418415894 ], [ -71.561346470783008, 42.169863734259238 ], [ -71.56132234861127, 42.169824403704595 ], [ -71.56120703904547, 42.1697279523788 ], [ -71.561043486182427, 42.169553019773289 ], [ -71.560980951318243, 42.169463742505648 ], [ -71.560952058044975, 42.169370846042511 ], [ -71.560865433628933, 42.169149326182385 ], [ -71.560812405471907, 42.169002874146734 ], [ -71.560721060982274, 42.16890649960721 ], [ -71.560610608546867, 42.168824269971971 ], [ -71.560552798367425, 42.168738591193467 ], [ -71.560505150546888, 42.168522182157055 ], [ -71.560649459961354, 42.168321246791585 ], [ -71.560900872722186, 42.168119714061859 ], [ -71.561098974466987, 42.16798177108334 ], [ -71.561227916407972, 42.1677864250927 ], [ -71.561057215742011, 42.167598531835196 ], [ -71.560766204696407, 42.167645953072714 ], [ -71.560583913026775, 42.167864374734698 ], [ -71.560462697707692, 42.168042249915949 ], [ -71.560155529006877, 42.168027286726876 ], [ -71.559916238647034, 42.167868147701348 ], [ -71.559783609840309, 42.167623423101801 ], [ -71.559804604937781, 42.167428765309481 ], [ -71.559809385653608, 42.167108522871359 ], [ -71.561231633266146, 42.167374531707516 ], [ -71.561839553532764, 42.167531218481294 ], [ -71.562317004978382, 42.167677169493643 ], [ -71.562547628760186, 42.16775591066375 ], [ -71.562839979142467, 42.16783956916872 ], [ -71.563075709102733, 42.167575558804756 ], [ -71.563264555956252, 42.167265388027239 ], [ -71.563394935987176, 42.167064006696201 ], [ -71.563606236071735, 42.166821256037146 ], [ -71.563843824284206, 42.166486658757343 ], [ -71.563984687806567, 42.166243946673283 ], [ -71.564117013042548, 42.166055707908306 ], [ -71.564276916125706, 42.165973509930794 ], [ -71.564321998565759, 42.165916945154109 ], [ -71.564315062983255, 42.165760655344847 ], [ -71.564321630518947, 42.165554210701828 ], [ -71.564330812276737, 42.165419609275496 ], [ -71.564342367424786, 42.165358021607766 ], [ -71.564367849099412, 42.165305879349631 ], [ -71.564440705286628, 42.165190688735279 ], [ -71.564463359944227, 42.16509578334599 ], [ -71.564412804736577, 42.165005960944463 ], [ -71.564316958818026, 42.164885823570614 ], [ -71.564292351354766, 42.16484523344824 ], [ -71.56427801348832, 42.164788071852719 ], [ -71.564259676384907, 42.164486478453995 ], [ -71.564354303687267, 42.164360561957061 ], [ -71.564442123027774, 42.164204398812004 ], [ -71.564414933821055, 42.164123836418511 ], [ -71.564272680181134, 42.164063415655463 ], [ -71.564123857709859, 42.164088707878335 ], [ -71.564029067678376, 42.164053558888064 ], [ -71.563913845651385, 42.163917586560025 ], [ -71.563744313583101, 42.163685941483521 ], [ -71.563513898014349, 42.163439384843421 ], [ -71.563467032615605, 42.16328536787055 ], [ -71.563479651126727, 42.163076759093777 ], [ -71.563506510769855, 42.162829969263335 ], [ -71.563506329130405, 42.162648646964811 ], [ -71.563523247508073, 42.162383856436399 ], [ -71.563572800522579, 42.162322337729698 ], [ -71.563654925605377, 42.162280877782294 ], [ -71.563815349677057, 42.162244235774509 ], [ -71.563848469553861, 42.162207304578082 ], [ -71.563851220346166, 42.162175071946905 ], [ -71.563661112731836, 42.161814333730014 ], [ -71.563532315294381, 42.161530537633475 ], [ -71.563533322097385, 42.161448428800867 ], [ -71.563544284611694, 42.16139917575034 ], [ -71.563566031392199, 42.161364321663484 ], [ -71.563701178307838, 42.161223257891628 ], [ -71.563715044238165, 42.161173372987925 ], [ -71.563680974483603, 42.16110748927256 ], [ -71.563612982212589, 42.161001650658221 ], [ -71.563553079421439, 42.160877531210559 ], [ -71.563504361556369, 42.160684441761738 ], [ -71.563444409986616, 42.160631986966109 ], [ -71.563320464274426, 42.160598564144365 ], [ -71.563063506158912, 42.16054027604708 ], [ -71.563003338573381, 42.160513479978675 ], [ -71.562953313164286, 42.16046399047849 ], [ -71.562888105255141, 42.160357429644883 ], [ -71.562847286962565, 42.160196296570319 ], [ -71.562817841524989, 42.160155258609308 ], [ -71.562765530956923, 42.16011945499563 ], [ -71.562729333089152, 42.160102549031954 ], [ -71.562655013578436, 42.160081162405461 ], [ -71.562436057618399, 42.160026183214967 ], [ -71.562373224382554, 42.159995066781683 ], [ -71.562301136033099, 42.159904264791138 ], [ -71.562291865483047, 42.159828913877575 ], [ -71.562318671703039, 42.159647576784991 ], [ -71.562318228327769, 42.159565828855051 ], [ -71.562296273774209, 42.159512452422327 ], [ -71.562237303492836, 42.159471340363602 ], [ -71.562047841125093, 42.159381322298863 ], [ -71.56200025093635, 42.159345605801981 ], [ -71.561957108883121, 42.15928008660358 ], [ -71.561952760461224, 42.159164219023687 ], [ -71.561948307764851, 42.159065457394306 ], [ -71.561915173229664, 42.158962929998658 ], [ -71.561799267467634, 42.15885621591206 ], [ -71.561644660796219, 42.158770229723039 ], [ -71.561423361953445, 42.158664472353856 ], [ -71.561247450742385, 42.158569403939431 ], [ -71.560955223042669, 42.158315042401092 ], [ -71.560880250555357, 42.157988899886021 ] ] ] ] } },
{ "type": "Feature", "properties": { "TOWN": "OXFORD", "TOWN_ID": 226, "COUNTY": "WORCESTER", "region": "SOUTHWEST" }, "geometry": { "type": "MultiPolygon", "coordinates": [ [ [ [ -71.90337231206432, 42.024584895634604 ], [ -71.963150006066016, 42.026224213834134 ], [ -71.987528652210017, 42.026882603726825 ], [ -71.993125954628468, 42.02693549678412 ], [ -72.071769911440214, 42.027632510458318 ], [ -72.099753621827759, 42.028768596898097 ], [ -72.102112016104584, 42.028865869145434 ], [ -72.135715498750997, 42.030221575398635 ], [ -72.135112224763887, 42.090664813944556 ], [ -72.135011123362503, 42.161783591129876 ], [ -72.111519306529914, 42.164455414400528 ], [ -72.108681071335482, 42.151588753983532 ], [ -72.086752292752166, 42.154435829228269 ], [ -72.089415732571027, 42.167138511251018 ], [ -72.07569272154457, 42.168807786129179 ], [ -72.072449964493885, 42.169278784258353 ], [ -72.069017425074264, 42.169618913809423 ], [ -72.029440684044204, 42.174424257537282 ], [ -72.018601658425354, 42.17569924074229 ], [ -72.019887695547098, 42.183762791267313 ], [ -71.93935781065521, 42.18923852472178 ], [ -71.916967882201362, 42.190862817216491 ], [ -71.895136887281808, 42.192425890451062 ], [ -71.876172277946509, 42.215022933557265 ], [ -71.866011209435854, 42.225984055029627 ], [ -71.856633164522336, 42.226675663386345 ], [ -71.810035467717569, 42.231262729229073 ], [ -71.80675208537447, 42.223898652015649 ], [ -71.803835453409803, 42.220926475331069 ], [ -71.797141141147804, 42.210039714036746 ], [ -71.796329995123017, 42.209236933370555 ], [ -71.831505122702154, 42.164253192849934 ], [ -71.825960727067113, 42.165820069262764 ], [ -71.82548632152799, 42.159920542390182 ], [ -71.834486369997279, 42.157256608203561 ], [ -71.834106104981089, 42.154990258672818 ], [ -71.830472665142523, 42.156084687025526 ], [ -71.824853556612524, 42.155332144002706 ], [ -71.829587845579766, 42.144866976679587 ], [ -71.831943400651653, 42.143775380110164 ], [ -71.829531319324389, 42.129390668867003 ], [ -71.817953626261456, 42.133265512601746 ], [ -71.797177686477752, 42.099171866756521 ], [ -71.809218689976021, 42.095363830591523 ], [ -71.811322243463337, 42.098874811827237 ], [ -71.830064711871273, 42.092777964889372 ], [ -71.804549133293989, 42.023556118332266 ], [ -71.883053740641131, 42.024378714270753 ], [ -71.883949076236277, 42.024394618912133 ], [ -71.90337231206432, 42.024584895634604 ] ] ] ] } },
{ "type": "Feature", "properties": { "TOWN": "WORCESTER", "TOWN_ID": 348, "COUNTY": "WORCESTER", "region": "CENTRAL" }, "geometry": { "type": "MultiPolygon", "coordinates": [ [ [ [ -71.768268236033279, 42.311259898633324 ], [ -71.758543039150311, 42.296221279989339 ], [ -71.751279731142219, 42.254494376727258 ], [ -71.746079832027732, 42.243838767772445 ], [ -71.731238048371722, 42.241286206444386 ], [ -71.733429796770807, 42.237974955535456 ], [ -71.797141141147804, 42.210039714036746 ], [ -71.803835453409803, 42.220926475331069 ], [ -71.80675208537447, 42.223898652015649 ], [ -71.810035467717569, 42.231262729229073 ], [ -71.856633164522336, 42.226675663386345 ], [ -71.884044191999322, 42.281252774460725 ], [ -71.875388639308184, 42.286544536242708 ], [ -71.802043574471014, 42.331345408915915 ], [ -71.785895960276605, 42.341186950016933 ], [ -71.779721007730302, 42.32896219171284 ], [ -71.768268236033279, 42.311259898633324 ] ] ] ] } }
]
}
