{
"type": "FeatureCollection",
"name": "Via_Microtransit_Origin_Destination_Points_251030",
"crs": { "type": "name", "properties": { "name": "urn:ogc:def:crs:OGC:1.3:CRS84" } },
"features": [
{ "type": "Feature", "properties": { "Name": "Shrewsbury Town Hall/Senior Center Complex", "description": "Required origin/destination point for Shrewsbury/Northborough service zone. Includes Shrewsbury Town Hall and Senior Center complex.", "timestamp": null, "begin": null, "end": null, "altitudeMode": null, "tessellate": -1, "extrude": 0, "visibility": -1, "drawOrder": null, "icon": null }, "geometry": { "type": "Point", "coordinates": [ -71.7223249, 42.291747, 0.0 ] } },
{ "type": "Feature", "properties": { "Name": "Shrewsbury Public Library", "description": "Required origin/destination point for Shrewsbury/Northborough service zone. Shrewsbury Public Library property only.", "timestamp": null, "begin": null, "end": null, "altitudeMode": null, "tessellate": -1, "extrude": 0, "visibility": -1, "drawOrder": null, "icon": null }, "geometry": { "type": "Point", "coordinates": [ -71.7127655, 42.2973657, 0.0 ] } },
{ "type": "Feature", "properties": { "Name": "Solomon Pond Mall", "description": "Required origin/destination point for Westborough/Northborough service zone. Solomon Pond Mall allows passengers to connect to MWRTA (Framingham) services.", "timestamp": null, "begin": null, "end": null, "altitudeMode": null, "tessellate": -1, "extrude": 0, "visibility": -1, "drawOrder": null, "icon": null }, "geometry": { "type": "Point", "coordinates": [ -71.6125994, 42.3565221, 0.0 ] } },
{ "type": "Feature", "properties": { "Name": "Northborough Senior Center", "description": "Required origin/destination point for Westborough/Northborough service zone. Northborough Senior Center property only.", "timestamp": null, "begin": null, "end": null, "altitudeMode": null, "tessellate": -1, "extrude": 0, "visibility": -1, "drawOrder": null, "icon": null }, "geometry": { "type": "Point", "coordinates": [ -71.6357706, 42.3405458, 0.0 ] } },
{ "type": "Feature", "properties": { "Name": "Southborough MBTA Station", "description": "Required origin/destination point for Westborough/Northborough service zone. Southborough MBTA Station property only.", "timestamp": null, "begin": null, "end": null, "altitudeMode": null, "tessellate": -1, "extrude": 0, "visibility": -1, "drawOrder": null, "icon": null }, "geometry": { "type": "Point", "coordinates": [ -71.5240024, 42.2670721, 0.0 ] } }
]
}
