{
"type": "FeatureCollection",
"name": "Via_Microtransit_Service_Areas_251030",
"crs": { "type": "name", "properties": { "name": "urn:ogc:def:crs:OGC:1.3:CRS84" } },
"features": [
{ "type": "Feature", "properties": { "Name": "Service Zone - Westborough/Northborough", "description": "Required pre-defined service zone of Westborough and Northborough.", "timestamp": null, "begin": null, "end": null, "altitudeMode": null, "tessellate": -1, "extrude": 0, "visibility": -1, "drawOrder": null, "icon": null }, "geometry": { "type": "Polygon", "coordinates": [ [ [ -71.677291, 42.273326, 0.0 ], [ -71.677928, 42.270446, 0.0 ], [ -71.668382, 42.2648, 0.0 ], [ -71.650396, 42.248651, 0.0 ], [ -71.653395, 42.245355, 0.0 ], [ -71.649376, 42.241749, 0.0 ], [ -71.635984, 42.244348, 0.0 ], [ -71.634629, 42.241694, 0.0 ], [ -71.627592, 42.242506, 0.0 ], [ -71.629622, 42.247553, 0.0 ], [ -71.624692, 42.249815, 0.0 ], [ -71.623793, 42.247788, 0.0 ], [ -71.614175, 42.24885, 0.0 ], [ -71.606816, 42.244956, 0.0 ], [ -71.604919, 42.24681, 0.0 ], [ -71.602456, 42.246814, 0.0 ], [ -71.602456, 42.245798, 0.0 ], [ -71.599414, 42.246426, 0.0 ], [ -71.596448, 42.246687, 0.0 ], [ -71.594217, 42.245925, 0.0 ], [ -71.592991, 42.248224, 0.0 ], [ -71.592558, 42.248953, 0.0 ], [ -71.590605, 42.249629, 0.0 ], [ -71.589869, 42.251285, 0.0 ], [ -71.591255, 42.252882, 0.0 ], [ -71.591687, 42.255054, 0.0 ], [ -71.592382, 42.256145, 0.0 ], [ -71.594302, 42.256948, 0.0 ], [ -71.595337, 42.257142, 0.0 ], [ -71.596491, 42.257265, 0.0 ], [ -71.597474, 42.25745, 0.0 ], [ -71.597431, 42.258102, 0.0 ], [ -71.597174, 42.258579, 0.0 ], [ -71.597711, 42.259255, 0.0 ], [ -71.598591, 42.260839, 0.0 ], [ -71.600094, 42.259566, 0.0 ], [ -71.600396, 42.258568, 0.0 ], [ -71.600417, 42.257938, 0.0 ], [ -71.603658, 42.258186, 0.0 ], [ -71.60682, 42.258173, 0.0 ], [ -71.609455, 42.259678, 0.0 ], [ -71.609761, 42.260533, 0.0 ], [ -71.608353, 42.261734, 0.0 ], [ -71.607771, 42.262804, 0.0 ], [ -71.603859, 42.26291, 0.0 ], [ -71.60389, 42.263599, 0.0 ], [ -71.604938, 42.263674, 0.0 ], [ -71.605074, 42.26492, 0.0 ], [ -71.605259, 42.265427, 0.0 ], [ -71.606903, 42.265712, 0.0 ], [ -71.607703, 42.268949, 0.0 ], [ -71.606769, 42.269095, 0.0 ], [ -71.600225, 42.269112, 0.0 ], [ -71.58911, 42.269135, 0.0 ], [ -71.566665, 42.268763, 0.0 ], [ -71.564777, 42.268635, 0.0 ], [ -71.543468, 42.266928, 0.0 ], [ -71.542961, 42.269577, 0.0 ], [ -71.56634, 42.294501, 0.0 ], [ -71.565635, 42.302861, 0.0 ], [ -71.566885, 42.309148, 0.0 ], [ -71.567673, 42.310604, 0.0 ], [ -71.571559, 42.310821, 0.0 ], [ -71.573879, 42.306161, 0.0 ], [ -71.574795, 42.302828, 0.0 ], [ -71.57924, 42.300894, 0.0 ], [ -71.58147, 42.302241, 0.0 ], [ -71.585929, 42.302329, 0.0 ], [ -71.588704, 42.299742, 0.0 ], [ -71.600548, 42.29447, 0.0 ], [ -71.60408, 42.304919, 0.0 ], [ -71.602818, 42.312143, 0.0 ], [ -71.607452, 42.31338, 0.0 ], [ -71.605439, 42.316164, 0.0 ], [ -71.600077, 42.314597, 0.0 ], [ -71.59923, 42.320564, 0.0 ], [ -71.602296, 42.322404, 0.0 ], [ -71.605262, 42.321601, 0.0 ], [ -71.612354, 42.33086, 0.0 ], [ -71.621561, 42.327644, 0.0 ], [ -71.621015, 42.33187, 0.0 ], [ -71.625355, 42.331944, 0.0 ], [ -71.630675, 42.329436, 0.0 ], [ -71.643072, 42.323945, 0.0 ], [ -71.658167, 42.321077, 0.0 ], [ -71.657635, 42.313994, 0.0 ], [ -71.655937, 42.31261, 0.0 ], [ -71.658896, 42.308098, 0.0 ], [ -71.65872, 42.302906, 0.0 ], [ -71.661686, 42.297741, 0.0 ], [ -71.663558, 42.292664, 0.0 ], [ -71.667349, 42.294699, 0.0 ], [ -71.669152, 42.294341, 0.0 ], [ -71.670032, 42.293719, 0.0 ], [ -71.673749, 42.293889, 0.0 ], [ -71.674297, 42.293758, 0.0 ], [ -71.676753, 42.286625, 0.0 ], [ -71.673799, 42.281734, 0.0 ], [ -71.677882, 42.281554, 0.0 ], [ -71.677291, 42.273326, 0.0 ] ] ] } },
{ "type": "Feature", "properties": { "Name": "Service Zone - Shrewsbury/Northborough", "description": "Required pre-defined service zone of Shrewsbury and Northborough.", "timestamp": null, "begin": null, "end": null, "altitudeMode": null, "tessellate": -1, "extrude": 0, "visibility": -1, "drawOrder": null, "icon": null }, "geometry": { "type": "Polygon", "coordinates": [ [ [ -71.75472, 42.273113, 0.0 ], [ -71.752666, 42.269908, 0.0 ], [ -71.752478, 42.265483, 0.0 ], [ -71.750175, 42.259189, 0.0 ], [ -71.745467, 42.256947, 0.0 ], [ -71.738238, 42.251145, 0.0 ], [ -71.73155, 42.249672, 0.0 ], [ -71.729352, 42.245078, 0.0 ], [ -71.724918, 42.24251, 0.0 ], [ -71.710999, 42.245169, 0.0 ], [ -71.692562, 42.254026, 0.0 ], [ -71.686923, 42.245687, 0.0 ], [ -71.683386, 42.248104, 0.0 ], [ -71.670565, 42.261094, 0.0 ], [ -71.666605, 42.263197, 0.0 ], [ -71.670626, 42.266313, 0.0 ], [ -71.677906, 42.27047, 0.0 ], [ -71.677231, 42.273407, 0.0 ], [ -71.664278, 42.283262, 0.0 ], [ -71.657346, 42.282331, 0.0 ], [ -71.653556, 42.282652, 0.0 ], [ -71.655324, 42.286274, 0.0 ], [ -71.660474, 42.285928, 0.0 ], [ -71.663654, 42.287139, 0.0 ], [ -71.661444, 42.291618, 0.0 ], [ -71.663558, 42.292664, 0.0 ], [ -71.667349, 42.294699, 0.0 ], [ -71.669152, 42.294341, 0.0 ], [ -71.670032, 42.293719, 0.0 ], [ -71.673749, 42.293889, 0.0 ], [ -71.674381, 42.29383, 0.0 ], [ -71.676284, 42.288711, 0.0 ], [ -71.67676, 42.286608, 0.0 ], [ -71.673633, 42.281717, 0.0 ], [ -71.691698, 42.281111, 0.0 ], [ -71.712378, 42.279714, 0.0 ], [ -71.72602, 42.277084, 0.0 ], [ -71.736636, 42.278011, 0.0 ], [ -71.743612, 42.277418, 0.0 ], [ -71.753974, 42.276459, 0.0 ], [ -71.75472, 42.273113, 0.0 ] ] ] } }
]
}
