{
"type": "FeatureCollection",
"name": "Via_WRTA_Fixed_Routes_251030",
"crs": { "type": "name", "properties": { "name": "urn:ogc:def:crs:OGC:1.3:CRS84" } },
"features": [
{ "type": "Feature", "properties": { "Name": "15_Out1", "description": "15_Out1    <br>       <br>   DateActive   6/1/2010    <br>   BusRoute   15    <br>   TripType   OUT    <br>   Town   <Null>    <br>   ArrowRoute   <Null>    <br>   Bus_Route   15    <br>   Rte_Name   15_Out1    <br>   LASTEDITED   20230526    <br>   EDITMETHOD   <Null>    <br>   RTE_TYPE   WEEK_SAT    <br>   ADA_RTE   Rte15NW    <br>   rWEEK   Y    <br>   rSAT   Y    <br>   rSUN   N    <br>   ADA_WK   Y    <br>   ADA_Sat   Y    <br>   ADA_Sun   N    <br>   ADA_Mid   N    <br>   SYSTEM_MAP   Y    <br>   Gis_Miles   6.50991", "timestamp": null, "begin": null, "end": null, "altitudeMode": null, "tessellate": 1, "extrude": 0, "visibility": -1, "drawOrder": null, "icon": null }, "geometry": { "type": "MultiLineString", "coordinates": [ [ [ -71.713662, 42.296645, 0.0 ], [ -71.713686, 42.296643, 0.0 ], [ -71.71374, 42.296636, 0.0 ], [ -71.713795, 42.29663, 0.0 ], [ -71.713861, 42.296623, 0.0 ], [ -71.713927, 42.296617, 0.0 ], [ -71.713993, 42.296611, 0.0 ], [ -71.714051, 42.296606, 0.0 ], [ -71.714109, 42.296603, 0.0 ], [ -71.714168, 42.296598, 0.0 ], [ -71.714229, 42.296591, 0.0 ], [ -71.71429, 42.296584, 0.0 ], [ -71.714351, 42.296576, 0.0 ], [ -71.714409, 42.296567, 0.0 ], [ -71.714466, 42.296558, 0.0 ], [ -71.714524, 42.296549, 0.0 ], [ -71.714591, 42.296538, 0.0 ], [ -71.714658, 42.296526, 0.0 ], [ -71.714725, 42.296514, 0.0 ], [ -71.714786, 42.296502, 0.0 ], [ -71.714846, 42.29649, 0.0 ], [ -71.714906, 42.296476, 0.0 ], [ -71.714976, 42.296462, 0.0 ], [ -71.715046, 42.296448, 0.0 ], [ -71.715116, 42.296433, 0.0 ], [ -71.715188, 42.296416, 0.0 ], [ -71.715226, 42.296407, 0.0 ], [ -71.71526, 42.296399, 0.0 ], [ -71.715331, 42.296378, 0.0 ], [ -71.715386, 42.29636, 0.0 ], [ -71.71544, 42.29634, 0.0 ], [ -71.715493, 42.296318, 0.0 ], [ -71.71554, 42.296297, 0.0 ], [ -71.715563, 42.296286, 0.0 ], [ -71.715586, 42.296275, 0.0 ], [ -71.715632, 42.296252, 0.0 ], [ -71.715678, 42.29623, 0.0 ], [ -71.715724, 42.296207, 0.0 ], [ -71.715767, 42.296182, 0.0 ], [ -71.715808, 42.29615, 0.0 ], [ -71.715847, 42.296114, 0.0 ], [ -71.715885, 42.296078, 0.0 ], [ -71.715924, 42.296045, 0.0 ], [ -71.715962, 42.296013, 0.0 ], [ -71.716, 42.29598, 0.0 ], [ -71.716049, 42.295934, 0.0 ], [ -71.716097, 42.295887, 0.0 ], [ -71.716145, 42.29584, 0.0 ], [ -71.716448, 42.295554, 0.0 ], [ -71.716746, 42.295273, 0.0 ], [ -71.717487, 42.294596, 0.0 ], [ -71.71798, 42.294141, 0.0 ], [ -71.71829, 42.293854, 0.0 ], [ -71.718849, 42.293337, 0.0 ], [ -71.719093, 42.29311, 0.0 ], [ -71.719497, 42.292742, 0.0 ], [ -71.719713, 42.292545, 0.0 ], [ -71.72017, 42.29213, 0.0 ], [ -71.720345, 42.291971, 0.0 ], [ -71.720592, 42.291747, 0.0 ], [ -71.721021, 42.291358, 0.0 ], [ -71.721104, 42.291281, 0.0 ], [ -71.721568, 42.290856, 0.0 ], [ -71.721747, 42.290692, 0.0 ], [ -71.721846, 42.290601, 0.0 ], [ -71.722415, 42.290092, 0.0 ], [ -71.722645, 42.289886, 0.0 ], [ -71.722971, 42.289577, 0.0 ], [ -71.723277, 42.289286, 0.0 ], [ -71.723534, 42.289053, 0.0 ], [ -71.723767, 42.288843, 0.0 ], [ -71.723808, 42.288804, 0.0 ], [ -71.723848, 42.288765, 0.0 ], [ -71.723889, 42.288727, 0.0 ], [ -71.723913, 42.288705, 0.0 ], [ -71.723943, 42.288677, 0.0 ], [ -71.723998, 42.288628, 0.0 ], [ -71.724054, 42.28858, 0.0 ], [ -71.724112, 42.288532, 0.0 ], [ -71.724172, 42.288484, 0.0 ], [ -71.72423, 42.288436, 0.0 ], [ -71.724287, 42.288383, 0.0 ], [ -71.724343, 42.28833, 0.0 ], [ -71.724399, 42.288277, 0.0 ], [ -71.724459, 42.288224, 0.0 ], [ -71.72452, 42.288173, 0.0 ], [ -71.72458, 42.288121, 0.0 ], [ -71.724639, 42.288069, 0.0 ], [ -71.724699, 42.288017, 0.0 ], [ -71.724756, 42.287966, 0.0 ], [ -71.72481, 42.287914, 0.0 ], [ -71.724862, 42.287862, 0.0 ], [ -71.724867, 42.287858, 0.0 ], [ -71.724914, 42.287811, 0.0 ], [ -71.724937, 42.28779, 0.0 ], [ -71.72496, 42.287768, 0.0 ], [ -71.725006, 42.287725, 0.0 ], [ -71.725053, 42.287683, 0.0 ], [ -71.725106, 42.287633, 0.0 ], [ -71.725159, 42.287585, 0.0 ], [ -71.725213, 42.287537, 0.0 ], [ -71.725259, 42.287497, 0.0 ], [ -71.725307, 42.287458, 0.0 ], [ -71.725354, 42.287418, 0.0 ], [ -71.7254, 42.287379, 0.0 ], [ -71.725446, 42.28734, 0.0 ], [ -71.725492, 42.287301, 0.0 ], [ -71.725536, 42.287263, 0.0 ], [ -71.725579, 42.287225, 0.0 ], [ -71.725623, 42.287187, 0.0 ], [ -71.725661, 42.287157, 0.0 ], [ -71.725699, 42.287128, 0.0 ], [ -71.725738, 42.287099, 0.0 ], [ -71.725788, 42.287063, 0.0 ], [ -71.72584, 42.287028, 0.0 ], [ -71.725891, 42.286993, 0.0 ], [ -71.72596, 42.286944, 0.0 ], [ -71.725994, 42.286921, 0.0 ], [ -71.726029, 42.286895, 0.0 ], [ -71.726098, 42.286847, 0.0 ], [ -71.726156, 42.286804, 0.0 ], [ -71.726213, 42.286761, 0.0 ], [ -71.726272, 42.28672, 0.0 ], [ -71.726326, 42.286686, 0.0 ], [ -71.726381, 42.286652, 0.0 ], [ -71.726435, 42.286618, 0.0 ], [ -71.72649, 42.286577, 0.0 ], [ -71.726544, 42.286535, 0.0 ], [ -71.726599, 42.286494, 0.0 ], [ -71.72665, 42.28646, 0.0 ], [ -71.726701, 42.286426, 0.0 ], [ -71.726753, 42.286392, 0.0 ], [ -71.726819, 42.286345, 0.0 ], [ -71.726884, 42.286298, 0.0 ], [ -71.726951, 42.286252, 0.0 ], [ -71.727037, 42.286199, 0.0 ], [ -71.727125, 42.286148, 0.0 ], [ -71.727213, 42.286097, 0.0 ], [ -71.727596, 42.28588, 0.0 ], [ -71.727826, 42.28575, 0.0 ], [ -71.728018, 42.285641, 0.0 ], [ -71.728924, 42.285128, 0.0 ], [ -71.729091, 42.285032, 0.0 ], [ -71.729258, 42.284936, 0.0 ], [ -71.729378, 42.28487, 0.0 ], [ -71.729427, 42.284843, 0.0 ], [ -71.729552, 42.284778, 0.0 ], [ -71.729679, 42.284715, 0.0 ], [ -71.729804, 42.28465, 0.0 ], [ -71.729957, 42.284563, 0.0 ], [ -71.730108, 42.284475, 0.0 ], [ -71.730261, 42.284389, 0.0 ], [ -71.730365, 42.284333, 0.0 ], [ -71.730392, 42.284318, 0.0 ], [ -71.730525, 42.284249, 0.0 ], [ -71.730657, 42.284179, 0.0 ], [ -71.730766, 42.28412, 0.0 ], [ -71.730874, 42.284061, 0.0 ], [ -71.730919, 42.284037, 0.0 ], [ -71.730982, 42.284002, 0.0 ], [ -71.731137, 42.28391, 0.0 ], [ -71.73129, 42.283816, 0.0 ], [ -71.731442, 42.283721, 0.0 ], [ -71.731603, 42.283618, 0.0 ], [ -71.731762, 42.283514, 0.0 ], [ -71.731919, 42.283407, 0.0 ], [ -71.732027, 42.28333, 0.0 ], [ -71.732134, 42.283251, 0.0 ], [ -71.73224, 42.283172, 0.0 ], [ -71.732366, 42.283081, 0.0 ], [ -71.732491, 42.282989, 0.0 ], [ -71.732614, 42.282895, 0.0 ], [ -71.732701, 42.282828, 0.0 ], [ -71.732786, 42.282759, 0.0 ], [ -71.732863, 42.282686, 0.0 ], [ -71.732885, 42.28266, 0.0 ], [ -71.732907, 42.282633, 0.0 ], [ -71.732929, 42.282607, 0.0 ], [ -71.733007, 42.28252, 0.0 ], [ -71.733087, 42.282435, 0.0 ], [ -71.733165, 42.282348, 0.0 ], [ -71.733232, 42.282267, 0.0 ], [ -71.733297, 42.282183, 0.0 ], [ -71.73336, 42.282099, 0.0 ], [ -71.733428, 42.282004, 0.0 ], [ -71.733493, 42.281907, 0.0 ], [ -71.73356, 42.28181, 0.0 ], [ -71.733616, 42.281736, 0.0 ], [ -71.733673, 42.281663, 0.0 ], [ -71.733727, 42.281588, 0.0 ], [ -71.73378, 42.281509, 0.0 ], [ -71.73383, 42.281429, 0.0 ], [ -71.733878, 42.281348, 0.0 ], [ -71.733929, 42.281263, 0.0 ], [ -71.733978, 42.281177, 0.0 ], [ -71.734023, 42.281091, 0.0 ], [ -71.734068, 42.280997, 0.0 ], [ -71.73411, 42.280903, 0.0 ], [ -71.734145, 42.280807, 0.0 ], [ -71.734175, 42.280711, 0.0 ], [ -71.734198, 42.280614, 0.0 ], [ -71.734217, 42.280517, 0.0 ], [ -71.734228, 42.280433, 0.0 ], [ -71.734236, 42.280348, 0.0 ], [ -71.734242, 42.280264, 0.0 ], [ -71.734248, 42.280175, 0.0 ], [ -71.734253, 42.280086, 0.0 ], [ -71.734258, 42.279998, 0.0 ], [ -71.734267, 42.279868, 0.0 ], [ -71.734276, 42.279737, 0.0 ], [ -71.734284, 42.279606, 0.0 ], [ -71.734289, 42.279518, 0.0 ], [ -71.734294, 42.279429, 0.0 ], [ -71.734299, 42.27934, 0.0 ], [ -71.734305, 42.279231, 0.0 ], [ -71.734312, 42.279121, 0.0 ], [ -71.734324, 42.279012, 0.0 ], [ -71.73435, 42.278869, 0.0 ], [ -71.734385, 42.278728, 0.0 ], [ -71.734415, 42.278632, 0.0 ], [ -71.734417, 42.278626, 0.0 ], [ -71.734429, 42.278588, 0.0 ], [ -71.734477, 42.278464, 0.0 ], [ -71.734532, 42.27834, 0.0 ], [ -71.734595, 42.27822, 0.0 ], [ -71.734627, 42.278166, 0.0 ], [ -71.73466, 42.278113, 0.0 ], [ -71.734695, 42.27806, 0.0 ], [ -71.734754, 42.277977, 0.0 ], [ -71.734817, 42.277895, 0.0 ], [ -71.734883, 42.277815, 0.0 ], [ -71.73496, 42.277731, 0.0 ], [ -71.735042, 42.27765, 0.0 ], [ -71.735127, 42.277571, 0.0 ], [ -71.73517, 42.277532, 0.0 ], [ -71.735204, 42.277502, 0.0 ], [ -71.735283, 42.277436, 0.0 ], [ -71.735364, 42.27737, 0.0 ], [ -71.735475, 42.277279, 0.0 ], [ -71.735587, 42.277189, 0.0 ], [ -71.735698, 42.277099, 0.0 ], [ -71.735805, 42.277008, 0.0 ], [ -71.735911, 42.276915, 0.0 ], [ -71.736021, 42.276827, 0.0 ], [ -71.736161, 42.27673, 0.0 ], [ -71.736305, 42.276637, 0.0 ], [ -71.73645, 42.276544, 0.0 ], [ -71.736563, 42.276469, 0.0 ], [ -71.736676, 42.276394, 0.0 ], [ -71.736916, 42.276248, 0.0 ], [ -71.737057, 42.276147, 0.0 ], [ -71.737145, 42.276071, 0.0 ], [ -71.737226, 42.275991, 0.0 ], [ -71.73731, 42.275914, 0.0 ], [ -71.737377, 42.275858, 0.0 ], [ -71.737447, 42.275804, 0.0 ], [ -71.73752, 42.275754, 0.0 ], [ -71.737577, 42.27572, 0.0 ], [ -71.737636, 42.275687, 0.0 ], [ -71.737698, 42.275658, 0.0 ], [ -71.737775, 42.27563, 0.0 ], [ -71.737856, 42.275606, 0.0 ], [ -71.737937, 42.275582, 0.0 ], [ -71.738234, 42.275559, 0.0 ], [ -71.738532, 42.275538, 0.0 ], [ -71.73883, 42.275519, 0.0 ], [ -71.738988, 42.275508, 0.0 ], [ -71.739146, 42.275497, 0.0 ], [ -71.739303, 42.275486, 0.0 ], [ -71.739437, 42.275474, 0.0 ], [ -71.739571, 42.275463, 0.0 ], [ -71.739705, 42.275451, 0.0 ], [ -71.739874, 42.275437, 0.0 ], [ -71.740043, 42.275423, 0.0 ], [ -71.740213, 42.275411, 0.0 ], [ -71.740337, 42.275402, 0.0 ], [ -71.740461, 42.275394, 0.0 ], [ -71.740585, 42.275386, 0.0 ], [ -71.740798, 42.275369, 0.0 ], [ -71.74101, 42.275353, 0.0 ], [ -71.741222, 42.275336, 0.0 ], [ -71.741307, 42.27533, 0.0 ], [ -71.741392, 42.275324, 0.0 ], [ -71.741477, 42.275318, 0.0 ], [ -71.741646, 42.275307, 0.0 ], [ -71.741814, 42.275296, 0.0 ], [ -71.741983, 42.275285, 0.0 ], [ -71.742149, 42.275273, 0.0 ], [ -71.742315, 42.27526, 0.0 ], [ -71.742482, 42.275248, 0.0 ], [ -71.742626, 42.275238, 0.0 ], [ -71.742771, 42.275229, 0.0 ], [ -71.742915, 42.27522, 0.0 ], [ -71.743099, 42.275208, 0.0 ], [ -71.743284, 42.275195, 0.0 ], [ -71.743468, 42.275182, 0.0 ], [ -71.743813, 42.275154, 0.0 ], [ -71.744158, 42.275124, 0.0 ], [ -71.744487, 42.275099, 0.0 ], [ -71.744503, 42.275098, 0.0 ], [ -71.744629, 42.27509, 0.0 ], [ -71.744906, 42.275073, 0.0 ], [ -71.745108, 42.27506, 0.0 ], [ -71.745291, 42.275048, 0.0 ], [ -71.745475, 42.275035, 0.0 ], [ -71.745659, 42.275023, 0.0 ], [ -71.745905, 42.275005, 0.0 ], [ -71.746114, 42.274991, 0.0 ], [ -71.746152, 42.274988, 0.0 ], [ -71.746398, 42.274973, 0.0 ], [ -71.746576, 42.274963, 0.0 ], [ -71.746754, 42.274953, 0.0 ], [ -71.746932, 42.274942, 0.0 ], [ -71.747064, 42.27493, 0.0 ], [ -71.747196, 42.274918, 0.0 ], [ -71.747329, 42.274905, 0.0 ], [ -71.747528, 42.274889, 0.0 ], [ -71.747726, 42.274875, 0.0 ], [ -71.747926, 42.274861, 0.0 ], [ -71.748062, 42.274851, 0.0 ], [ -71.748065, 42.274851, 0.0 ], [ -71.748136, 42.274846, 0.0 ], [ -71.748347, 42.27483, 0.0 ], [ -71.748402, 42.274826, 0.0 ], [ -71.748557, 42.274813, 0.0 ], [ -71.748718, 42.274798, 0.0 ], [ -71.74888, 42.274782, 0.0 ], [ -71.749041, 42.274767, 0.0 ], [ -71.749264, 42.274748, 0.0 ], [ -71.749487, 42.27473, 0.0 ], [ -71.749709, 42.274708, 0.0 ], [ -71.749849, 42.274689, 0.0 ], [ -71.749989, 42.274668, 0.0 ], [ -71.750128, 42.274648, 0.0 ], [ -71.750314, 42.274625, 0.0 ], [ -71.750501, 42.274604, 0.0 ], [ -71.751396, 42.274459, 0.0 ], [ -71.751931, 42.274415, 0.0 ], [ -71.752379, 42.274382, 0.0 ], [ -71.753384, 42.274326, 0.0 ], [ -71.754067, 42.274296, 0.0 ], [ -71.754841, 42.274227, 0.0 ], [ -71.755808, 42.274174, 0.0 ], [ -71.757064, 42.274096, 0.0 ], [ -71.758117, 42.274069, 0.0 ], [ -71.758951, 42.274032, 0.0 ], [ -71.75891, 42.27416, 0.0 ], [ -71.758947, 42.274227, 0.0 ], [ -71.758952, 42.274306, 0.0 ], [ -71.758915, 42.274379, 0.0 ], [ -71.758869, 42.274481, 0.0 ], [ -71.758816, 42.274578, 0.0 ], [ -71.758767, 42.27468, 0.0 ], [ -71.758704, 42.274813, 0.0 ], [ -71.758654, 42.274941, 0.0 ], [ -71.75862, 42.275073, 0.0 ], [ -71.758605, 42.275157, 0.0 ], [ -71.758585, 42.275242, 0.0 ], [ -71.758576, 42.275333, 0.0 ], [ -71.758571, 42.275445, 0.0 ], [ -71.758567, 42.27553, 0.0 ], [ -71.758569, 42.275629, 0.0 ], [ -71.758587, 42.275764, 0.0 ], [ -71.758607, 42.275891, 0.0 ], [ -71.75864, 42.276004, 0.0 ], [ -71.758672, 42.276101, 0.0 ], [ -71.758709, 42.276195, 0.0 ], [ -71.75875, 42.276269, 0.0 ], [ -71.758808, 42.276381, 0.0 ], [ -71.758867, 42.276481, 0.0 ], [ -71.758929, 42.276581, 0.0 ], [ -71.758989, 42.276681, 0.0 ], [ -71.759109, 42.276823, 0.0 ], [ -71.759182, 42.276882, 0.0 ], [ -71.759293, 42.276956, 0.0 ], [ -71.759463, 42.276998, 0.0 ], [ -71.759575, 42.276989, 0.0 ], [ -71.759671, 42.27695, 0.0 ], [ -71.759857, 42.276829, 0.0 ], [ -71.760342, 42.276418, 0.0 ], [ -71.76076, 42.276064, 0.0 ], [ -71.760832, 42.276009, 0.0 ], [ -71.760871, 42.27598, 0.0 ], [ -71.760905, 42.275955, 0.0 ], [ -71.760982, 42.275904, 0.0 ], [ -71.761076, 42.275854, 0.0 ], [ -71.761176, 42.275809, 0.0 ], [ -71.761282, 42.275777, 0.0 ], [ -71.761352, 42.275765, 0.0 ], [ -71.761424, 42.275758, 0.0 ], [ -71.761497, 42.275754, 0.0 ], [ -71.761611, 42.275753, 0.0 ], [ -71.761726, 42.275759, 0.0 ], [ -71.761841, 42.275766, 0.0 ], [ -71.762647, 42.275871, 0.0 ], [ -71.763583, 42.275986, 0.0 ], [ -71.764411, 42.276099, 0.0 ], [ -71.765327, 42.276215, 0.0 ], [ -71.765706, 42.276274, 0.0 ], [ -71.765745, 42.276167, 0.0 ], [ -71.765791, 42.276062, 0.0 ], [ -71.765841, 42.275957, 0.0 ], [ -71.76591, 42.275817, 0.0 ], [ -71.765984, 42.275679, 0.0 ], [ -71.766068, 42.275543, 0.0 ], [ -71.766145, 42.275436, 0.0 ], [ -71.766152, 42.275426, 0.0 ], [ -71.766228, 42.27533, 0.0 ], [ -71.766314, 42.275227, 0.0 ], [ -71.766402, 42.275129, 0.0 ], [ -71.766494, 42.275032, 0.0 ], [ -71.766587, 42.274937, 0.0 ], [ -71.766692, 42.274827, 0.0 ], [ -71.766798, 42.274717, 0.0 ], [ -71.766905, 42.274608, 0.0 ], [ -71.767015, 42.274494, 0.0 ], [ -71.767125, 42.274381, 0.0 ], [ -71.767237, 42.274268, 0.0 ], [ -71.767332, 42.274176, 0.0 ], [ -71.767428, 42.274086, 0.0 ], [ -71.767508, 42.274005, 0.0 ], [ -71.767762, 42.273819, 0.0 ], [ -71.7679, 42.273692, 0.0 ], [ -71.767968, 42.273692, 0.0 ], [ -71.768186, 42.273687, 0.0 ], [ -71.768405, 42.273678, 0.0 ], [ -71.768623, 42.273669, 0.0 ], [ -71.768781, 42.273663, 0.0 ], [ -71.768938, 42.273657, 0.0 ], [ -71.769096, 42.27365, 0.0 ], [ -71.769242, 42.273643, 0.0 ], [ -71.769388, 42.273635, 0.0 ], [ -71.769534, 42.273627, 0.0 ], [ -71.76981, 42.273615, 0.0 ], [ -71.770257, 42.273482, 0.0 ], [ -71.770385, 42.273432, 0.0 ], [ -71.77051, 42.273377, 0.0 ], [ -71.77062, 42.273322, 0.0 ], [ -71.77591, 42.270819, 0.0 ], [ -71.776552, 42.270495, 0.0 ], [ -71.777967, 42.269762, 0.0 ], [ -71.778842, 42.269309, 0.0 ], [ -71.780193, 42.268601, 0.0 ], [ -71.781857, 42.267757, 0.0 ], [ -71.782291, 42.267521, 0.0 ], [ -71.783212, 42.267047, 0.0 ], [ -71.785126, 42.266037, 0.0 ], [ -71.785652, 42.265789, 0.0 ], [ -71.78629, 42.265456, 0.0 ], [ -71.787123, 42.265027, 0.0 ], [ -71.787796, 42.264667, 0.0 ], [ -71.788197, 42.264473, 0.0 ], [ -71.788884, 42.264121, 0.0 ], [ -71.789909, 42.263597, 0.0 ], [ -71.79031, 42.263382, 0.0 ], [ -71.79089, 42.263078, 0.0 ], [ -71.791224, 42.262906, 0.0 ], [ -71.79162, 42.262771, 0.0 ], [ -71.792511, 42.262501, 0.0 ], [ -71.793201, 42.26229, 0.0 ], [ -71.793371, 42.262238, 0.0 ], [ -71.793451, 42.262213, 0.0 ], [ -71.793597, 42.262169, 0.0 ], [ -71.793627, 42.262149, 0.0 ], [ -71.793627, 42.262159, 0.0 ], [ -71.793882, 42.262081, 0.0 ], [ -71.793947, 42.262062, 0.0 ], [ -71.794076, 42.262, 0.0 ], [ -71.794246, 42.261862, 0.0 ], [ -71.794287, 42.261835, 0.0 ], [ -71.794349, 42.261798, 0.0 ], [ -71.794402, 42.26178, 0.0 ], [ -71.794489, 42.261761, 0.0 ], [ -71.794582, 42.261759, 0.0 ], [ -71.794664, 42.261779, 0.0 ], [ -71.794716, 42.261806, 0.0 ], [ -71.794899, 42.261806, 0.0 ], [ -71.795026, 42.261792, 0.0 ], [ -71.795145, 42.261762, 0.0 ], [ -71.795205, 42.261748, 0.0 ], [ -71.795216, 42.261746, 0.0 ], [ -71.795321, 42.261723, 0.0 ], [ -71.795432, 42.261735, 0.0 ], [ -71.795614, 42.261751, 0.0 ], [ -71.795787, 42.261766, 0.0 ], [ -71.795803, 42.261768, 0.0 ], [ -71.795961, 42.261778, 0.0 ], [ -71.796012, 42.261609, 0.0 ], [ -71.796038, 42.261526, 0.0 ], [ -71.796042, 42.261513, 0.0 ], [ -71.796085, 42.261386, 0.0 ], [ -71.79612, 42.261287, 0.0 ], [ -71.796128, 42.261263, 0.0 ], [ -71.796189, 42.261084, 0.0 ], [ -71.796231, 42.261073, 0.0 ], [ -71.796285, 42.261071, 0.0 ], [ -71.79636, 42.261034, 0.0 ], [ -71.796546, 42.260943, 0.0 ], [ -71.796635, 42.2609, 0.0 ], [ -71.796846, 42.260796, 0.0 ], [ -71.796933, 42.260744, 0.0 ], [ -71.797024, 42.26069, 0.0 ], [ -71.797044, 42.260677, 0.0 ], [ -71.797102, 42.260643, 0.0 ], [ -71.797103, 42.260642, 0.0 ], [ -71.797135, 42.260572, 0.0 ], [ -71.797101, 42.260497, 0.0 ], [ -71.797029, 42.260461, 0.0 ], [ -71.79692, 42.260479, 0.0 ], [ -71.796553, 42.260662, 0.0 ] ], [ [ -71.703556, 42.292097, 0.0 ], [ -71.703683, 42.292163, 0.0 ], [ -71.703714, 42.292185, 0.0 ], [ -71.703744, 42.292207, 0.0 ], [ -71.703774, 42.29223, 0.0 ], [ -71.703802, 42.292251, 0.0 ], [ -71.703874, 42.292318, 0.0 ], [ -71.703917, 42.292377, 0.0 ], [ -71.703926, 42.292399, 0.0 ], [ -71.703933, 42.292422, 0.0 ], [ -71.703938, 42.29244, 0.0 ], [ -71.703943, 42.292459, 0.0 ], [ -71.703946, 42.292478, 0.0 ], [ -71.703949, 42.292518, 0.0 ], [ -71.703948, 42.292557, 0.0 ], [ -71.703947, 42.292596, 0.0 ], [ -71.703944, 42.292911, 0.0 ], [ -71.703931, 42.294145, 0.0 ], [ -71.703931, 42.294165, 0.0 ], [ -71.70393, 42.294184, 0.0 ], [ -71.703928, 42.294203, 0.0 ], [ -71.703918, 42.294232, 0.0 ], [ -71.703903, 42.29426, 0.0 ], [ -71.703885, 42.294287, 0.0 ], [ -71.703868, 42.294312, 0.0 ], [ -71.70385, 42.294335, 0.0 ], [ -71.703828, 42.294356, 0.0 ], [ -71.7038, 42.294374, 0.0 ], [ -71.703769, 42.29439, 0.0 ], [ -71.703736, 42.294403, 0.0 ], [ -71.703637, 42.29443, 0.0 ], [ -71.703133, 42.294526, 0.0 ], [ -71.703158, 42.294579, 0.0 ], [ -71.703178, 42.294621, 0.0 ], [ -71.703198, 42.294664, 0.0 ], [ -71.703217, 42.294707, 0.0 ], [ -71.703235, 42.294755, 0.0 ], [ -71.703251, 42.294802, 0.0 ], [ -71.703266, 42.29485, 0.0 ], [ -71.70328, 42.294897, 0.0 ], [ -71.703293, 42.294946, 0.0 ], [ -71.703306, 42.294994, 0.0 ], [ -71.70332, 42.295039, 0.0 ], [ -71.703334, 42.295085, 0.0 ], [ -71.703341, 42.295114, 0.0 ], [ -71.703366, 42.295233, 0.0 ], [ -71.703371, 42.295345, 0.0 ], [ -71.703346, 42.295409, 0.0 ], [ -71.703302, 42.295458, 0.0 ], [ -71.70325, 42.295493, 0.0 ], [ -71.703957, 42.295667, 0.0 ], [ -71.704457, 42.295796, 0.0 ], [ -71.704793, 42.295873, 0.0 ], [ -71.705136, 42.295952, 0.0 ], [ -71.70557, 42.296037, 0.0 ], [ -71.70564, 42.296051, 0.0 ], [ -71.705709, 42.296065, 0.0 ], [ -71.705779, 42.296078, 0.0 ], [ -71.705857, 42.296093, 0.0 ], [ -71.705935, 42.296107, 0.0 ], [ -71.706014, 42.296121, 0.0 ], [ -71.706081, 42.296132, 0.0 ], [ -71.706178, 42.296148, 0.0 ], [ -71.706216, 42.296154, 0.0 ], [ -71.706273, 42.296166, 0.0 ], [ -71.70633, 42.296179, 0.0 ], [ -71.706387, 42.296189, 0.0 ], [ -71.706467, 42.296199, 0.0 ], [ -71.706548, 42.296207, 0.0 ], [ -71.706628, 42.296213, 0.0 ], [ -71.707241, 42.296301, 0.0 ], [ -71.707606, 42.296354, 0.0 ], [ -71.707612, 42.296355, 0.0 ], [ -71.707923, 42.296396, 0.0 ], [ -71.707978, 42.296403, 0.0 ], [ -71.708033, 42.296411, 0.0 ], [ -71.708088, 42.296417, 0.0 ], [ -71.708152, 42.296423, 0.0 ], [ -71.708217, 42.296426, 0.0 ], [ -71.708281, 42.29643, 0.0 ], [ -71.708409, 42.29644, 0.0 ], [ -71.708528, 42.296447, 0.0 ], [ -71.70859, 42.296449, 0.0 ], [ -71.708653, 42.296452, 0.0 ], [ -71.709257, 42.296492, 0.0 ], [ -71.709768, 42.296529, 0.0 ], [ -71.710517, 42.296579, 0.0 ], [ -71.710986, 42.296601, 0.0 ], [ -71.711079, 42.296607, 0.0 ], [ -71.71133, 42.296622, 0.0 ], [ -71.711386, 42.296625, 0.0 ], [ -71.711442, 42.296629, 0.0 ], [ -71.711498, 42.296631, 0.0 ], [ -71.711571, 42.296636, 0.0 ], [ -71.711645, 42.296639, 0.0 ], [ -71.711719, 42.296643, 0.0 ], [ -71.711779, 42.296645, 0.0 ], [ -71.71184, 42.296648, 0.0 ], [ -71.7119, 42.29665, 0.0 ], [ -71.711974, 42.296654, 0.0 ], [ -71.712048, 42.296658, 0.0 ], [ -71.712123, 42.296662, 0.0 ], [ -71.712179, 42.296665, 0.0 ], [ -71.712236, 42.296667, 0.0 ], [ -71.712292, 42.296668, 0.0 ], [ -71.712351, 42.296669, 0.0 ], [ -71.71241, 42.29667, 0.0 ], [ -71.712468, 42.29667, 0.0 ], [ -71.712536, 42.29667, 0.0 ], [ -71.712603, 42.29667, 0.0 ], [ -71.71267, 42.296669, 0.0 ], [ -71.71274, 42.296667, 0.0 ], [ -71.712811, 42.296665, 0.0 ], [ -71.712881, 42.296663, 0.0 ], [ -71.712977, 42.296661, 0.0 ], [ -71.713072, 42.29666, 0.0 ], [ -71.713167, 42.296659, 0.0 ], [ -71.713229, 42.296659, 0.0 ], [ -71.71329, 42.296658, 0.0 ], [ -71.713351, 42.296658, 0.0 ], [ -71.713405, 42.296658, 0.0 ], [ -71.71346, 42.296658, 0.0 ], [ -71.713515, 42.296656, 0.0 ], [ -71.713554, 42.296654, 0.0 ], [ -71.713593, 42.296652, 0.0 ], [ -71.713632, 42.296649, 0.0 ], [ -71.713662, 42.296645, 0.0 ] ] ] } },
{ "type": "Feature", "properties": { "Name": "15_In1", "description": "15_In1    <br>       <br>   DateActive   6/23/2010    <br>   BusRoute   15    <br>   TripType   IN    <br>   Town   <Null>    <br>   ArrowRoute   <Null>    <br>   Bus_Route   15    <br>   Rte_Name   15_In1    <br>   LASTEDITED   20230526    <br>   EDITMETHOD   <Null>    <br>   RTE_TYPE   WEEK_SAT    <br>   ADA_RTE   Rte15NW    <br>   rWEEK   Y    <br>   rSAT   Y    <br>   rSUN   N    <br>   ADA_WK   Y    <br>   ADA_Sat   Y    <br>   ADA_Sun   N    <br>   ADA_Mid   N    <br>   SYSTEM_MAP   Y    <br>   Gis_Miles   7.148059", "timestamp": null, "begin": null, "end": null, "altitudeMode": null, "tessellate": 1, "extrude": 0, "visibility": -1, "drawOrder": null, "icon": null }, "geometry": { "type": "MultiLineString", "coordinates": [ [ [ -71.713662, 42.296645, 0.0 ], [ -71.713632, 42.296649, 0.0 ], [ -71.713593, 42.296652, 0.0 ], [ -71.713554, 42.296654, 0.0 ], [ -71.713515, 42.296656, 0.0 ], [ -71.71346, 42.296658, 0.0 ], [ -71.713405, 42.296658, 0.0 ], [ -71.713351, 42.296658, 0.0 ], [ -71.71329, 42.296658, 0.0 ], [ -71.713229, 42.296659, 0.0 ], [ -71.713167, 42.296659, 0.0 ], [ -71.713072, 42.29666, 0.0 ], [ -71.712977, 42.296661, 0.0 ], [ -71.712881, 42.296663, 0.0 ], [ -71.712811, 42.296665, 0.0 ], [ -71.71274, 42.296667, 0.0 ], [ -71.71267, 42.296669, 0.0 ], [ -71.712603, 42.29667, 0.0 ], [ -71.712536, 42.29667, 0.0 ], [ -71.712468, 42.29667, 0.0 ], [ -71.71241, 42.29667, 0.0 ], [ -71.712351, 42.296669, 0.0 ], [ -71.712292, 42.296668, 0.0 ], [ -71.712236, 42.296667, 0.0 ], [ -71.712179, 42.296665, 0.0 ], [ -71.712123, 42.296662, 0.0 ], [ -71.712048, 42.296658, 0.0 ], [ -71.711974, 42.296654, 0.0 ], [ -71.7119, 42.29665, 0.0 ], [ -71.71184, 42.296648, 0.0 ], [ -71.711779, 42.296645, 0.0 ], [ -71.711719, 42.296643, 0.0 ], [ -71.711645, 42.296639, 0.0 ], [ -71.711571, 42.296636, 0.0 ], [ -71.711498, 42.296631, 0.0 ], [ -71.711442, 42.296629, 0.0 ], [ -71.711386, 42.296625, 0.0 ], [ -71.71133, 42.296622, 0.0 ], [ -71.711079, 42.296607, 0.0 ], [ -71.710986, 42.296601, 0.0 ], [ -71.710517, 42.296579, 0.0 ], [ -71.709768, 42.296529, 0.0 ], [ -71.709257, 42.296492, 0.0 ], [ -71.708653, 42.296452, 0.0 ], [ -71.70859, 42.296449, 0.0 ], [ -71.708528, 42.296447, 0.0 ], [ -71.708409, 42.29644, 0.0 ], [ -71.708281, 42.29643, 0.0 ], [ -71.708217, 42.296426, 0.0 ], [ -71.708152, 42.296423, 0.0 ], [ -71.708088, 42.296417, 0.0 ], [ -71.708033, 42.296411, 0.0 ], [ -71.707978, 42.296403, 0.0 ], [ -71.707923, 42.296396, 0.0 ], [ -71.707612, 42.296355, 0.0 ], [ -71.707606, 42.296354, 0.0 ], [ -71.707241, 42.296301, 0.0 ], [ -71.706628, 42.296213, 0.0 ], [ -71.706548, 42.296207, 0.0 ], [ -71.706467, 42.296199, 0.0 ], [ -71.706387, 42.296189, 0.0 ], [ -71.70633, 42.296179, 0.0 ], [ -71.706273, 42.296166, 0.0 ], [ -71.706216, 42.296154, 0.0 ], [ -71.706178, 42.296148, 0.0 ], [ -71.706081, 42.296132, 0.0 ], [ -71.706014, 42.296121, 0.0 ], [ -71.705935, 42.296107, 0.0 ], [ -71.705857, 42.296093, 0.0 ], [ -71.705779, 42.296078, 0.0 ], [ -71.705709, 42.296065, 0.0 ], [ -71.70564, 42.296051, 0.0 ], [ -71.70557, 42.296037, 0.0 ], [ -71.705136, 42.295952, 0.0 ], [ -71.704793, 42.295873, 0.0 ], [ -71.704457, 42.295796, 0.0 ], [ -71.703957, 42.295667, 0.0 ], [ -71.70325, 42.295493, 0.0 ], [ -71.703302, 42.295458, 0.0 ], [ -71.703346, 42.295409, 0.0 ], [ -71.703371, 42.295345, 0.0 ], [ -71.703366, 42.295233, 0.0 ], [ -71.703341, 42.295114, 0.0 ], [ -71.703334, 42.295085, 0.0 ], [ -71.70332, 42.295039, 0.0 ], [ -71.703306, 42.294994, 0.0 ], [ -71.703293, 42.294946, 0.0 ], [ -71.70328, 42.294897, 0.0 ], [ -71.703266, 42.29485, 0.0 ], [ -71.703251, 42.294802, 0.0 ], [ -71.703235, 42.294755, 0.0 ], [ -71.703217, 42.294707, 0.0 ], [ -71.703198, 42.294664, 0.0 ], [ -71.703178, 42.294621, 0.0 ], [ -71.703158, 42.294579, 0.0 ], [ -71.703133, 42.294526, 0.0 ], [ -71.703107, 42.294473, 0.0 ], [ -71.70308, 42.294421, 0.0 ], [ -71.703057, 42.29438, 0.0 ], [ -71.703033, 42.29434, 0.0 ], [ -71.703009, 42.2943, 0.0 ], [ -71.702978, 42.294251, 0.0 ], [ -71.702946, 42.294204, 0.0 ], [ -71.702913, 42.294156, 0.0 ], [ -71.702885, 42.294115, 0.0 ], [ -71.702857, 42.294075, 0.0 ], [ -71.702828, 42.294036, 0.0 ], [ -71.702794, 42.293989, 0.0 ], [ -71.70276, 42.293944, 0.0 ], [ -71.702726, 42.293898, 0.0 ], [ -71.702692, 42.293854, 0.0 ], [ -71.702657, 42.29381, 0.0 ], [ -71.702622, 42.293766, 0.0 ], [ -71.702587, 42.293726, 0.0 ], [ -71.702552, 42.293686, 0.0 ], [ -71.702516, 42.293646, 0.0 ], [ -71.702474, 42.293602, 0.0 ], [ -71.702431, 42.29356, 0.0 ], [ -71.702389, 42.293516, 0.0 ], [ -71.702348, 42.293473, 0.0 ], [ -71.702308, 42.293428, 0.0 ], [ -71.702267, 42.293384, 0.0 ], [ -71.702224, 42.293339, 0.0 ], [ -71.702181, 42.293296, 0.0 ], [ -71.702138, 42.293252, 0.0 ], [ -71.702098, 42.29321, 0.0 ], [ -71.702058, 42.293166, 0.0 ], [ -71.70202, 42.293123, 0.0 ], [ -71.701979, 42.293074, 0.0 ], [ -71.701939, 42.293026, 0.0 ], [ -71.701901, 42.292977, 0.0 ], [ -71.701866, 42.292932, 0.0 ], [ -71.701832, 42.292886, 0.0 ], [ -71.7018, 42.29284, 0.0 ], [ -71.701771, 42.292796, 0.0 ], [ -71.701743, 42.29275, 0.0 ], [ -71.701716, 42.292705, 0.0 ], [ -71.70169, 42.292659, 0.0 ], [ -71.701665, 42.292613, 0.0 ], [ -71.701639, 42.292568, 0.0 ], [ -71.701612, 42.292518, 0.0 ], [ -71.701584, 42.292467, 0.0 ], [ -71.701557, 42.292417, 0.0 ], [ -71.701522, 42.292359, 0.0 ], [ -71.701488, 42.292301, 0.0 ], [ -71.701456, 42.292242, 0.0 ], [ -71.701434, 42.292191, 0.0 ], [ -71.701413, 42.29214, 0.0 ], [ -71.701392, 42.292089, 0.0 ], [ -71.701383, 42.29207, 0.0 ], [ -71.70136, 42.292025, 0.0 ], [ -71.701325, 42.291962, 0.0 ], [ -71.701295, 42.291897, 0.0 ], [ -71.701276, 42.291843, 0.0 ], [ -71.701259, 42.291789, 0.0 ], [ -71.701253, 42.291771, 0.0 ], [ -71.701251, 42.291764, 0.0 ], [ -71.701241, 42.291734, 0.0 ], [ -71.701218, 42.291675, 0.0 ], [ -71.701193, 42.291617, 0.0 ], [ -71.701169, 42.291558, 0.0 ], [ -71.701146, 42.291494, 0.0 ], [ -71.701124, 42.291429, 0.0 ], [ -71.701116, 42.291403, 0.0 ], [ -71.701856, 42.29137, 0.0 ], [ -71.701884, 42.29137, 0.0 ], [ -71.701913, 42.291368, 0.0 ], [ -71.701942, 42.291368, 0.0 ], [ -71.701979, 42.291371, 0.0 ], [ -71.702016, 42.291375, 0.0 ], [ -71.702052, 42.29138, 0.0 ], [ -71.702096, 42.291387, 0.0 ], [ -71.702139, 42.291395, 0.0 ], [ -71.70218, 42.291405, 0.0 ], [ -71.70221, 42.291414, 0.0 ], [ -71.70224, 42.291425, 0.0 ], [ -71.702268, 42.291435, 0.0 ], [ -71.70231, 42.291454, 0.0 ], [ -71.702351, 42.291475, 0.0 ], [ -71.702392, 42.291496, 0.0 ], [ -71.703556, 42.292097, 0.0 ] ], [ [ -71.796553, 42.260662, 0.0 ], [ -71.796146, 42.260876, 0.0 ], [ -71.796111, 42.260937, 0.0 ], [ -71.796124, 42.261025, 0.0 ], [ -71.796196, 42.261065, 0.0 ], [ -71.796208, 42.261062, 0.0 ], [ -71.796286, 42.261047, 0.0 ], [ -71.796288, 42.261047, 0.0 ], [ -71.796335, 42.261024, 0.0 ], [ -71.796337, 42.261023, 0.0 ], [ -71.79635, 42.261017, 0.0 ], [ -71.796549, 42.260923, 0.0 ], [ -71.796846, 42.260795, 0.0 ], [ -71.796846, 42.260796, 0.0 ], [ -71.79694, 42.260909, 0.0 ], [ -71.797127, 42.260765, 0.0 ], [ -71.797234, 42.260684, 0.0 ], [ -71.797298, 42.260635, 0.0 ], [ -71.797701, 42.260327, 0.0 ], [ -71.797599, 42.260278, 0.0 ], [ -71.797485, 42.260256, 0.0 ], [ -71.797332, 42.260241, 0.0 ], [ -71.797239, 42.260241, 0.0 ], [ -71.796017, 42.260265, 0.0 ], [ -71.795831, 42.260263, 0.0 ], [ -71.795717, 42.260257, 0.0 ], [ -71.795627, 42.260249, 0.0 ], [ -71.795503, 42.260236, 0.0 ], [ -71.7953, 42.260166, 0.0 ], [ -71.795088, 42.260169, 0.0 ], [ -71.794576, 42.260194, 0.0 ], [ -71.794439, 42.260201, 0.0 ], [ -71.794051, 42.26021, 0.0 ], [ -71.793863, 42.260223, 0.0 ], [ -71.79373, 42.260323, 0.0 ], [ -71.79373, 42.260327, 0.0 ], [ -71.793766, 42.26055, 0.0 ], [ -71.793767, 42.260558, 0.0 ], [ -71.79379, 42.260664, 0.0 ], [ -71.793791, 42.260665, 0.0 ], [ -71.79381, 42.260755, 0.0 ], [ -71.793827, 42.260805, 0.0 ], [ -71.79386, 42.260902, 0.0 ], [ -71.793867, 42.260917, 0.0 ], [ -71.793874, 42.260932, 0.0 ], [ -71.79389, 42.26097, 0.0 ], [ -71.793903, 42.261001, 0.0 ], [ -71.793911, 42.261018, 0.0 ], [ -71.793916, 42.26103, 0.0 ], [ -71.793923, 42.261042, 0.0 ], [ -71.793939, 42.26107, 0.0 ], [ -71.793965, 42.261116, 0.0 ], [ -71.793977, 42.261135, 0.0 ], [ -71.793989, 42.261156, 0.0 ], [ -71.794005, 42.261185, 0.0 ], [ -71.794011, 42.261197, 0.0 ], [ -71.794025, 42.261223, 0.0 ], [ -71.794044, 42.261249, 0.0 ], [ -71.79406, 42.261271, 0.0 ], [ -71.794148, 42.261365, 0.0 ], [ -71.794194, 42.26143, 0.0 ], [ -71.794253, 42.261513, 0.0 ], [ -71.794401, 42.261639, 0.0 ], [ -71.794582, 42.261759, 0.0 ], [ -71.794626, 42.26177, 0.0 ], [ -71.794664, 42.261779, 0.0 ], [ -71.794716, 42.261806, 0.0 ], [ -71.794753, 42.26184, 0.0 ], [ -71.794799, 42.261916, 0.0 ], [ -71.794823, 42.261998, 0.0 ], [ -71.794823, 42.26207, 0.0 ], [ -71.794731, 42.262155, 0.0 ], [ -71.794652, 42.262193, 0.0 ], [ -71.794628, 42.2622, 0.0 ], [ -71.794572, 42.262218, 0.0 ], [ -71.794484, 42.262217, 0.0 ], [ -71.794367, 42.262194, 0.0 ], [ -71.794178, 42.262154, 0.0 ], [ -71.794104, 42.26215, 0.0 ], [ -71.794034, 42.262151, 0.0 ], [ -71.793968, 42.262161, 0.0 ], [ -71.793851, 42.262178, 0.0 ], [ -71.793632, 42.262235, 0.0 ], [ -71.793552, 42.262256, 0.0 ], [ -71.792908, 42.262463, 0.0 ], [ -71.792331, 42.262639, 0.0 ], [ -71.791795, 42.262804, 0.0 ], [ -71.79143, 42.262938, 0.0 ], [ -71.79111, 42.263077, 0.0 ], [ -71.790028, 42.26368, 0.0 ], [ -71.78868, 42.264365, 0.0 ], [ -71.788312, 42.264541, 0.0 ], [ -71.786884, 42.26528, 0.0 ], [ -71.78393, 42.26681, 0.0 ], [ -71.782685, 42.267453, 0.0 ], [ -71.781561, 42.268041, 0.0 ], [ -71.780087, 42.268803, 0.0 ], [ -71.778427, 42.269655, 0.0 ], [ -71.77778, 42.269997, 0.0 ], [ -71.776746, 42.270534, 0.0 ], [ -71.775615, 42.271102, 0.0 ], [ -71.774865, 42.271448, 0.0 ], [ -71.774027, 42.271837, 0.0 ], [ -71.773577, 42.272049, 0.0 ], [ -71.772946, 42.27234, 0.0 ], [ -71.771223, 42.273154, 0.0 ], [ -71.771022, 42.273253, 0.0 ], [ -71.770856, 42.273327, 0.0 ], [ -71.770687, 42.273399, 0.0 ], [ -71.770523, 42.273476, 0.0 ], [ -71.770437, 42.273524, 0.0 ], [ -71.770351, 42.273572, 0.0 ], [ -71.770264, 42.273617, 0.0 ], [ -71.770157, 42.273661, 0.0 ], [ -71.770093, 42.273736, 0.0 ], [ -71.7697, 42.273747, 0.0 ], [ -71.769463, 42.273758, 0.0 ], [ -71.769225, 42.27377, 0.0 ], [ -71.768996, 42.27378, 0.0 ], [ -71.768767, 42.273791, 0.0 ], [ -71.768537, 42.273799, 0.0 ], [ -71.768373, 42.273803, 0.0 ], [ -71.768208, 42.273805, 0.0 ], [ -71.768043, 42.273808, 0.0 ], [ -71.767979, 42.273811, 0.0 ], [ -71.767914, 42.273813, 0.0 ], [ -71.767762, 42.273819, 0.0 ], [ -71.767655, 42.274014, 0.0 ], [ -71.767612, 42.274058, 0.0 ], [ -71.76748, 42.274194, 0.0 ], [ -71.767347, 42.27433, 0.0 ], [ -71.767214, 42.274466, 0.0 ], [ -71.767108, 42.274576, 0.0 ], [ -71.767001, 42.274687, 0.0 ], [ -71.766894, 42.274796, 0.0 ], [ -71.766815, 42.274874, 0.0 ], [ -71.766736, 42.274951, 0.0 ], [ -71.766658, 42.275029, 0.0 ], [ -71.766566, 42.275122, 0.0 ], [ -71.766475, 42.275215, 0.0 ], [ -71.76645, 42.275244, 0.0 ], [ -71.766409, 42.275297, 0.0 ], [ -71.766368, 42.275351, 0.0 ], [ -71.766329, 42.275405, 0.0 ], [ -71.766301, 42.27545, 0.0 ], [ -71.766277, 42.275487, 0.0 ], [ -71.766228, 42.27557, 0.0 ], [ -71.766178, 42.275653, 0.0 ], [ -71.766131, 42.275728, 0.0 ], [ -71.766082, 42.275803, 0.0 ], [ -71.766034, 42.275878, 0.0 ], [ -71.765902, 42.276224, 0.0 ], [ -71.765853, 42.276354, 0.0 ], [ -71.76579, 42.276331, 0.0 ], [ -71.765732, 42.276301, 0.0 ], [ -71.765706, 42.276274, 0.0 ], [ -71.765327, 42.276215, 0.0 ], [ -71.764411, 42.276099, 0.0 ], [ -71.763583, 42.275986, 0.0 ], [ -71.762647, 42.275871, 0.0 ], [ -71.761841, 42.275766, 0.0 ], [ -71.761726, 42.275759, 0.0 ], [ -71.761611, 42.275753, 0.0 ], [ -71.761497, 42.275754, 0.0 ], [ -71.761424, 42.275758, 0.0 ], [ -71.761352, 42.275765, 0.0 ], [ -71.761282, 42.275777, 0.0 ], [ -71.761176, 42.275809, 0.0 ], [ -71.761076, 42.275854, 0.0 ], [ -71.760982, 42.275904, 0.0 ], [ -71.760905, 42.275955, 0.0 ], [ -71.760871, 42.27598, 0.0 ], [ -71.760832, 42.276009, 0.0 ], [ -71.76076, 42.276064, 0.0 ], [ -71.760342, 42.276418, 0.0 ], [ -71.759857, 42.276829, 0.0 ], [ -71.759621, 42.277082, 0.0 ], [ -71.75948, 42.277233, 0.0 ], [ -71.759451, 42.277266, 0.0 ], [ -71.759421, 42.277299, 0.0 ], [ -71.759292, 42.277338, 0.0 ], [ -71.759195, 42.277338, 0.0 ], [ -71.759099, 42.277305, 0.0 ], [ -71.759047, 42.277249, 0.0 ], [ -71.759018, 42.277157, 0.0 ], [ -71.75901, 42.277067, 0.0 ], [ -71.75903, 42.276963, 0.0 ], [ -71.759001, 42.27688, 0.0 ], [ -71.7589, 42.276776, 0.0 ], [ -71.75878, 42.27666, 0.0 ], [ -71.758662, 42.276553, 0.0 ], [ -71.7586, 42.276455, 0.0 ], [ -71.758543, 42.276356, 0.0 ], [ -71.758494, 42.276258, 0.0 ], [ -71.758449, 42.276159, 0.0 ], [ -71.75841, 42.276058, 0.0 ], [ -71.758377, 42.275948, 0.0 ], [ -71.758352, 42.275837, 0.0 ], [ -71.758333, 42.275725, 0.0 ], [ -71.758322, 42.275614, 0.0 ], [ -71.758318, 42.275502, 0.0 ], [ -71.75832, 42.275391, 0.0 ], [ -71.758329, 42.275293, 0.0 ], [ -71.758343, 42.275195, 0.0 ], [ -71.758362, 42.275098, 0.0 ], [ -71.758375, 42.275036, 0.0 ], [ -71.758381, 42.275013, 0.0 ], [ -71.758391, 42.274974, 0.0 ], [ -71.75841, 42.274913, 0.0 ], [ -71.758443, 42.274832, 0.0 ], [ -71.758481, 42.274752, 0.0 ], [ -71.758521, 42.274672, 0.0 ], [ -71.758559, 42.274592, 0.0 ], [ -71.758599, 42.274512, 0.0 ], [ -71.758623, 42.27444, 0.0 ], [ -71.758504, 42.27419, 0.0 ], [ -71.758354, 42.274196, 0.0 ], [ -71.758078, 42.274211, 0.0 ], [ -71.757889, 42.274221, 0.0 ], [ -71.757802, 42.274226, 0.0 ], [ -71.757526, 42.274242, 0.0 ], [ -71.75725, 42.274258, 0.0 ], [ -71.756973, 42.274275, 0.0 ], [ -71.756696, 42.274291, 0.0 ], [ -71.756439, 42.274305, 0.0 ], [ -71.756181, 42.274318, 0.0 ], [ -71.755923, 42.274331, 0.0 ], [ -71.755673, 42.274344, 0.0 ], [ -71.755422, 42.274356, 0.0 ], [ -71.755171, 42.274369, 0.0 ], [ -71.754956, 42.274382, 0.0 ], [ -71.754741, 42.274396, 0.0 ], [ -71.754526, 42.274409, 0.0 ], [ -71.75452, 42.27441, 0.0 ], [ -71.75437, 42.274419, 0.0 ], [ -71.754215, 42.274428, 0.0 ], [ -71.75406, 42.274437, 0.0 ], [ -71.754023, 42.274439, 0.0 ], [ -71.753895, 42.274445, 0.0 ], [ -71.75373, 42.274454, 0.0 ], [ -71.753565, 42.274462, 0.0 ], [ -71.753396, 42.274472, 0.0 ], [ -71.753227, 42.274481, 0.0 ], [ -71.753058, 42.274489, 0.0 ], [ -71.752903, 42.274496, 0.0 ], [ -71.752747, 42.274501, 0.0 ], [ -71.752593, 42.274509, 0.0 ], [ -71.752592, 42.274509, 0.0 ], [ -71.752437, 42.274519, 0.0 ], [ -71.752282, 42.274531, 0.0 ], [ -71.752127, 42.274543, 0.0 ], [ -71.751866, 42.274566, 0.0 ], [ -71.751605, 42.27459, 0.0 ], [ -71.751345, 42.274617, 0.0 ], [ -71.751076, 42.27465, 0.0 ], [ -71.750807, 42.274687, 0.0 ], [ -71.750538, 42.274721, 0.0 ], [ -71.750374, 42.274739, 0.0 ], [ -71.75021, 42.274756, 0.0 ], [ -71.750046, 42.274773, 0.0 ], [ -71.749854, 42.274794, 0.0 ], [ -71.749661, 42.274815, 0.0 ], [ -71.749469, 42.274836, 0.0 ], [ -71.74934, 42.27485, 0.0 ], [ -71.749212, 42.274863, 0.0 ], [ -71.749084, 42.274877, 0.0 ], [ -71.748865, 42.274899, 0.0 ], [ -71.748647, 42.274922, 0.0 ], [ -71.747878, 42.274989, 0.0 ], [ -71.74773, 42.275031, 0.0 ], [ -71.747691, 42.275129, 0.0 ], [ -71.74779, 42.27607, 0.0 ], [ -71.747795, 42.276261, 0.0 ], [ -71.74699, 42.276328, 0.0 ], [ -71.746092, 42.276395, 0.0 ], [ -71.746037, 42.275841, 0.0 ], [ -71.745953, 42.275252, 0.0 ], [ -71.745914, 42.275155, 0.0 ], [ -71.745817, 42.275124, 0.0 ], [ -71.745504, 42.275142, 0.0 ], [ -71.745192, 42.275163, 0.0 ], [ -71.745016, 42.275177, 0.0 ], [ -71.74484, 42.275193, 0.0 ], [ -71.744664, 42.275208, 0.0 ], [ -71.744495, 42.27522, 0.0 ], [ -71.744487, 42.27522, 0.0 ], [ -71.744326, 42.27523, 0.0 ], [ -71.744156, 42.275241, 0.0 ], [ -71.74389, 42.275261, 0.0 ], [ -71.743624, 42.275281, 0.0 ], [ -71.743358, 42.275302, 0.0 ], [ -71.743042, 42.275323, 0.0 ], [ -71.742726, 42.275343, 0.0 ], [ -71.742411, 42.275364, 0.0 ], [ -71.74231, 42.275371, 0.0 ], [ -71.742209, 42.275377, 0.0 ], [ -71.742108, 42.275384, 0.0 ], [ -71.741972, 42.275394, 0.0 ], [ -71.741835, 42.275404, 0.0 ], [ -71.741699, 42.275414, 0.0 ], [ -71.7415, 42.275429, 0.0 ], [ -71.7413, 42.275443, 0.0 ], [ -71.741221, 42.275449, 0.0 ], [ -71.7411, 42.275458, 0.0 ], [ -71.740893, 42.275475, 0.0 ], [ -71.740685, 42.275492, 0.0 ], [ -71.740477, 42.27551, 0.0 ], [ -71.740203, 42.275532, 0.0 ], [ -71.739928, 42.275554, 0.0 ], [ -71.739654, 42.275574, 0.0 ], [ -71.739396, 42.27559, 0.0 ], [ -71.739139, 42.275606, 0.0 ], [ -71.738881, 42.275624, 0.0 ], [ -71.738703, 42.275641, 0.0 ], [ -71.738524, 42.275658, 0.0 ], [ -71.738329, 42.275703, 0.0 ], [ -71.738133, 42.275749, 0.0 ], [ -71.737942, 42.275801, 0.0 ], [ -71.737862, 42.275828, 0.0 ], [ -71.737784, 42.275856, 0.0 ], [ -71.737705, 42.275884, 0.0 ], [ -71.737661, 42.2759, 0.0 ], [ -71.737616, 42.275916, 0.0 ], [ -71.737528, 42.27595, 0.0 ], [ -71.737439, 42.275983, 0.0 ], [ -71.736916, 42.276248, 0.0 ], [ -71.736676, 42.276394, 0.0 ], [ -71.736563, 42.276469, 0.0 ], [ -71.73645, 42.276544, 0.0 ], [ -71.736305, 42.276637, 0.0 ], [ -71.736161, 42.27673, 0.0 ], [ -71.736021, 42.276827, 0.0 ], [ -71.735911, 42.276915, 0.0 ], [ -71.735805, 42.277008, 0.0 ], [ -71.735698, 42.277099, 0.0 ], [ -71.735587, 42.277189, 0.0 ], [ -71.735475, 42.277279, 0.0 ], [ -71.735364, 42.27737, 0.0 ], [ -71.735283, 42.277436, 0.0 ], [ -71.735204, 42.277502, 0.0 ], [ -71.73517, 42.277532, 0.0 ], [ -71.735127, 42.277571, 0.0 ], [ -71.735042, 42.27765, 0.0 ], [ -71.73496, 42.277731, 0.0 ], [ -71.734883, 42.277815, 0.0 ], [ -71.734817, 42.277895, 0.0 ], [ -71.734754, 42.277977, 0.0 ], [ -71.734695, 42.27806, 0.0 ], [ -71.73466, 42.278113, 0.0 ], [ -71.734627, 42.278166, 0.0 ], [ -71.734595, 42.27822, 0.0 ], [ -71.734532, 42.27834, 0.0 ], [ -71.734477, 42.278464, 0.0 ], [ -71.734429, 42.278588, 0.0 ], [ -71.734417, 42.278626, 0.0 ], [ -71.734415, 42.278632, 0.0 ], [ -71.734385, 42.278728, 0.0 ], [ -71.73435, 42.278869, 0.0 ], [ -71.734324, 42.279012, 0.0 ], [ -71.734312, 42.279121, 0.0 ], [ -71.734305, 42.279231, 0.0 ], [ -71.734299, 42.27934, 0.0 ], [ -71.734294, 42.279429, 0.0 ], [ -71.734289, 42.279518, 0.0 ], [ -71.734284, 42.279606, 0.0 ], [ -71.734276, 42.279737, 0.0 ], [ -71.734267, 42.279868, 0.0 ], [ -71.734258, 42.279998, 0.0 ], [ -71.734253, 42.280086, 0.0 ], [ -71.734248, 42.280175, 0.0 ], [ -71.734242, 42.280264, 0.0 ], [ -71.734236, 42.280348, 0.0 ], [ -71.734228, 42.280433, 0.0 ], [ -71.734217, 42.280517, 0.0 ], [ -71.734198, 42.280614, 0.0 ], [ -71.734175, 42.280711, 0.0 ], [ -71.734145, 42.280807, 0.0 ], [ -71.73411, 42.280903, 0.0 ], [ -71.734068, 42.280997, 0.0 ], [ -71.734023, 42.281091, 0.0 ], [ -71.733978, 42.281177, 0.0 ], [ -71.733929, 42.281263, 0.0 ], [ -71.733878, 42.281348, 0.0 ], [ -71.73383, 42.281429, 0.0 ], [ -71.73378, 42.281509, 0.0 ], [ -71.733727, 42.281588, 0.0 ], [ -71.733673, 42.281663, 0.0 ], [ -71.733616, 42.281736, 0.0 ], [ -71.73356, 42.28181, 0.0 ], [ -71.733493, 42.281907, 0.0 ], [ -71.733428, 42.282004, 0.0 ], [ -71.73336, 42.282099, 0.0 ], [ -71.733297, 42.282183, 0.0 ], [ -71.733232, 42.282267, 0.0 ], [ -71.733165, 42.282348, 0.0 ], [ -71.733087, 42.282435, 0.0 ], [ -71.733007, 42.28252, 0.0 ], [ -71.732929, 42.282607, 0.0 ], [ -71.732907, 42.282633, 0.0 ], [ -71.732885, 42.28266, 0.0 ], [ -71.732863, 42.282686, 0.0 ], [ -71.732786, 42.282759, 0.0 ], [ -71.732701, 42.282828, 0.0 ], [ -71.732614, 42.282895, 0.0 ], [ -71.732491, 42.282989, 0.0 ], [ -71.732366, 42.283081, 0.0 ], [ -71.73224, 42.283172, 0.0 ], [ -71.732134, 42.283251, 0.0 ], [ -71.732027, 42.28333, 0.0 ], [ -71.731919, 42.283407, 0.0 ], [ -71.731762, 42.283514, 0.0 ], [ -71.731603, 42.283618, 0.0 ], [ -71.731442, 42.283721, 0.0 ], [ -71.73129, 42.283816, 0.0 ], [ -71.731137, 42.28391, 0.0 ], [ -71.730982, 42.284002, 0.0 ], [ -71.730919, 42.284037, 0.0 ], [ -71.730874, 42.284061, 0.0 ], [ -71.730766, 42.28412, 0.0 ], [ -71.730657, 42.284179, 0.0 ], [ -71.730525, 42.284249, 0.0 ], [ -71.730392, 42.284318, 0.0 ], [ -71.730365, 42.284333, 0.0 ], [ -71.730261, 42.284389, 0.0 ], [ -71.730108, 42.284475, 0.0 ], [ -71.729957, 42.284563, 0.0 ], [ -71.729804, 42.28465, 0.0 ], [ -71.729679, 42.284715, 0.0 ], [ -71.729552, 42.284778, 0.0 ], [ -71.729427, 42.284843, 0.0 ], [ -71.729378, 42.28487, 0.0 ], [ -71.729258, 42.284936, 0.0 ], [ -71.729091, 42.285032, 0.0 ], [ -71.728924, 42.285128, 0.0 ], [ -71.728018, 42.285641, 0.0 ], [ -71.727826, 42.28575, 0.0 ], [ -71.727596, 42.28588, 0.0 ], [ -71.727213, 42.286097, 0.0 ], [ -71.727125, 42.286148, 0.0 ], [ -71.727037, 42.286199, 0.0 ], [ -71.726951, 42.286252, 0.0 ], [ -71.726884, 42.286298, 0.0 ], [ -71.726819, 42.286345, 0.0 ], [ -71.726753, 42.286392, 0.0 ], [ -71.726701, 42.286426, 0.0 ], [ -71.72665, 42.28646, 0.0 ], [ -71.726599, 42.286494, 0.0 ], [ -71.726544, 42.286535, 0.0 ], [ -71.72649, 42.286577, 0.0 ], [ -71.726435, 42.286618, 0.0 ], [ -71.726381, 42.286652, 0.0 ], [ -71.726326, 42.286686, 0.0 ], [ -71.726272, 42.28672, 0.0 ], [ -71.726213, 42.286761, 0.0 ], [ -71.726156, 42.286804, 0.0 ], [ -71.726098, 42.286847, 0.0 ], [ -71.726029, 42.286895, 0.0 ], [ -71.725994, 42.286921, 0.0 ], [ -71.72596, 42.286944, 0.0 ], [ -71.725891, 42.286993, 0.0 ], [ -71.72584, 42.287028, 0.0 ], [ -71.725788, 42.287063, 0.0 ], [ -71.725738, 42.287099, 0.0 ], [ -71.725699, 42.287128, 0.0 ], [ -71.725661, 42.287157, 0.0 ], [ -71.725623, 42.287187, 0.0 ], [ -71.725579, 42.287225, 0.0 ], [ -71.725536, 42.287263, 0.0 ], [ -71.725492, 42.287301, 0.0 ], [ -71.725446, 42.28734, 0.0 ], [ -71.7254, 42.287379, 0.0 ], [ -71.725354, 42.287418, 0.0 ], [ -71.725307, 42.287458, 0.0 ], [ -71.725259, 42.287497, 0.0 ], [ -71.725213, 42.287537, 0.0 ], [ -71.725159, 42.287585, 0.0 ], [ -71.725106, 42.287633, 0.0 ], [ -71.725053, 42.287683, 0.0 ], [ -71.725006, 42.287725, 0.0 ], [ -71.72496, 42.287768, 0.0 ], [ -71.724937, 42.28779, 0.0 ], [ -71.724914, 42.287811, 0.0 ], [ -71.724867, 42.287858, 0.0 ], [ -71.724862, 42.287862, 0.0 ], [ -71.72481, 42.287914, 0.0 ], [ -71.724756, 42.287966, 0.0 ], [ -71.724699, 42.288017, 0.0 ], [ -71.724639, 42.288069, 0.0 ], [ -71.72458, 42.288121, 0.0 ], [ -71.72452, 42.288173, 0.0 ], [ -71.724459, 42.288224, 0.0 ], [ -71.724399, 42.288277, 0.0 ], [ -71.724343, 42.28833, 0.0 ], [ -71.724287, 42.288383, 0.0 ], [ -71.72423, 42.288436, 0.0 ], [ -71.724172, 42.288484, 0.0 ], [ -71.724112, 42.288532, 0.0 ], [ -71.724054, 42.28858, 0.0 ], [ -71.723998, 42.288628, 0.0 ], [ -71.723943, 42.288677, 0.0 ], [ -71.723913, 42.288705, 0.0 ], [ -71.723889, 42.288727, 0.0 ], [ -71.723848, 42.288765, 0.0 ], [ -71.723808, 42.288804, 0.0 ], [ -71.723767, 42.288843, 0.0 ], [ -71.723534, 42.289053, 0.0 ], [ -71.723277, 42.289286, 0.0 ], [ -71.722971, 42.289577, 0.0 ], [ -71.722645, 42.289886, 0.0 ], [ -71.722415, 42.290092, 0.0 ], [ -71.721846, 42.290601, 0.0 ], [ -71.721747, 42.290692, 0.0 ], [ -71.721568, 42.290856, 0.0 ], [ -71.721104, 42.291281, 0.0 ], [ -71.721021, 42.291358, 0.0 ], [ -71.720592, 42.291747, 0.0 ], [ -71.720345, 42.291971, 0.0 ], [ -71.72017, 42.29213, 0.0 ], [ -71.719713, 42.292545, 0.0 ], [ -71.719497, 42.292742, 0.0 ], [ -71.719093, 42.29311, 0.0 ], [ -71.718849, 42.293337, 0.0 ], [ -71.71829, 42.293854, 0.0 ], [ -71.71798, 42.294141, 0.0 ], [ -71.717487, 42.294596, 0.0 ], [ -71.716746, 42.295273, 0.0 ], [ -71.716448, 42.295554, 0.0 ], [ -71.716145, 42.29584, 0.0 ], [ -71.716097, 42.295887, 0.0 ], [ -71.716049, 42.295934, 0.0 ], [ -71.716, 42.29598, 0.0 ], [ -71.715962, 42.296013, 0.0 ], [ -71.715924, 42.296045, 0.0 ], [ -71.715885, 42.296078, 0.0 ], [ -71.715847, 42.296114, 0.0 ], [ -71.715808, 42.29615, 0.0 ], [ -71.715767, 42.296182, 0.0 ], [ -71.715724, 42.296207, 0.0 ], [ -71.715678, 42.29623, 0.0 ], [ -71.715632, 42.296252, 0.0 ], [ -71.715586, 42.296275, 0.0 ], [ -71.715563, 42.296286, 0.0 ], [ -71.71554, 42.296297, 0.0 ], [ -71.715493, 42.296318, 0.0 ], [ -71.71544, 42.29634, 0.0 ], [ -71.715386, 42.29636, 0.0 ], [ -71.715331, 42.296378, 0.0 ], [ -71.71526, 42.296399, 0.0 ], [ -71.715226, 42.296407, 0.0 ], [ -71.715188, 42.296416, 0.0 ], [ -71.715116, 42.296433, 0.0 ], [ -71.715046, 42.296448, 0.0 ], [ -71.714976, 42.296462, 0.0 ], [ -71.714906, 42.296476, 0.0 ], [ -71.714846, 42.29649, 0.0 ], [ -71.714786, 42.296502, 0.0 ], [ -71.714725, 42.296514, 0.0 ], [ -71.714658, 42.296526, 0.0 ], [ -71.714591, 42.296538, 0.0 ], [ -71.714524, 42.296549, 0.0 ], [ -71.714466, 42.296558, 0.0 ], [ -71.714409, 42.296567, 0.0 ], [ -71.714351, 42.296576, 0.0 ], [ -71.71429, 42.296584, 0.0 ], [ -71.714229, 42.296591, 0.0 ], [ -71.714168, 42.296598, 0.0 ], [ -71.714109, 42.296603, 0.0 ], [ -71.714051, 42.296606, 0.0 ], [ -71.713993, 42.296611, 0.0 ], [ -71.713927, 42.296617, 0.0 ], [ -71.713861, 42.296623, 0.0 ], [ -71.713795, 42.29663, 0.0 ], [ -71.71374, 42.296636, 0.0 ], [ -71.713686, 42.296643, 0.0 ], [ -71.713662, 42.296645, 0.0 ] ] ] } },
{ "type": "Feature", "properties": { "Name": "15_ByReq", "description": "15_ByReq    <br>       <br>   DateActive   <Null>    <br>   BusRoute   15    <br>   TripType   BYREQ    <br>   Town   <Null>    <br>   ArrowRoute   <Null>    <br>   Bus_Route   15    <br>   Rte_Name   15_ByReq    <br>   LASTEDITED   20230526    <br>   EDITMETHOD   <Null>    <br>   RTE_TYPE   BY_REQUEST    <br>   ADA_RTE   Rte15NW    <br>   rWEEK   Y    <br>   rSAT   Y    <br>   rSUN   N    <br>   ADA_WK   Y    <br>   ADA_Sat   Y    <br>   ADA_Sun   N    <br>   ADA_Mid   N    <br>   SYSTEM_MAP   Y    <br>   Gis_Miles   0.400898", "timestamp": null, "begin": null, "end": null, "altitudeMode": null, "tessellate": 1, "extrude": 0, "visibility": -1, "drawOrder": null, "icon": null }, "geometry": { "type": "LineString", "coordinates": [ [ -71.744158, 42.275124, 0.0 ], [ -71.744432, 42.275114, 0.0 ], [ -71.744486, 42.275123, 0.0 ], [ -71.744538, 42.275166, 0.0 ], [ -71.744564, 42.275215, 0.0 ], [ -71.744657, 42.27539, 0.0 ], [ -71.744686, 42.275513, 0.0 ], [ -71.744686, 42.275516, 0.0 ], [ -71.744709, 42.275604, 0.0 ], [ -71.744736, 42.275844, 0.0 ], [ -71.744743, 42.276025, 0.0 ], [ -71.744737, 42.276152, 0.0 ], [ -71.744702, 42.276309, 0.0 ], [ -71.744671, 42.276395, 0.0 ], [ -71.744613, 42.276502, 0.0 ], [ -71.744692, 42.276568, 0.0 ], [ -71.744836, 42.276627, 0.0 ], [ -71.744997, 42.276646, 0.0 ], [ -71.74525, 42.276636, 0.0 ], [ -71.745475, 42.276631, 0.0 ], [ -71.745635, 42.276616, 0.0 ], [ -71.745779, 42.276585, 0.0 ], [ -71.745936, 42.276503, 0.0 ], [ -71.746038, 42.276458, 0.0 ], [ -71.746092, 42.276395, 0.0 ], [ -71.746093, 42.276363, 0.0 ], [ -71.747731, 42.276233, 0.0 ], [ -71.747697, 42.275795, 0.0 ], [ -71.747605, 42.275145, 0.0 ], [ -71.747598, 42.274952, 0.0 ], [ -71.747877, 42.274937, 0.0 ], [ -71.747994, 42.274885, 0.0 ], [ -71.748062, 42.274851, 0.0 ] ] } },
{ "type": "Feature", "properties": { "Name": "12_Out1", "description": "12_Out1    <br>       <br>   DateActive   <Null>    <br>   BusRoute   12    <br>   TripType   OUT    <br>   Town   Worcester    <br>   ArrowRoute   <Null>    <br>   Bus_Route   12    <br>   Rte_Name   12_Out1    <br>   LASTEDITED   20220803    <br>   EDITMETHOD   <Null>    <br>   RTE_TYPE   Route    <br>   ADA_RTE   Rte12ADA    <br>   rWEEK   Y    <br>   rSAT   N    <br>   rSUN   N    <br>   ADA_WK   Y    <br>   ADA_Sat   N    <br>   ADA_Sun   N    <br>   ADA_Mid   N    <br>   SYSTEM_MAP   Y    <br>   Gis_Miles   5.207726", "timestamp": null, "begin": null, "end": null, "altitudeMode": null, "tessellate": 1, "extrude": 0, "visibility": -1, "drawOrder": null, "icon": null }, "geometry": { "type": "LineString", "coordinates": [ [ -71.723704, 42.246902, 0.0 ], [ -71.723555, 42.246961, 0.0 ], [ -71.72366, 42.247307, 0.0 ], [ -71.723765, 42.247545, 0.0 ], [ -71.723986, 42.247887, 0.0 ], [ -71.7242, 42.248103, 0.0 ], [ -71.724523, 42.248055, 0.0 ], [ -71.726699, 42.247696, 0.0 ], [ -71.726705, 42.247695, 0.0 ], [ -71.72671, 42.247694, 0.0 ], [ -71.726716, 42.247692, 0.0 ], [ -71.726757, 42.247685, 0.0 ], [ -71.726862, 42.247665, 0.0 ], [ -71.726911, 42.247656, 0.0 ], [ -71.726915, 42.247656, 0.0 ], [ -71.726916, 42.247655, 0.0 ], [ -71.727001, 42.247641, 0.0 ], [ -71.727016, 42.247637, 0.0 ], [ -71.727068, 42.247624, 0.0 ], [ -71.72712, 42.247611, 0.0 ], [ -71.727172, 42.247599, 0.0 ], [ -71.727224, 42.247587, 0.0 ], [ -71.727283, 42.247577, 0.0 ], [ -71.727342, 42.247566, 0.0 ], [ -71.727401, 42.247555, 0.0 ], [ -71.727456, 42.247542, 0.0 ], [ -71.727511, 42.247528, 0.0 ], [ -71.727565, 42.247515, 0.0 ], [ -71.727627, 42.247502, 0.0 ], [ -71.72769, 42.24749, 0.0 ], [ -71.727752, 42.247478, 0.0 ], [ -71.727802, 42.247468, 0.0 ], [ -71.727851, 42.247457, 0.0 ], [ -71.7279, 42.247447, 0.0 ], [ -71.727946, 42.247435, 0.0 ], [ -71.727992, 42.247422, 0.0 ], [ -71.728038, 42.247409, 0.0 ], [ -71.728092, 42.247394, 0.0 ], [ -71.728146, 42.247378, 0.0 ], [ -71.7282, 42.247362, 0.0 ], [ -71.728264, 42.247344, 0.0 ], [ -71.728329, 42.247327, 0.0 ], [ -71.728394, 42.247311, 0.0 ], [ -71.728444, 42.247298, 0.0 ], [ -71.728494, 42.247285, 0.0 ], [ -71.728545, 42.247272, 0.0 ], [ -71.729305, 42.247083, 0.0 ], [ -71.729767, 42.246968, 0.0 ], [ -71.730229, 42.246854, 0.0 ], [ -71.730658, 42.246748, 0.0 ], [ -71.730662, 42.246747, 0.0 ], [ -71.731444, 42.246562, 0.0 ], [ -71.73157, 42.246528, 0.0 ], [ -71.731575, 42.246527, 0.0 ], [ -71.731576, 42.246527, 0.0 ], [ -71.732195, 42.246381, 0.0 ], [ -71.732199, 42.24638, 0.0 ], [ -71.732402, 42.246324, 0.0 ], [ -71.732406, 42.246323, 0.0 ], [ -71.732407, 42.246323, 0.0 ], [ -71.733044, 42.246173, 0.0 ], [ -71.733061, 42.246168, 0.0 ], [ -71.733844, 42.245961, 0.0 ], [ -71.734567, 42.245755, 0.0 ], [ -71.734855, 42.245673, 0.0 ], [ -71.734859, 42.245672, 0.0 ], [ -71.73486, 42.245672, 0.0 ], [ -71.735148, 42.245584, 0.0 ], [ -71.735872, 42.245368, 0.0 ], [ -71.736473, 42.245176, 0.0 ], [ -71.737227, 42.244946, 0.0 ], [ -71.737231, 42.244945, 0.0 ], [ -71.737232, 42.244945, 0.0 ], [ -71.738009, 42.244698, 0.0 ], [ -71.738199, 42.244631, 0.0 ], [ -71.738306, 42.244593, 0.0 ], [ -71.73831, 42.244592, 0.0 ], [ -71.738311, 42.244592, 0.0 ], [ -71.738412, 42.244554, 0.0 ], [ -71.738506, 42.244519, 0.0 ], [ -71.73851, 42.244518, 0.0 ], [ -71.739045, 42.244321, 0.0 ], [ -71.73964, 42.244097, 0.0 ], [ -71.740251, 42.243875, 0.0 ], [ -71.740826, 42.243648, 0.0 ], [ -71.741065, 42.243557, 0.0 ], [ -71.741069, 42.243555, 0.0 ], [ -71.741412, 42.243402, 0.0 ], [ -71.741567, 42.24333, 0.0 ], [ -71.741571, 42.243328, 0.0 ], [ -71.741683, 42.243279, 0.0 ], [ -71.741686, 42.243277, 0.0 ], [ -71.741868, 42.243183, 0.0 ], [ -71.741957, 42.243141, 0.0 ], [ -71.741961, 42.243139, 0.0 ], [ -71.741963, 42.243139, 0.0 ], [ -71.741966, 42.243137, 0.0 ], [ -71.742033, 42.243103, 0.0 ], [ -71.74237, 42.242914, 0.0 ], [ -71.742683, 42.242726, 0.0 ], [ -71.743081, 42.242472, 0.0 ], [ -71.743085, 42.24247, 0.0 ], [ -71.743263, 42.242352, 0.0 ], [ -71.743589, 42.242124, 0.0 ], [ -71.74375, 42.241999, 0.0 ], [ -71.74375, 42.241998, 0.0 ], [ -71.743867, 42.241907, 0.0 ], [ -71.743913, 42.241871, 0.0 ], [ -71.744197, 42.241612, 0.0 ], [ -71.744199, 42.241609, 0.0 ], [ -71.7442, 42.241609, 0.0 ], [ -71.744267, 42.241623, 0.0 ], [ -71.744314, 42.241629, 0.0 ], [ -71.744358, 42.241633, 0.0 ], [ -71.744416, 42.241637, 0.0 ], [ -71.744468, 42.241636, 0.0 ], [ -71.744517, 42.241631, 0.0 ], [ -71.744535, 42.241628, 0.0 ], [ -71.744595, 42.241621, 0.0 ], [ -71.744722, 42.241594, 0.0 ], [ -71.744759, 42.241585, 0.0 ], [ -71.744761, 42.241585, 0.0 ], [ -71.744761, 42.241584, 0.0 ], [ -71.744831, 42.241568, 0.0 ], [ -71.744849, 42.241564, 0.0 ], [ -71.744851, 42.241564, 0.0 ], [ -71.74487, 42.241558, 0.0 ], [ -71.744888, 42.241554, 0.0 ], [ -71.745002, 42.241528, 0.0 ], [ -71.74573, 42.241357, 0.0 ], [ -71.746379, 42.24121, 0.0 ], [ -71.746794, 42.241142, 0.0 ], [ -71.747524, 42.241076, 0.0 ], [ -71.748276, 42.241004, 0.0 ], [ -71.748261, 42.240855, 0.0 ], [ -71.748246, 42.240622, 0.0 ], [ -71.748163, 42.240394, 0.0 ], [ -71.747966, 42.24014, 0.0 ], [ -71.747814, 42.240075, 0.0 ], [ -71.747606, 42.240147, 0.0 ], [ -71.747356, 42.240179, 0.0 ], [ -71.746639, 42.240231, 0.0 ], [ -71.746524, 42.240213, 0.0 ], [ -71.746307, 42.239935, 0.0 ], [ -71.746161, 42.239717, 0.0 ], [ -71.746224, 42.239671, 0.0 ], [ -71.746661, 42.239491, 0.0 ], [ -71.747025, 42.23933, 0.0 ], [ -71.747299, 42.239243, 0.0 ], [ -71.747462, 42.239441, 0.0 ], [ -71.747902, 42.240055, 0.0 ], [ -71.748163, 42.240394, 0.0 ], [ -71.748246, 42.240622, 0.0 ], [ -71.748261, 42.240855, 0.0 ], [ -71.748276, 42.241004, 0.0 ], [ -71.748834, 42.240956, 0.0 ], [ -71.748993, 42.240939, 0.0 ], [ -71.749174, 42.240931, 0.0 ], [ -71.749291, 42.240928, 0.0 ], [ -71.749426, 42.240927, 0.0 ], [ -71.749502, 42.24093, 0.0 ], [ -71.749716, 42.240958, 0.0 ], [ -71.749776, 42.240966, 0.0 ], [ -71.749891, 42.24098, 0.0 ], [ -71.749999, 42.240999, 0.0 ], [ -71.750168, 42.241034, 0.0 ], [ -71.750403, 42.241086, 0.0 ], [ -71.75081, 42.241177, 0.0 ], [ -71.751194, 42.241258, 0.0 ], [ -71.751419, 42.241305, 0.0 ], [ -71.751673, 42.241358, 0.0 ], [ -71.751894, 42.241402, 0.0 ], [ -71.751968, 42.241417, 0.0 ], [ -71.75217, 42.241453, 0.0 ], [ -71.752262, 42.241464, 0.0 ], [ -71.75236, 42.241479, 0.0 ], [ -71.752432, 42.241482, 0.0 ], [ -71.752459, 42.241482, 0.0 ], [ -71.752518, 42.241484, 0.0 ], [ -71.752604, 42.241484, 0.0 ], [ -71.75267, 42.241479, 0.0 ], [ -71.752728, 42.241471, 0.0 ], [ -71.752876, 42.241436, 0.0 ], [ -71.752878, 42.241438, 0.0 ], [ -71.753056, 42.241383, 0.0 ], [ -71.753624, 42.241205, 0.0 ], [ -71.753945, 42.241111, 0.0 ], [ -71.754002, 42.241176, 0.0 ], [ -71.754147, 42.241328, 0.0 ], [ -71.754215, 42.2414, 0.0 ], [ -71.754353, 42.241546, 0.0 ], [ -71.754693, 42.2419, 0.0 ], [ -71.754937, 42.242167, 0.0 ], [ -71.755289, 42.242538, 0.0 ], [ -71.755494, 42.242745, 0.0 ], [ -71.755715, 42.242982, 0.0 ], [ -71.755948, 42.243215, 0.0 ], [ -71.756082, 42.243342, 0.0 ], [ -71.756128, 42.243387, 0.0 ], [ -71.756174, 42.243432, 0.0 ], [ -71.756312, 42.243557, 0.0 ], [ -71.756317, 42.243562, 0.0 ], [ -71.756418, 42.243644, 0.0 ], [ -71.756523, 42.243724, 0.0 ], [ -71.756689, 42.243839, 0.0 ], [ -71.756865, 42.243946, 0.0 ], [ -71.756911, 42.243973, 0.0 ], [ -71.756972, 42.24401, 0.0 ], [ -71.757011, 42.244031, 0.0 ], [ -71.757043, 42.24405, 0.0 ], [ -71.757222, 42.24415, 0.0 ], [ -71.757404, 42.244247, 0.0 ], [ -71.757585, 42.244345, 0.0 ], [ -71.757797, 42.244466, 0.0 ], [ -71.758008, 42.244588, 0.0 ], [ -71.758218, 42.244711, 0.0 ], [ -71.758342, 42.244781, 0.0 ], [ -71.758466, 42.244852, 0.0 ], [ -71.758586, 42.244927, 0.0 ], [ -71.758652, 42.244971, 0.0 ], [ -71.758716, 42.245017, 0.0 ], [ -71.758777, 42.245066, 0.0 ], [ -71.75883, 42.245118, 0.0 ], [ -71.75888, 42.245172, 0.0 ], [ -71.75893, 42.245226, 0.0 ], [ -71.759041, 42.245349, 0.0 ], [ -71.759151, 42.245473, 0.0 ], [ -71.759227, 42.245556, 0.0 ], [ -71.759263, 42.245595, 0.0 ], [ -71.759357, 42.245694, 0.0 ], [ -71.759452, 42.245793, 0.0 ], [ -71.759547, 42.245892, 0.0 ], [ -71.759724, 42.246077, 0.0 ], [ -71.759901, 42.246262, 0.0 ], [ -71.760081, 42.246446, 0.0 ], [ -71.760271, 42.246629, 0.0 ], [ -71.760332, 42.246686, 0.0 ], [ -71.760464, 42.246809, 0.0 ], [ -71.760636, 42.246977, 0.0 ], [ -71.760652, 42.246993, 0.0 ], [ -71.760833, 42.24718, 0.0 ], [ -71.76101, 42.247369, 0.0 ], [ -71.761185, 42.24756, 0.0 ], [ -71.761323, 42.247714, 0.0 ], [ -71.761461, 42.247868, 0.0 ], [ -71.761602, 42.248022, 0.0 ], [ -71.761738, 42.248167, 0.0 ], [ -71.761877, 42.248312, 0.0 ], [ -71.762022, 42.248453, 0.0 ], [ -71.762096, 42.24852, 0.0 ], [ -71.762172, 42.248585, 0.0 ], [ -71.762248, 42.248651, 0.0 ], [ -71.762288, 42.248686, 0.0 ], [ -71.762343, 42.248733, 0.0 ], [ -71.762438, 42.248815, 0.0 ], [ -71.762533, 42.248896, 0.0 ], [ -71.762715, 42.249045, 0.0 ], [ -71.762899, 42.249191, 0.0 ], [ -71.763083, 42.249338, 0.0 ], [ -71.763204, 42.249438, 0.0 ], [ -71.763324, 42.249538, 0.0 ], [ -71.763445, 42.249637, 0.0 ], [ -71.763585, 42.249751, 0.0 ], [ -71.763725, 42.249865, 0.0 ], [ -71.763865, 42.249978, 0.0 ], [ -71.763953, 42.250047, 0.0 ], [ -71.764041, 42.250117, 0.0 ], [ -71.76413, 42.250185, 0.0 ], [ -71.76419, 42.250231, 0.0 ], [ -71.764252, 42.250276, 0.0 ], [ -71.764316, 42.250319, 0.0 ], [ -71.764424, 42.25038, 0.0 ], [ -71.764539, 42.250435, 0.0 ], [ -71.76466, 42.250483, 0.0 ], [ -71.764723, 42.250504, 0.0 ], [ -71.764787, 42.250523, 0.0 ], [ -71.764953, 42.25057, 0.0 ], [ -71.765188, 42.250621, 0.0 ], [ -71.765359, 42.250654, 0.0 ], [ -71.765486, 42.250677, 0.0 ], [ -71.765615, 42.250699, 0.0 ], [ -71.765783, 42.250722, 0.0 ], [ -71.765913, 42.250736, 0.0 ], [ -71.766084, 42.250749, 0.0 ], [ -71.766256, 42.250759, 0.0 ], [ -71.766423, 42.250764, 0.0 ], [ -71.766591, 42.250766, 0.0 ], [ -71.766758, 42.250765, 0.0 ], [ -71.766917, 42.25076, 0.0 ], [ -71.767075, 42.250751, 0.0 ], [ -71.767234, 42.250742, 0.0 ], [ -71.76739, 42.250733, 0.0 ], [ -71.767546, 42.250722, 0.0 ], [ -71.767702, 42.250713, 0.0 ], [ -71.767872, 42.250703, 0.0 ], [ -71.768041, 42.250693, 0.0 ], [ -71.768209, 42.250681, 0.0 ], [ -71.768355, 42.25067, 0.0 ], [ -71.768501, 42.250658, 0.0 ], [ -71.768578, 42.250649, 0.0 ], [ -71.768645, 42.25064, 0.0 ], [ -71.768746, 42.250624, 0.0 ], [ -71.768846, 42.250605, 0.0 ], [ -71.768945, 42.250582, 0.0 ], [ -71.769036, 42.250556, 0.0 ], [ -71.769126, 42.250527, 0.0 ], [ -71.769217, 42.250499, 0.0 ], [ -71.769305, 42.250474, 0.0 ], [ -71.769395, 42.250451, 0.0 ], [ -71.769485, 42.250429, 0.0 ], [ -71.76962, 42.2504, 0.0 ], [ -71.769756, 42.250375, 0.0 ], [ -71.769894, 42.25036, 0.0 ], [ -71.770012, 42.250357, 0.0 ], [ -71.770131, 42.250361, 0.0 ], [ -71.770248, 42.250371, 0.0 ], [ -71.770385, 42.250388, 0.0 ], [ -71.770521, 42.250413, 0.0 ], [ -71.770655, 42.250441, 0.0 ], [ -71.770789, 42.250473, 0.0 ], [ -71.770922, 42.25051, 0.0 ], [ -71.770973, 42.250524, 0.0 ], [ -71.771054, 42.250546, 0.0 ], [ -71.771214, 42.250588, 0.0 ], [ -71.771373, 42.250629, 0.0 ], [ -71.771533, 42.25067, 0.0 ], [ -71.771683, 42.250711, 0.0 ], [ -71.771833, 42.250751, 0.0 ], [ -71.771922, 42.25077, 0.0 ], [ -71.771986, 42.250785, 0.0 ], [ -71.772118, 42.250808, 0.0 ], [ -71.772252, 42.250827, 0.0 ], [ -71.772386, 42.250834, 0.0 ], [ -71.772523, 42.250826, 0.0 ], [ -71.772659, 42.250806, 0.0 ], [ -71.772792, 42.250778, 0.0 ], [ -71.772877, 42.250754, 0.0 ], [ -71.77296, 42.250727, 0.0 ], [ -71.773042, 42.250698, 0.0 ], [ -71.773156, 42.250649, 0.0 ], [ -71.773266, 42.250595, 0.0 ], [ -71.773376, 42.250541, 0.0 ], [ -71.773464, 42.250498, 0.0 ], [ -71.773552, 42.250455, 0.0 ], [ -71.773641, 42.250413, 0.0 ], [ -71.773777, 42.25035, 0.0 ], [ -71.773915, 42.25029, 0.0 ], [ -71.774059, 42.250239, 0.0 ], [ -71.774183, 42.250203, 0.0 ], [ -71.774311, 42.250173, 0.0 ], [ -71.774441, 42.250149, 0.0 ], [ -71.774524, 42.250137, 0.0 ], [ -71.774561, 42.250131, 0.0 ], [ -71.774682, 42.250118, 0.0 ], [ -71.774804, 42.250112, 0.0 ], [ -71.774944, 42.250115, 0.0 ], [ -71.775085, 42.250127, 0.0 ], [ -71.775223, 42.250144, 0.0 ], [ -71.775375, 42.250171, 0.0 ], [ -71.77544, 42.250186, 0.0 ], [ -71.775525, 42.250205, 0.0 ], [ -71.775671, 42.250245, 0.0 ], [ -71.775777, 42.250278, 0.0 ], [ -71.775881, 42.250315, 0.0 ], [ -71.775981, 42.250356, 0.0 ], [ -71.776053, 42.250392, 0.0 ], [ -71.776122, 42.25043, 0.0 ], [ -71.776191, 42.250468, 0.0 ], [ -71.776243, 42.250495, 0.0 ], [ -71.776295, 42.250522, 0.0 ], [ -71.776347, 42.250549, 0.0 ], [ -71.776462, 42.250611, 0.0 ], [ -71.776577, 42.250674, 0.0 ], [ -71.776697, 42.250731, 0.0 ], [ -71.776793, 42.250768, 0.0 ], [ -71.776892, 42.250801, 0.0 ], [ -71.776992, 42.250831, 0.0 ], [ -71.777082, 42.250855, 0.0 ], [ -71.777173, 42.250875, 0.0 ], [ -71.777265, 42.250895, 0.0 ], [ -71.777386, 42.250919, 0.0 ], [ -71.777508, 42.250941, 0.0 ], [ -71.77763, 42.250962, 0.0 ], [ -71.777686, 42.25097, 0.0 ], [ -71.777742, 42.250979, 0.0 ], [ -71.777797, 42.250987, 0.0 ], [ -71.777975, 42.250999, 0.0 ], [ -71.778168, 42.250991, 0.0 ], [ -71.778454, 42.250977, 0.0 ], [ -71.778716, 42.250959, 0.0 ], [ -71.779108, 42.250932, 0.0 ], [ -71.779521, 42.250908, 0.0 ], [ -71.779881, 42.250883, 0.0 ], [ -71.780037, 42.250872, 0.0 ], [ -71.780409, 42.250849, 0.0 ], [ -71.78055, 42.250841, 0.0 ], [ -71.780942, 42.250818, 0.0 ], [ -71.781201, 42.250886, 0.0 ], [ -71.781258, 42.250904, 0.0 ], [ -71.78133, 42.250929, 0.0 ], [ -71.781336, 42.250931, 0.0 ], [ -71.781389, 42.250956, 0.0 ], [ -71.781484, 42.251004, 0.0 ], [ -71.781584, 42.251071, 0.0 ], [ -71.781633, 42.25111, 0.0 ], [ -71.781748, 42.251221, 0.0 ], [ -71.781808, 42.251293, 0.0 ], [ -71.781875, 42.251384, 0.0 ], [ -71.782003, 42.251568, 0.0 ], [ -71.782234, 42.251894, 0.0 ], [ -71.782461, 42.252261, 0.0 ], [ -71.782629, 42.252547, 0.0 ], [ -71.782857, 42.252994, 0.0 ], [ -71.782996, 42.253234, 0.0 ], [ -71.783206, 42.253623, 0.0 ], [ -71.783225, 42.253659, 0.0 ], [ -71.783392, 42.253956, 0.0 ], [ -71.78353, 42.254175, 0.0 ], [ -71.78365, 42.254327, 0.0 ], [ -71.783893, 42.254555, 0.0 ], [ -71.784342, 42.254924, 0.0 ], [ -71.784566, 42.255089, 0.0 ], [ -71.784783, 42.255247, 0.0 ], [ -71.785064, 42.255445, 0.0 ], [ -71.785273, 42.255592, 0.0 ], [ -71.785444, 42.255716, 0.0 ], [ -71.785517, 42.255764, 0.0 ], [ -71.785664, 42.255845, 0.0 ], [ -71.785776, 42.255896, 0.0 ], [ -71.785915, 42.255948, 0.0 ], [ -71.786402, 42.256018, 0.0 ], [ -71.786801, 42.256074, 0.0 ], [ -71.787241, 42.256125, 0.0 ], [ -71.7879, 42.256208, 0.0 ], [ -71.788536, 42.256294, 0.0 ], [ -71.78858, 42.256301, 0.0 ], [ -71.789065, 42.256383, 0.0 ], [ -71.789199, 42.256413, 0.0 ], [ -71.789613, 42.256515, 0.0 ], [ -71.789741, 42.256554, 0.0 ], [ -71.789823, 42.256582, 0.0 ], [ -71.790165, 42.2567, 0.0 ], [ -71.790501, 42.25685, 0.0 ], [ -71.790658, 42.256932, 0.0 ], [ -71.790991, 42.257133, 0.0 ], [ -71.791414, 42.257383, 0.0 ], [ -71.791843, 42.257637, 0.0 ], [ -71.791871, 42.257654, 0.0 ], [ -71.792093, 42.25778, 0.0 ], [ -71.792255, 42.257882, 0.0 ], [ -71.792511, 42.257977, 0.0 ], [ -71.792721, 42.258097, 0.0 ], [ -71.792847, 42.258172, 0.0 ], [ -71.793162, 42.258358, 0.0 ], [ -71.793278, 42.258432, 0.0 ], [ -71.793361, 42.258477, 0.0 ], [ -71.793437, 42.258517, 0.0 ], [ -71.793458, 42.258526, 0.0 ], [ -71.793616, 42.258595, 0.0 ], [ -71.793659, 42.258613, 0.0 ], [ -71.793824, 42.258667, 0.0 ], [ -71.793884, 42.258686, 0.0 ], [ -71.79379, 42.258918, 0.0 ], [ -71.793755, 42.259067, 0.0 ], [ -71.793713, 42.259241, 0.0 ], [ -71.79371, 42.259464, 0.0 ], [ -71.793708, 42.259547, 0.0 ], [ -71.793709, 42.259646, 0.0 ], [ -71.793715, 42.259816, 0.0 ], [ -71.793715, 42.25984, 0.0 ], [ -71.79372, 42.259979, 0.0 ], [ -71.793725, 42.260056, 0.0 ], [ -71.793728, 42.260098, 0.0 ], [ -71.793731, 42.260152, 0.0 ], [ -71.793731, 42.260156, 0.0 ], [ -71.79373, 42.260298, 0.0 ], [ -71.79373, 42.260323, 0.0 ], [ -71.79373, 42.260327, 0.0 ], [ -71.793766, 42.26055, 0.0 ], [ -71.793767, 42.260558, 0.0 ], [ -71.793791, 42.260665, 0.0 ], [ -71.79381, 42.260755, 0.0 ], [ -71.793827, 42.260805, 0.0 ], [ -71.79386, 42.260902, 0.0 ], [ -71.793867, 42.260917, 0.0 ], [ -71.793874, 42.260932, 0.0 ], [ -71.79389, 42.26097, 0.0 ], [ -71.793903, 42.261001, 0.0 ], [ -71.793911, 42.261018, 0.0 ], [ -71.793916, 42.26103, 0.0 ], [ -71.793923, 42.261042, 0.0 ], [ -71.793939, 42.26107, 0.0 ], [ -71.793965, 42.261116, 0.0 ], [ -71.793977, 42.261135, 0.0 ], [ -71.793989, 42.261156, 0.0 ], [ -71.794005, 42.261185, 0.0 ], [ -71.794011, 42.261195, 0.0 ], [ -71.794044, 42.261249, 0.0 ], [ -71.79406, 42.261271, 0.0 ], [ -71.794148, 42.261365, 0.0 ], [ -71.794194, 42.26143, 0.0 ], [ -71.794253, 42.261513, 0.0 ], [ -71.794401, 42.261639, 0.0 ], [ -71.794582, 42.261759, 0.0 ], [ -71.794664, 42.261779, 0.0 ], [ -71.794716, 42.261806, 0.0 ], [ -71.794899, 42.261806, 0.0 ], [ -71.795026, 42.261792, 0.0 ], [ -71.795145, 42.261762, 0.0 ], [ -71.795216, 42.261746, 0.0 ], [ -71.795321, 42.261723, 0.0 ], [ -71.795432, 42.261735, 0.0 ], [ -71.795614, 42.261751, 0.0 ], [ -71.795787, 42.261766, 0.0 ], [ -71.795803, 42.261768, 0.0 ], [ -71.795961, 42.261778, 0.0 ], [ -71.796012, 42.261609, 0.0 ], [ -71.796038, 42.261526, 0.0 ], [ -71.796042, 42.261513, 0.0 ], [ -71.796085, 42.261386, 0.0 ], [ -71.79612, 42.261287, 0.0 ], [ -71.796128, 42.261263, 0.0 ], [ -71.796189, 42.261084, 0.0 ], [ -71.796208, 42.261062, 0.0 ], [ -71.796286, 42.261047, 0.0 ], [ -71.796288, 42.261047, 0.0 ], [ -71.796335, 42.261024, 0.0 ], [ -71.796337, 42.261023, 0.0 ], [ -71.79635, 42.261017, 0.0 ], [ -71.796549, 42.260923, 0.0 ], [ -71.796846, 42.260795, 0.0 ], [ -71.796846, 42.260796, 0.0 ], [ -71.796851, 42.260792, 0.0 ], [ -71.797024, 42.26069, 0.0 ], [ -71.797044, 42.260677, 0.0 ], [ -71.797102, 42.260643, 0.0 ], [ -71.797103, 42.260642, 0.0 ], [ -71.797135, 42.260572, 0.0 ], [ -71.797101, 42.260497, 0.0 ], [ -71.797029, 42.260461, 0.0 ], [ -71.79692, 42.260479, 0.0 ], [ -71.796553, 42.260662, 0.0 ] ] } },
{ "type": "Feature", "properties": { "Name": "Route 12 Inbound", "description": "12_In1 <br> <br> DateActive <Null> <br> BusRoute 12 <br> TripType IN <br> Town <Null> <br> ArrowRoute <Null> <br> Bus_Route 12 <br> Rte_Name 12_In1 <br> LASTEDITED 20220803 <br> EDITMETHOD <Null> <br> RTE_TYPE Route <br> ADA_RTE Rte12ADA <br> rWEEK Y <br> rSAT N <br> rSUN N <br> ADA_WK Y <br> ADA_Sat N <br> ADA_Sun N <br> ADA_Mid N <br> SYSTEM_MAP Y <br> Gis_Miles 5.448592", "timestamp": null, "begin": null, "end": null, "altitudeMode": null, "tessellate": 1, "extrude": 0, "visibility": -1, "drawOrder": null, "icon": null }, "geometry": { "type": "LineString", "coordinates": [ [ -71.723704, 42.246902, 0.0 ], [ -71.724045, 42.246816, 0.0 ], [ -71.723869, 42.246164, 0.0 ], [ -71.723421, 42.24626, 0.0 ], [ -71.723331, 42.246332, 0.0 ], [ -71.723555, 42.246961, 0.0 ], [ -71.72366, 42.247307, 0.0 ], [ -71.723765, 42.247545, 0.0 ], [ -71.723986, 42.247887, 0.0 ], [ -71.7242, 42.248103, 0.0 ], [ -71.724523, 42.248055, 0.0 ], [ -71.726699, 42.247696, 0.0 ], [ -71.726705, 42.247695, 0.0 ], [ -71.72671, 42.247694, 0.0 ], [ -71.726716, 42.247692, 0.0 ], [ -71.726757, 42.247685, 0.0 ], [ -71.726862, 42.247665, 0.0 ], [ -71.726911, 42.247656, 0.0 ], [ -71.726915, 42.247656, 0.0 ], [ -71.726916, 42.247655, 0.0 ], [ -71.727001, 42.247641, 0.0 ], [ -71.727016, 42.247637, 0.0 ], [ -71.727068, 42.247624, 0.0 ], [ -71.72712, 42.247611, 0.0 ], [ -71.727172, 42.247599, 0.0 ], [ -71.727224, 42.247587, 0.0 ], [ -71.727283, 42.247577, 0.0 ], [ -71.727342, 42.247566, 0.0 ], [ -71.727401, 42.247555, 0.0 ], [ -71.727456, 42.247542, 0.0 ], [ -71.727511, 42.247528, 0.0 ], [ -71.727565, 42.247515, 0.0 ], [ -71.727627, 42.247502, 0.0 ], [ -71.72769, 42.24749, 0.0 ], [ -71.727752, 42.247478, 0.0 ], [ -71.727802, 42.247468, 0.0 ], [ -71.727851, 42.247457, 0.0 ], [ -71.7279, 42.247447, 0.0 ], [ -71.727946, 42.247435, 0.0 ], [ -71.727992, 42.247422, 0.0 ], [ -71.728038, 42.247409, 0.0 ], [ -71.728092, 42.247394, 0.0 ], [ -71.728146, 42.247378, 0.0 ], [ -71.7282, 42.247362, 0.0 ], [ -71.728264, 42.247344, 0.0 ], [ -71.728329, 42.247327, 0.0 ], [ -71.728394, 42.247311, 0.0 ], [ -71.728444, 42.247298, 0.0 ], [ -71.728494, 42.247285, 0.0 ], [ -71.728545, 42.247272, 0.0 ], [ -71.729305, 42.247083, 0.0 ], [ -71.729767, 42.246968, 0.0 ], [ -71.729829, 42.246953, 0.0 ], [ -71.730229, 42.246854, 0.0 ], [ -71.730552, 42.246774, 0.0 ], [ -71.730658, 42.246748, 0.0 ], [ -71.730662, 42.246747, 0.0 ], [ -71.731444, 42.246562, 0.0 ], [ -71.73157, 42.246528, 0.0 ], [ -71.731575, 42.246527, 0.0 ], [ -71.731576, 42.246527, 0.0 ], [ -71.732195, 42.246381, 0.0 ], [ -71.732199, 42.24638, 0.0 ], [ -71.732402, 42.246324, 0.0 ], [ -71.732406, 42.246323, 0.0 ], [ -71.732407, 42.246323, 0.0 ], [ -71.733044, 42.246173, 0.0 ], [ -71.733061, 42.246168, 0.0 ], [ -71.733844, 42.245961, 0.0 ], [ -71.734567, 42.245755, 0.0 ], [ -71.734855, 42.245673, 0.0 ], [ -71.734859, 42.245672, 0.0 ], [ -71.73486, 42.245672, 0.0 ], [ -71.735148, 42.245584, 0.0 ], [ -71.735872, 42.245368, 0.0 ], [ -71.736473, 42.245176, 0.0 ], [ -71.737227, 42.244946, 0.0 ], [ -71.737231, 42.244945, 0.0 ], [ -71.737232, 42.244945, 0.0 ], [ -71.738009, 42.244698, 0.0 ], [ -71.738199, 42.244631, 0.0 ], [ -71.738306, 42.244593, 0.0 ], [ -71.73831, 42.244592, 0.0 ], [ -71.738311, 42.244592, 0.0 ], [ -71.738316, 42.24459, 0.0 ], [ -71.738412, 42.244554, 0.0 ], [ -71.738506, 42.244519, 0.0 ], [ -71.73851, 42.244518, 0.0 ], [ -71.738905, 42.244372, 0.0 ], [ -71.739045, 42.244321, 0.0 ], [ -71.73964, 42.244097, 0.0 ], [ -71.740251, 42.243875, 0.0 ], [ -71.740826, 42.243648, 0.0 ], [ -71.741065, 42.243557, 0.0 ], [ -71.741069, 42.243555, 0.0 ], [ -71.741412, 42.243402, 0.0 ], [ -71.741567, 42.24333, 0.0 ], [ -71.741571, 42.243328, 0.0 ], [ -71.741683, 42.243279, 0.0 ], [ -71.741686, 42.243277, 0.0 ], [ -71.741868, 42.243183, 0.0 ], [ -71.741957, 42.243141, 0.0 ], [ -71.741961, 42.243139, 0.0 ], [ -71.74197, 42.243141, 0.0 ], [ -71.741966, 42.243137, 0.0 ], [ -71.742033, 42.243103, 0.0 ], [ -71.74237, 42.242914, 0.0 ], [ -71.742683, 42.242726, 0.0 ], [ -71.743081, 42.242472, 0.0 ], [ -71.743085, 42.24247, 0.0 ], [ -71.743263, 42.242352, 0.0 ], [ -71.743589, 42.242124, 0.0 ], [ -71.74375, 42.241999, 0.0 ], [ -71.74375, 42.241998, 0.0 ], [ -71.743867, 42.241907, 0.0 ], [ -71.743913, 42.241871, 0.0 ], [ -71.744197, 42.241612, 0.0 ], [ -71.744199, 42.241609, 0.0 ], [ -71.7442, 42.241609, 0.0 ], [ -71.744352, 42.241504, 0.0 ], [ -71.744557, 42.241308, 0.0 ], [ -71.744666, 42.241182, 0.0 ], [ -71.744763, 42.241052, 0.0 ], [ -71.744898, 42.240851, 0.0 ], [ -71.745035, 42.240648, 0.0 ], [ -71.745318, 42.240212, 0.0 ], [ -71.745611, 42.239761, 0.0 ], [ -71.74571, 42.239599, 0.0 ], [ -71.746161, 42.239717, 0.0 ], [ -71.746224, 42.239671, 0.0 ], [ -71.746661, 42.239491, 0.0 ], [ -71.747025, 42.23933, 0.0 ], [ -71.747299, 42.239243, 0.0 ], [ -71.747462, 42.239441, 0.0 ], [ -71.747902, 42.240055, 0.0 ], [ -71.748163, 42.240394, 0.0 ], [ -71.748246, 42.240622, 0.0 ], [ -71.748261, 42.240855, 0.0 ], [ -71.748276, 42.241004, 0.0 ], [ -71.748834, 42.240956, 0.0 ], [ -71.748993, 42.240939, 0.0 ], [ -71.749174, 42.240931, 0.0 ], [ -71.749291, 42.240928, 0.0 ], [ -71.749426, 42.240927, 0.0 ], [ -71.749502, 42.24093, 0.0 ], [ -71.749716, 42.240958, 0.0 ], [ -71.749776, 42.240966, 0.0 ], [ -71.749891, 42.24098, 0.0 ], [ -71.749999, 42.240999, 0.0 ], [ -71.750168, 42.241034, 0.0 ], [ -71.750403, 42.241086, 0.0 ], [ -71.75081, 42.241177, 0.0 ], [ -71.751194, 42.241258, 0.0 ], [ -71.751419, 42.241305, 0.0 ], [ -71.751673, 42.241358, 0.0 ], [ -71.751894, 42.241402, 0.0 ], [ -71.751968, 42.241417, 0.0 ], [ -71.75217, 42.241453, 0.0 ], [ -71.752262, 42.241464, 0.0 ], [ -71.75236, 42.241479, 0.0 ], [ -71.752432, 42.241482, 0.0 ], [ -71.752459, 42.241482, 0.0 ], [ -71.752518, 42.241484, 0.0 ], [ -71.752604, 42.241484, 0.0 ], [ -71.75267, 42.241479, 0.0 ], [ -71.752728, 42.241471, 0.0 ], [ -71.752876, 42.241436, 0.0 ], [ -71.752878, 42.241438, 0.0 ], [ -71.753056, 42.241383, 0.0 ], [ -71.753624, 42.241205, 0.0 ], [ -71.753945, 42.241111, 0.0 ], [ -71.754002, 42.241176, 0.0 ], [ -71.754147, 42.241328, 0.0 ], [ -71.754215, 42.2414, 0.0 ], [ -71.754353, 42.241546, 0.0 ], [ -71.754693, 42.2419, 0.0 ], [ -71.754937, 42.242167, 0.0 ], [ -71.755289, 42.242538, 0.0 ], [ -71.755494, 42.242745, 0.0 ], [ -71.755715, 42.242982, 0.0 ], [ -71.755948, 42.243215, 0.0 ], [ -71.756082, 42.243342, 0.0 ], [ -71.756128, 42.243387, 0.0 ], [ -71.756174, 42.243432, 0.0 ], [ -71.756312, 42.243557, 0.0 ], [ -71.756317, 42.243562, 0.0 ], [ -71.756418, 42.243644, 0.0 ], [ -71.756523, 42.243724, 0.0 ], [ -71.756689, 42.243839, 0.0 ], [ -71.756865, 42.243946, 0.0 ], [ -71.756911, 42.243973, 0.0 ], [ -71.756972, 42.24401, 0.0 ], [ -71.757011, 42.244031, 0.0 ], [ -71.757043, 42.24405, 0.0 ], [ -71.757222, 42.24415, 0.0 ], [ -71.757404, 42.244247, 0.0 ], [ -71.757585, 42.244345, 0.0 ], [ -71.757797, 42.244466, 0.0 ], [ -71.758008, 42.244588, 0.0 ], [ -71.758218, 42.244711, 0.0 ], [ -71.758342, 42.244781, 0.0 ], [ -71.758466, 42.244852, 0.0 ], [ -71.758586, 42.244927, 0.0 ], [ -71.758652, 42.244971, 0.0 ], [ -71.758716, 42.245017, 0.0 ], [ -71.758777, 42.245066, 0.0 ], [ -71.75883, 42.245118, 0.0 ], [ -71.75888, 42.245172, 0.0 ], [ -71.75893, 42.245226, 0.0 ], [ -71.759041, 42.245349, 0.0 ], [ -71.759151, 42.245473, 0.0 ], [ -71.759227, 42.245556, 0.0 ], [ -71.757864, 42.246354, 0.0 ], [ -71.758785, 42.24727, 0.0 ], [ -71.759116, 42.247342, 0.0 ], [ -71.759772, 42.246988, 0.0 ], [ -71.759064, 42.246216, 0.0 ], [ -71.759403, 42.246041, 0.0 ], [ -71.759492, 42.246007, 0.0 ], [ -71.759612, 42.245961, 0.0 ], [ -71.759724, 42.246077, 0.0 ], [ -71.759746, 42.246101, 0.0 ], [ -71.759901, 42.246262, 0.0 ], [ -71.760081, 42.246446, 0.0 ], [ -71.760087, 42.246451, 0.0 ], [ -71.760271, 42.246629, 0.0 ], [ -71.760332, 42.246686, 0.0 ], [ -71.760464, 42.246809, 0.0 ], [ -71.760636, 42.246977, 0.0 ], [ -71.760652, 42.246993, 0.0 ], [ -71.760833, 42.24718, 0.0 ], [ -71.76101, 42.247369, 0.0 ], [ -71.761185, 42.24756, 0.0 ], [ -71.761323, 42.247714, 0.0 ], [ -71.761461, 42.247868, 0.0 ], [ -71.761602, 42.248022, 0.0 ], [ -71.761738, 42.248167, 0.0 ], [ -71.761877, 42.248312, 0.0 ], [ -71.762022, 42.248453, 0.0 ], [ -71.762096, 42.24852, 0.0 ], [ -71.762172, 42.248585, 0.0 ], [ -71.762248, 42.248651, 0.0 ], [ -71.762288, 42.248686, 0.0 ], [ -71.762343, 42.248733, 0.0 ], [ -71.762438, 42.248815, 0.0 ], [ -71.762533, 42.248896, 0.0 ], [ -71.762715, 42.249045, 0.0 ], [ -71.762899, 42.249191, 0.0 ], [ -71.763083, 42.249338, 0.0 ], [ -71.763204, 42.249438, 0.0 ], [ -71.763324, 42.249538, 0.0 ], [ -71.763445, 42.249637, 0.0 ], [ -71.763585, 42.249751, 0.0 ], [ -71.763725, 42.249865, 0.0 ], [ -71.763865, 42.249978, 0.0 ], [ -71.763953, 42.250047, 0.0 ], [ -71.764041, 42.250117, 0.0 ], [ -71.76413, 42.250185, 0.0 ], [ -71.76419, 42.250231, 0.0 ], [ -71.764252, 42.250276, 0.0 ], [ -71.764316, 42.250319, 0.0 ], [ -71.764424, 42.25038, 0.0 ], [ -71.764539, 42.250435, 0.0 ], [ -71.76466, 42.250483, 0.0 ], [ -71.764723, 42.250504, 0.0 ], [ -71.764787, 42.250523, 0.0 ], [ -71.764953, 42.25057, 0.0 ], [ -71.765188, 42.250621, 0.0 ], [ -71.765359, 42.250654, 0.0 ], [ -71.765486, 42.250677, 0.0 ], [ -71.765615, 42.250699, 0.0 ], [ -71.765783, 42.250722, 0.0 ], [ -71.765913, 42.250736, 0.0 ], [ -71.766084, 42.250749, 0.0 ], [ -71.766256, 42.250759, 0.0 ], [ -71.766423, 42.250764, 0.0 ], [ -71.766591, 42.250766, 0.0 ], [ -71.766758, 42.250765, 0.0 ], [ -71.766917, 42.25076, 0.0 ], [ -71.767075, 42.250751, 0.0 ], [ -71.767234, 42.250742, 0.0 ], [ -71.76739, 42.250733, 0.0 ], [ -71.767546, 42.250722, 0.0 ], [ -71.767702, 42.250713, 0.0 ], [ -71.767872, 42.250703, 0.0 ], [ -71.768041, 42.250693, 0.0 ], [ -71.768209, 42.250681, 0.0 ], [ -71.768355, 42.25067, 0.0 ], [ -71.768501, 42.250658, 0.0 ], [ -71.768578, 42.250649, 0.0 ], [ -71.768645, 42.25064, 0.0 ], [ -71.768746, 42.250624, 0.0 ], [ -71.768846, 42.250605, 0.0 ], [ -71.768945, 42.250582, 0.0 ], [ -71.769036, 42.250556, 0.0 ], [ -71.769126, 42.250527, 0.0 ], [ -71.769217, 42.250499, 0.0 ], [ -71.769305, 42.250474, 0.0 ], [ -71.769395, 42.250451, 0.0 ], [ -71.769485, 42.250429, 0.0 ], [ -71.76962, 42.2504, 0.0 ], [ -71.769756, 42.250375, 0.0 ], [ -71.769894, 42.25036, 0.0 ], [ -71.770012, 42.250357, 0.0 ], [ -71.770131, 42.250361, 0.0 ], [ -71.770248, 42.250371, 0.0 ], [ -71.770385, 42.250388, 0.0 ], [ -71.770521, 42.250413, 0.0 ], [ -71.770655, 42.250441, 0.0 ], [ -71.770789, 42.250473, 0.0 ], [ -71.770922, 42.25051, 0.0 ], [ -71.770973, 42.250524, 0.0 ], [ -71.771054, 42.250546, 0.0 ], [ -71.771214, 42.250588, 0.0 ], [ -71.771373, 42.250629, 0.0 ], [ -71.771533, 42.25067, 0.0 ], [ -71.771683, 42.250711, 0.0 ], [ -71.771833, 42.250751, 0.0 ], [ -71.771922, 42.25077, 0.0 ], [ -71.771986, 42.250785, 0.0 ], [ -71.772118, 42.250808, 0.0 ], [ -71.772252, 42.250827, 0.0 ], [ -71.772386, 42.250834, 0.0 ], [ -71.772523, 42.250826, 0.0 ], [ -71.772659, 42.250806, 0.0 ], [ -71.772792, 42.250778, 0.0 ], [ -71.772877, 42.250754, 0.0 ], [ -71.77296, 42.250727, 0.0 ], [ -71.773042, 42.250698, 0.0 ], [ -71.773156, 42.250649, 0.0 ], [ -71.773266, 42.250595, 0.0 ], [ -71.773376, 42.250541, 0.0 ], [ -71.773464, 42.250498, 0.0 ], [ -71.773552, 42.250455, 0.0 ], [ -71.773641, 42.250413, 0.0 ], [ -71.773777, 42.25035, 0.0 ], [ -71.773915, 42.25029, 0.0 ], [ -71.774059, 42.250239, 0.0 ], [ -71.774183, 42.250203, 0.0 ], [ -71.774311, 42.250173, 0.0 ], [ -71.774441, 42.250149, 0.0 ], [ -71.774524, 42.250137, 0.0 ], [ -71.774561, 42.250131, 0.0 ], [ -71.774682, 42.250118, 0.0 ], [ -71.774804, 42.250112, 0.0 ], [ -71.774944, 42.250115, 0.0 ], [ -71.775085, 42.250127, 0.0 ], [ -71.775223, 42.250144, 0.0 ], [ -71.775375, 42.250171, 0.0 ], [ -71.77544, 42.250186, 0.0 ], [ -71.775525, 42.250205, 0.0 ], [ -71.775671, 42.250245, 0.0 ], [ -71.775777, 42.250278, 0.0 ], [ -71.775881, 42.250315, 0.0 ], [ -71.775981, 42.250356, 0.0 ], [ -71.776053, 42.250392, 0.0 ], [ -71.776122, 42.25043, 0.0 ], [ -71.776191, 42.250468, 0.0 ], [ -71.776243, 42.250495, 0.0 ], [ -71.776295, 42.250522, 0.0 ], [ -71.776347, 42.250549, 0.0 ], [ -71.776462, 42.250611, 0.0 ], [ -71.776577, 42.250674, 0.0 ], [ -71.776697, 42.250731, 0.0 ], [ -71.776793, 42.250768, 0.0 ], [ -71.776892, 42.250801, 0.0 ], [ -71.776992, 42.250831, 0.0 ], [ -71.777082, 42.250855, 0.0 ], [ -71.777173, 42.250875, 0.0 ], [ -71.777265, 42.250895, 0.0 ], [ -71.777386, 42.250919, 0.0 ], [ -71.777508, 42.250941, 0.0 ], [ -71.77763, 42.250962, 0.0 ], [ -71.777686, 42.25097, 0.0 ], [ -71.777742, 42.250979, 0.0 ], [ -71.777797, 42.250987, 0.0 ], [ -71.777975, 42.250999, 0.0 ], [ -71.778168, 42.250991, 0.0 ], [ -71.778454, 42.250977, 0.0 ], [ -71.778716, 42.250959, 0.0 ], [ -71.779108, 42.250932, 0.0 ], [ -71.779521, 42.250908, 0.0 ], [ -71.779881, 42.250883, 0.0 ], [ -71.780037, 42.250872, 0.0 ], [ -71.780409, 42.250849, 0.0 ], [ -71.78055, 42.250841, 0.0 ], [ -71.780942, 42.250818, 0.0 ], [ -71.781201, 42.250886, 0.0 ], [ -71.781258, 42.250904, 0.0 ], [ -71.78133, 42.250929, 0.0 ], [ -71.781336, 42.250931, 0.0 ], [ -71.781389, 42.250956, 0.0 ], [ -71.781484, 42.251004, 0.0 ], [ -71.781584, 42.251071, 0.0 ], [ -71.781633, 42.25111, 0.0 ], [ -71.781748, 42.251221, 0.0 ], [ -71.781808, 42.251293, 0.0 ], [ -71.781875, 42.251384, 0.0 ], [ -71.782003, 42.251568, 0.0 ], [ -71.782037, 42.251617, 0.0 ], [ -71.782234, 42.251894, 0.0 ], [ -71.782461, 42.252261, 0.0 ], [ -71.782629, 42.252547, 0.0 ], [ -71.782687, 42.25266, 0.0 ], [ -71.782857, 42.252994, 0.0 ], [ -71.782996, 42.253234, 0.0 ], [ -71.783206, 42.253623, 0.0 ], [ -71.783225, 42.253659, 0.0 ], [ -71.783341, 42.253866, 0.0 ], [ -71.783392, 42.253956, 0.0 ], [ -71.78353, 42.254175, 0.0 ], [ -71.78365, 42.254327, 0.0 ], [ -71.783893, 42.254555, 0.0 ], [ -71.784342, 42.254924, 0.0 ], [ -71.784566, 42.255089, 0.0 ], [ -71.784783, 42.255247, 0.0 ], [ -71.784836, 42.255284, 0.0 ], [ -71.785064, 42.255445, 0.0 ], [ -71.785089, 42.255488, 0.0 ], [ -71.785106, 42.255532, 0.0 ], [ -71.785116, 42.255555, 0.0 ], [ -71.785123, 42.25558, 0.0 ], [ -71.785126, 42.255592, 0.0 ], [ -71.785128, 42.255613, 0.0 ], [ -71.785127, 42.255662, 0.0 ], [ -71.785122, 42.255728, 0.0 ], [ -71.785095, 42.255758, 0.0 ], [ -71.785087, 42.25577, 0.0 ], [ -71.78508, 42.255783, 0.0 ], [ -71.785058, 42.255873, 0.0 ], [ -71.785057, 42.255876, 0.0 ], [ -71.785064, 42.255876, 0.0 ], [ -71.785412, 42.255916, 0.0 ], [ -71.785619, 42.255933, 0.0 ], [ -71.785883, 42.255944, 0.0 ], [ -71.785915, 42.255948, 0.0 ], [ -71.786402, 42.256018, 0.0 ], [ -71.786801, 42.256074, 0.0 ], [ -71.787241, 42.256125, 0.0 ], [ -71.7879, 42.256208, 0.0 ], [ -71.788279, 42.256259, 0.0 ], [ -71.788536, 42.256294, 0.0 ], [ -71.78858, 42.256301, 0.0 ], [ -71.788899, 42.256355, 0.0 ], [ -71.789065, 42.256383, 0.0 ], [ -71.789199, 42.256413, 0.0 ], [ -71.789613, 42.256515, 0.0 ], [ -71.789741, 42.256554, 0.0 ], [ -71.789823, 42.256582, 0.0 ], [ -71.790165, 42.2567, 0.0 ], [ -71.790501, 42.25685, 0.0 ], [ -71.790658, 42.256932, 0.0 ], [ -71.790991, 42.257133, 0.0 ], [ -71.791414, 42.257383, 0.0 ], [ -71.791843, 42.257637, 0.0 ], [ -71.791871, 42.257654, 0.0 ], [ -71.792093, 42.25778, 0.0 ], [ -71.792206, 42.257851, 0.0 ], [ -71.792255, 42.257882, 0.0 ], [ -71.792439, 42.258049, 0.0 ], [ -71.793257, 42.258525, 0.0 ], [ -71.79335, 42.25858, 0.0 ], [ -71.79343, 42.258628, 0.0 ], [ -71.793549, 42.258698, 0.0 ], [ -71.793586, 42.258734, 0.0 ], [ -71.793644, 42.258789, 0.0 ], [ -71.793699, 42.258879, 0.0 ], [ -71.79373, 42.258972, 0.0 ], [ -71.793755, 42.259067, 0.0 ], [ -71.793726, 42.25919, 0.0 ], [ -71.793713, 42.259241, 0.0 ], [ -71.79371, 42.259464, 0.0 ], [ -71.793708, 42.259547, 0.0 ], [ -71.793709, 42.259646, 0.0 ], [ -71.793715, 42.259816, 0.0 ], [ -71.793715, 42.25984, 0.0 ], [ -71.793715, 42.259841, 0.0 ], [ -71.79372, 42.259979, 0.0 ], [ -71.793725, 42.260056, 0.0 ], [ -71.793728, 42.260098, 0.0 ], [ -71.793731, 42.260152, 0.0 ], [ -71.793731, 42.260156, 0.0 ], [ -71.79373, 42.260298, 0.0 ], [ -71.79373, 42.260323, 0.0 ], [ -71.79373, 42.260327, 0.0 ], [ -71.79373, 42.260323, 0.0 ], [ -71.793863, 42.260223, 0.0 ], [ -71.794051, 42.26021, 0.0 ], [ -71.794439, 42.260201, 0.0 ], [ -71.794576, 42.260194, 0.0 ], [ -71.795088, 42.260169, 0.0 ], [ -71.7953, 42.260166, 0.0 ], [ -71.795503, 42.260236, 0.0 ], [ -71.795627, 42.260249, 0.0 ], [ -71.795717, 42.260257, 0.0 ], [ -71.795831, 42.260263, 0.0 ], [ -71.796017, 42.260265, 0.0 ], [ -71.797239, 42.260241, 0.0 ], [ -71.797332, 42.260241, 0.0 ], [ -71.797485, 42.260256, 0.0 ], [ -71.797599, 42.260278, 0.0 ], [ -71.797701, 42.260327, 0.0 ], [ -71.797559, 42.260435, 0.0 ], [ -71.797533, 42.260455, 0.0 ], [ -71.797393, 42.260562, 0.0 ], [ -71.797298, 42.260635, 0.0 ], [ -71.797234, 42.260684, 0.0 ], [ -71.79694, 42.260909, 0.0 ], [ -71.796846, 42.260795, 0.0 ], [ -71.796549, 42.260923, 0.0 ], [ -71.79635, 42.261017, 0.0 ], [ -71.796337, 42.261023, 0.0 ], [ -71.796335, 42.261024, 0.0 ], [ -71.796288, 42.261047, 0.0 ], [ -71.796196, 42.261065, 0.0 ], [ -71.796124, 42.261025, 0.0 ], [ -71.796111, 42.260937, 0.0 ], [ -71.796146, 42.260876, 0.0 ], [ -71.796553, 42.260662, 0.0 ] ] } },
{ "type": "Feature", "properties": { "Name": "12_In2", "description": "12_In2    <br>       <br>   DateActive   <Null>    <br>   BusRoute   12    <br>   TripType   IN    <br>   Town   <Null>    <br>   ArrowRoute   <Null>    <br>   Bus_Route   12    <br>   Rte_Name   12_In2    <br>   LASTEDITED   20220114    <br>   EDITMETHOD   <Null>    <br>   RTE_TYPE   Route    <br>   ADA_RTE   Rte12ADA    <br>   rWEEK   Y    <br>   rSAT   N    <br>   rSUN   N    <br>   ADA_WK   Y    <br>   ADA_Sat   N    <br>   ADA_Sun   N    <br>   ADA_Mid   N    <br>   SYSTEM_MAP   Y    <br>   Gis_Miles   2.608866", "timestamp": null, "begin": null, "end": null, "altitudeMode": null, "tessellate": 1, "extrude": 0, "visibility": -1, "drawOrder": null, "icon": null }, "geometry": { "type": "LineString", "coordinates": [ [ -71.785122, 42.255728, 0.0 ], [ -71.785006, 42.255763, 0.0 ], [ -71.784706, 42.255787, 0.0 ], [ -71.783716, 42.255858, 0.0 ], [ -71.783143, 42.255901, 0.0 ], [ -71.782518, 42.255947, 0.0 ], [ -71.782353, 42.255954, 0.0 ], [ -71.781885, 42.255973, 0.0 ], [ -71.780944, 42.256014, 0.0 ], [ -71.78078, 42.256021, 0.0 ], [ -71.780523, 42.256033, 0.0 ], [ -71.780431, 42.256037, 0.0 ], [ -71.779655, 42.256074, 0.0 ], [ -71.779589, 42.256077, 0.0 ], [ -71.779548, 42.256078, 0.0 ], [ -71.779345, 42.256086, 0.0 ], [ -71.778711, 42.256112, 0.0 ], [ -71.77863, 42.256116, 0.0 ], [ -71.777758, 42.256161, 0.0 ], [ -71.777709, 42.256164, 0.0 ], [ -71.776868, 42.256202, 0.0 ], [ -71.776816, 42.256205, 0.0 ], [ -71.775978, 42.256243, 0.0 ], [ -71.775923, 42.256246, 0.0 ], [ -71.775069, 42.256291, 0.0 ], [ -71.77507, 42.256297, 0.0 ], [ -71.775044, 42.256298, 0.0 ], [ -71.774829, 42.256307, 0.0 ], [ -71.774615, 42.256316, 0.0 ], [ -71.774496, 42.256321, 0.0 ], [ -71.7744, 42.256325, 0.0 ], [ -71.774356, 42.256328, 0.0 ], [ -71.774251, 42.256333, 0.0 ], [ -71.774183, 42.256336, 0.0 ], [ -71.773461, 42.256368, 0.0 ], [ -71.773446, 42.256369, 0.0 ], [ -71.7733, 42.256375, 0.0 ], [ -71.773245, 42.256378, 0.0 ], [ -71.773038, 42.256388, 0.0 ], [ -71.77274, 42.256404, 0.0 ], [ -71.772576, 42.256412, 0.0 ], [ -71.772476, 42.256418, 0.0 ], [ -71.772285, 42.256429, 0.0 ], [ -71.772097, 42.256451, 0.0 ], [ -71.771867, 42.256497, 0.0 ], [ -71.77119, 42.256697, 0.0 ], [ -71.770935, 42.256772, 0.0 ], [ -71.770684, 42.256845, 0.0 ], [ -71.770523, 42.256893, 0.0 ], [ -71.770434, 42.25692, 0.0 ], [ -71.770143, 42.257014, 0.0 ], [ -71.769963, 42.257074, 0.0 ], [ -71.769962, 42.257074, 0.0 ], [ -71.769853, 42.257111, 0.0 ], [ -71.769563, 42.257206, 0.0 ], [ -71.769173, 42.257326, 0.0 ], [ -71.769118, 42.257343, 0.0 ], [ -71.769117, 42.257343, 0.0 ], [ -71.769064, 42.257416, 0.0 ], [ -71.769021, 42.257476, 0.0 ], [ -71.769002, 42.257501, 0.0 ], [ -71.769025, 42.257529, 0.0 ], [ -71.769026, 42.257531, 0.0 ], [ -71.769072, 42.257585, 0.0 ], [ -71.769123, 42.257675, 0.0 ], [ -71.769167, 42.257766, 0.0 ], [ -71.769191, 42.257829, 0.0 ], [ -71.769212, 42.257893, 0.0 ], [ -71.769231, 42.257957, 0.0 ], [ -71.769265, 42.258103, 0.0 ], [ -71.769296, 42.25833, 0.0 ], [ -71.7693, 42.258363, 0.0 ], [ -71.769339, 42.258653, 0.0 ], [ -71.769353, 42.25874, 0.0 ], [ -71.769409, 42.259082, 0.0 ], [ -71.769483, 42.259548, 0.0 ], [ -71.769501, 42.259673, 0.0 ], [ -71.769519, 42.259798, 0.0 ], [ -71.769536, 42.259896, 0.0 ], [ -71.769543, 42.259934, 0.0 ], [ -71.769557, 42.260023, 0.0 ], [ -71.769567, 42.260091, 0.0 ], [ -71.769576, 42.26016, 0.0 ], [ -71.769583, 42.260226, 0.0 ], [ -71.769584, 42.260293, 0.0 ], [ -71.769574, 42.260366, 0.0 ], [ -71.769555, 42.26044, 0.0 ], [ -71.769519, 42.260553, 0.0 ], [ -71.769507, 42.260589, 0.0 ], [ -71.769442, 42.260745, 0.0 ], [ -71.769305, 42.261025, 0.0 ], [ -71.769265, 42.261107, 0.0 ], [ -71.769117, 42.261371, 0.0 ], [ -71.768947, 42.261354, 0.0 ], [ -71.768571, 42.261244, 0.0 ], [ -71.768422, 42.26122, 0.0 ], [ -71.767643, 42.261225, 0.0 ], [ -71.767142, 42.261233, 0.0 ], [ -71.766993, 42.261255, 0.0 ], [ -71.766919, 42.261285, 0.0 ], [ -71.766833, 42.261356, 0.0 ], [ -71.766776, 42.261464, 0.0 ], [ -71.766803, 42.261863, 0.0 ], [ -71.766812, 42.261946, 0.0 ], [ -71.766828, 42.262095, 0.0 ], [ -71.766865, 42.262248, 0.0 ], [ -71.766912, 42.262442, 0.0 ], [ -71.76696, 42.262581, 0.0 ], [ -71.767028, 42.262645, 0.0 ], [ -71.767149, 42.262621, 0.0 ], [ -71.767283, 42.262598, 0.0 ], [ -71.76748, 42.262562, 0.0 ], [ -71.767662, 42.262536, 0.0 ], [ -71.767879, 42.262525, 0.0 ], [ -71.768143, 42.262524, 0.0 ], [ -71.768374, 42.262531, 0.0 ], [ -71.768575, 42.262542, 0.0 ], [ -71.768582, 42.262475, 0.0 ], [ -71.768588, 42.262437, 0.0 ], [ -71.768593, 42.262407, 0.0 ], [ -71.768611, 42.262341, 0.0 ], [ -71.768642, 42.262264, 0.0 ], [ -71.768683, 42.262188, 0.0 ], [ -71.768723, 42.262112, 0.0 ], [ -71.768784, 42.26199, 0.0 ], [ -71.768786, 42.261986, 0.0 ], [ -71.768846, 42.261868, 0.0 ], [ -71.768909, 42.261747, 0.0 ], [ -71.768993, 42.261594, 0.0 ], [ -71.769117, 42.261371, 0.0 ], [ -71.769265, 42.261107, 0.0 ], [ -71.769305, 42.261025, 0.0 ], [ -71.769442, 42.260745, 0.0 ], [ -71.769477, 42.260667, 0.0 ], [ -71.769507, 42.260589, 0.0 ], [ -71.769534, 42.260509, 0.0 ], [ -71.769555, 42.26044, 0.0 ], [ -71.769555, 42.260438, 0.0 ], [ -71.769574, 42.260366, 0.0 ], [ -71.76958, 42.26032, 0.0 ], [ -71.769584, 42.260293, 0.0 ], [ -71.769583, 42.260226, 0.0 ], [ -71.769576, 42.26016, 0.0 ], [ -71.769567, 42.260091, 0.0 ], [ -71.769557, 42.260023, 0.0 ], [ -71.769543, 42.259934, 0.0 ], [ -71.769536, 42.259896, 0.0 ], [ -71.769519, 42.259798, 0.0 ], [ -71.769501, 42.259673, 0.0 ], [ -71.769483, 42.259548, 0.0 ], [ -71.769465, 42.259423, 0.0 ], [ -71.769437, 42.259252, 0.0 ], [ -71.769432, 42.259219, 0.0 ], [ -71.769409, 42.259082, 0.0 ], [ -71.769382, 42.258911, 0.0 ], [ -71.769359, 42.25874, 0.0 ], [ -71.769337, 42.258568, 0.0 ], [ -71.769313, 42.258397, 0.0 ], [ -71.76929, 42.25825, 0.0 ], [ -71.769275, 42.258163, 0.0 ], [ -71.769265, 42.258103, 0.0 ], [ -71.769191, 42.257829, 0.0 ], [ -71.769167, 42.257766, 0.0 ], [ -71.769123, 42.257675, 0.0 ], [ -71.769072, 42.257585, 0.0 ], [ -71.769103, 42.257495, 0.0 ], [ -71.77004, 42.257207, 0.0 ], [ -71.770584, 42.257037, 0.0 ], [ -71.770582, 42.257028, 0.0 ], [ -71.770728, 42.256984, 0.0 ], [ -71.770982, 42.256909, 0.0 ], [ -71.771235, 42.256831, 0.0 ], [ -71.771321, 42.256803, 0.0 ], [ -71.771407, 42.256774, 0.0 ], [ -71.771493, 42.256746, 0.0 ], [ -71.77164, 42.2567, 0.0 ], [ -71.771787, 42.256654, 0.0 ], [ -71.771937, 42.256616, 0.0 ], [ -71.771956, 42.256613, 0.0 ], [ -71.772058, 42.256596, 0.0 ], [ -71.772181, 42.256581, 0.0 ], [ -71.772305, 42.256568, 0.0 ], [ -71.772477, 42.256557, 0.0 ], [ -71.772649, 42.256551, 0.0 ], [ -71.772822, 42.256545, 0.0 ], [ -71.773039, 42.256533, 0.0 ], [ -71.773199, 42.256524, 0.0 ], [ -71.773261, 42.25652, 0.0 ], [ -71.773315, 42.256517, 0.0 ], [ -71.773575, 42.256501, 0.0 ], [ -71.773952, 42.25648, 0.0 ], [ -71.774109, 42.256472, 0.0 ], [ -71.77419, 42.256468, 0.0 ], [ -71.774192, 42.256468, 0.0 ], [ -71.774266, 42.256465, 0.0 ], [ -71.774423, 42.256458, 0.0 ], [ -71.774628, 42.25645, 0.0 ], [ -71.774833, 42.256442, 0.0 ], [ -71.775038, 42.256434, 0.0 ], [ -71.775085, 42.256432, 0.0 ], [ -71.775269, 42.256424, 0.0 ], [ -71.775449, 42.256416, 0.0 ], [ -71.775501, 42.256413, 0.0 ], [ -71.775512, 42.256413, 0.0 ], [ -71.775784, 42.2564, 0.0 ], [ -71.775916, 42.256389, 0.0 ], [ -71.77594, 42.256388, 0.0 ], [ -71.775945, 42.256387, 0.0 ], [ -71.776203, 42.256367, 0.0 ], [ -71.776717, 42.256341, 0.0 ], [ -71.777539, 42.256281, 0.0 ], [ -71.778092, 42.256251, 0.0 ], [ -71.77864, 42.256221, 0.0 ], [ -71.778891, 42.256207, 0.0 ], [ -71.779555, 42.256173, 0.0 ], [ -71.779569, 42.256173, 0.0 ], [ -71.779655, 42.256169, 0.0 ], [ -71.780328, 42.256135, 0.0 ], [ -71.780435, 42.256129, 0.0 ], [ -71.780632, 42.256119, 0.0 ], [ -71.781093, 42.256094, 0.0 ], [ -71.781376, 42.256081, 0.0 ], [ -71.781834, 42.25606, 0.0 ], [ -71.782242, 42.256041, 0.0 ], [ -71.782365, 42.256031, 0.0 ], [ -71.782747, 42.256001, 0.0 ], [ -71.783589, 42.255941, 0.0 ], [ -71.784096, 42.255908, 0.0 ], [ -71.784151, 42.255904, 0.0 ], [ -71.784608, 42.255867, 0.0 ], [ -71.784916, 42.255867, 0.0 ], [ -71.785057, 42.255876, 0.0 ], [ -71.785064, 42.255876, 0.0 ] ] } }
]
}
